station,valid,time,tmpf,dwpf,relh,drct,sknt,p01i,alti,vsby,gust,skyc1,skyc2,skyc3,skyc4,skyl1,skyl2,skyl3,feel
0CO,9/1/23,12:55:00 AM,46.4,26.6,45.73,M,M,0,30.79,10,M,CLR,M,M,M,M,M,M,M
0CO,9/1/23,1:55:00 AM,44.6,24.8,45.44,140,18,0,30.8,10,M,CLR,M,M,M,M,M,M,36.34
0CO,9/1/23,2:55:00 AM,44.6,23,42.14,120,22,0,30.82,10,M,CLR,M,M,M,M,M,M,35.45
0CO,9/1/23,3:55:00 AM,44.6,21.2,39.06,M,M,0,30.82,10,M,CLR,M,M,M,M,M,M,M
0CO,9/1/23,4:55:00 AM,42.8,26.6,52.45,120,21,0,30.82,10,29,CLR,M,M,M,M,M,M,33.26
0CO,9/1/23,5:55:00 AM,41,26.6,56.22,130,18,0,30.81,10,31,CLR,M,M,M,M,M,M,31.6
0CO,9/1/23,6:55:00 AM,41,28.4,60.54,130,19,0,30.81,10,M,CLR,M,M,M,M,M,M,31.34
0CO,9/1/23,7:55:00 AM,41,28.4,60.54,120,16,0,30.81,10,25,CLR,M,M,M,M,M,M,32.15
0CO,9/1/23,8:55:00 AM,41,28.4,60.54,140,17,0,30.81,10,M,CLR,M,M,M,M,M,M,31.87
0CO,9/1/23,9:55:00 AM,41,28.4,60.54,130,19,0,30.8,10,26,CLR,M,M,M,M,M,M,31.34
0CO,9/1/23,10:55:00 AM,39.2,28.4,64.93,130,21,0,30.8,10,26,CLR,M,M,M,M,M,M,28.46
0CO,9/1/23,11:55:00 AM,39.2,28.4,64.93,130,18,0,30.8,10,25,CLR,M,M,M,M,M,M,29.23
0CO,9/1/23,12:55:00 PM,37.4,28.4,69.67,140,22,0,30.8,10,27,CLR,M,M,M,M,M,M,25.81
0CO,9/1/23,1:55:00 PM,41,30.2,65.16,M,M,0,30.81,10,M,CLR,M,M,M,M,M,M,M
0CO,9/1/23,2:55:00 PM,42.8,30.2,60.79,M,M,0,30.82,10,M,CLR,M,M,M,M,M,M,M
0CO,9/1/23,3:55:00 PM,44.6,24.8,45.44,120,16,0,30.83,10,M,CLR,M,M,M,M,M,M,36.84
0CO,9/1/23,4:55:00 PM,44.6,26.6,48.96,M,M,0,30.84,10,M,CLR,M,M,M,M,M,M,M
0CO,9/1/23,5:55:00 PM,48.2,23,36.78,120,11,0,30.84,10,21,CLR,M,M,M,M,M,M,42.94
0CO,9/1/23,6:55:00 PM,50,23,34.39,160,15,0,30.84,10,24,CLR,M,M,M,M,M,M,50
0CO,9/1/23,7:55:00 PM,50,24.8,37.08,130,12,0,30.83,10,23,CLR,M,M,M,M,M,M,50
0CO,9/1/23,8:55:00 PM,50,23,34.39,150,13,0,30.81,10,20,CLR,M,M,M,M,M,M,50
0CO,9/1/23,9:55:00 PM,50,23,34.39,M,M,0,30.79,10,M,CLR,M,M,M,M,M,M,50
0CO,9/1/23,10:55:00 PM,48.2,23,36.78,120,16,0,30.79,10,M,CLR,M,M,M,M,M,M,41.53
0CO,9/1/23,11:55:00 PM,46.4,21.2,36.48,120,16,0,30.79,10,M,CLR,M,M,M,M,M,M,39.19
0CO,9/2/23,12:55:00 AM,44.6,21.2,39.06,M,M,0,30.77,10,M,CLR,M,M,M,M,M,M,M
0CO,9/2/23,1:55:00 AM,42.8,23,45.14,M,M,0,30.77,10,M,CLR,M,M,M,M,M,M,M
0CO,9/2/23,2:55:00 AM,42.8,26.6,52.45,M,M,0,30.79,10,M,SCT,M,M,M,10000,M,M,M
0CO,9/2/23,3:55:00 AM,42.8,26.6,52.45,160,22,0,30.8,10,M,CLR,M,M,M,M,M,M,33.04
0CO,9/2/23,4:55:00 AM,41,26.6,56.22,220,7,0,30.8,10,M,CLR,M,M,M,M,M,M,35.75
0CO,9/2/23,5:55:00 AM,41,26.6,56.22,260,12,0,30.79,10,24,CLR,M,M,M,M,M,M,33.46
0CO,9/2/23,6:55:00 AM,41,24.8,52.17,260,14,0,30.78,10,25,CLR,M,M,M,M,M,M,32.76
0CO,9/2/23,7:55:00 AM,41,23,48.39,260,22,0,30.77,10,26,CLR,M,M,M,M,M,M,30.63
0CO,9/2/23,8:55:00 AM,41,23,48.39,250,7,0,30.77,10,M,SCT,M,M,M,12000,M,M,35.75
0CO,9/2/23,9:55:00 AM,41,24.8,52.17,260,8,0,30.77,10,M,SCT,M,M,M,12000,M,M,35.2
0CO,9/2/23,10:55:00 AM,42.8,23,45.14,290,10,0,30.75,10,M,SCT,M,M,M,12000,M,M,36.51
0CO,9/2/23,11:55:00 AM,42.8,23,45.14,300,6,0,30.75,10,M,CLR,M,M,M,M,M,M,38.54
0CO,9/2/23,12:55:00 PM,42.8,23,45.14,300,6,0,30.77,10,M,CLR,M,M,M,M,M,M,38.54
0CO,9/2/23,1:55:00 PM,42.8,26.6,52.45,280,7,0,30.77,10,M,CLR,M,M,M,M,M,M,37.94
0CO,9/2/23,2:55:00 PM,44.6,26.6,48.96,310,9,0,30.78,10,17,CLR,M,M,M,M,M,M,39.18
0CO,9/2/23,3:55:00 PM,46.4,28.4,49.24,310,6,0,30.79,10,15,CLR,M,M,M,M,M,M,42.87
0CO,9/2/23,4:55:00 PM,50,28.4,43.03,60,4,0,30.79,10,M,CLR,M,M,M,M,M,M,50
0CO,9/2/23,5:55:00 PM,51.8,30.2,43.32,20,5,0,30.79,10,15,CLR,M,M,M,M,M,M,51.8
0CO,9/2/23,6:55:00 PM,53.6,30.2,40.54,40,5,0,30.77,10,M,CLR,M,M,M,M,M,M,53.6
0CO,9/2/23,7:55:00 PM,51.8,28.4,40.25,40,7,0,30.76,10,M,SCT,SCT,M,M,6000,9500,M,51.8
0CO,9/2/23,8:55:00 PM,48.2,28.4,46.02,M,M,0,30.74,10,M,BKN,OVC,M,M,6000,9000,M,M
0CO,9/2/23,9:55:00 PM,46.4,30.2,53,170,8,0,30.75,10,M,SCT,OVC,M,M,3600,4500,M,41.85
0CO,9/2/23,10:55:00 PM,46.4,28.4,49.24,0,0,0,30.75,10,M,BKN,OVC,M,M,6500,7000,M,46.4
0CO,9/2/23,11:55:00 PM,44.6,30.2,56.74,130,5,0,30.75,10,M,BKN,OVC,M,M,5000,6000,M,41.36
0CO,9/3/23,12:55:00 AM,44.6,30.2,56.74,140,4,0,30.75,10,M,SCT,BKN,M,M,6000,8000,M,42.13
0CO,9/3/23,1:55:00 AM,42.8,30.2,60.79,160,7,0,30.75,10,M,OVC,M,M,M,9000,M,M,37.94
0CO,9/3/23,2:55:00 AM,42.8,28.4,56.48,260,11,0,30.77,10,M,CLR,M,M,M,M,M,M,36.11
0CO,9/3/23,3:55:00 AM,42.8,28.4,56.48,260,6,0,30.77,10,M,CLR,M,M,M,M,M,M,38.54
0CO,9/3/23,4:55:00 AM,44.6,28.4,52.72,260,3,0,30.76,10,M,CLR,M,M,M,M,M,M,43.09
0CO,9/3/23,5:55:00 AM,44.6,28.4,52.72,290,16,0,30.74,10,M,CLR,M,M,M,M,M,M,36.84
0CO,9/3/23,6:55:00 AM,42.8,26.6,52.45,290,13,0,30.74,10,M,CLR,M,M,M,M,M,M,35.4
0CO,9/3/23,7:55:00 AM,42.8,28.4,56.48,300,13,0,30.73,10,M,CLR,M,M,M,M,M,M,35.4
0CO,9/3/23,8:55:00 AM,42.8,28.4,56.48,290,13,0,30.72,10,M,CLR,M,M,M,M,M,M,35.4
0CO,9/3/23,9:55:00 AM,42.8,28.4,56.48,290,11,0,30.72,10,M,CLR,M,M,M,M,M,M,36.11
0CO,9/3/23,10:55:00 AM,42.8,28.4,56.48,300,8,0,30.72,10,M,CLR,M,M,M,M,M,M,37.42
0CO,9/3/23,11:55:00 AM,41,28.4,60.54,310,7,0,30.72,10,17,CLR,M,M,M,M,M,M,35.75
0CO,9/3/23,12:55:00 PM,41,28.4,60.54,300,8,0,30.73,10,22,CLR,M,M,M,M,M,M,35.2
0CO,9/3/23,1:55:00 PM,42.8,30.2,60.79,310,7,0,30.74,10,M,CLR,M,M,M,M,M,M,37.94
0CO,9/3/23,2:55:00 PM,44.6,30.2,56.74,310,7,0,30.75,10,18,CLR,M,M,M,M,M,M,40.14
0CO,9/3/23,3:55:00 PM,48.2,32,53.27,340,7,0,30.77,10,M,CLR,M,M,M,M,M,M,44.53
0CO,9/3/23,4:55:00 PM,51.8,32,46.59,350,7,0,30.77,10,M,CLR,M,M,M,M,M,M,51.8
0CO,9/3/23,5:55:00 PM,51.8,32,46.59,360,5,0,30.77,10,M,SCT,M,M,M,4400,M,M,51.8
0CO,9/3/23,6:55:00 PM,51.8,30.2,43.32,300,8,0,30.75,10,16,SCT,BKN,M,M,4600,5500,M,51.8
0CO,9/3/23,7:55:00 PM,51.8,28.4,40.25,170,5,0,30.74,10,M,SCT,BKN,BKN,M,5500,7500,9500,51.8
0CO,9/3/23,8:55:00 PM,51.8,26.6,37.38,20,5,0,30.73,10,20,SCT,BKN,BKN,M,6000,9500,12000,51.8
0CO,9/3/23,9:55:00 PM,51.8,26.6,37.38,130,5,0,30.72,10,M,BKN,OVC,M,M,7000,8500,M,51.8
0CO,9/3/23,10:55:00 PM,50,28.4,43.03,170,12,0,30.72,10,15,BKN,BKN,BKN,M,7000,8000,12000,50
0CO,9/3/23,11:55:00 PM,50,28.4,43.03,160,6,0,30.71,10,M,SCT,BKN,BKN,M,7000,8000,11000,50
0CO,9/4/23,12:55:00 AM,48.2,28.4,46.02,120,7,0,30.71,10,M,SCT,OVC,M,M,6000,8000,M,44.53
0CO,9/4/23,1:55:00 AM,46.4,30.2,53,160,6,0,30.72,10,M,SCT,BKN,OVC,M,5500,8000,9000,42.87
0CO,9/4/23,2:55:00 AM,44.6,32,61.03,170,10,0,30.74,10,14,SCT,BKN,BKN,M,6000,7500,9500,38.77
0CO,9/4/23,3:55:00 AM,42.8,32,65.38,250,12,0,30.74,10,24,SCT,OVC,M,M,5500,9000,M,35.75
0CO,9/4/23,4:55:00 AM,44.6,30.2,56.74,260,11,0,30.74,10,M,SCT,BKN,OVC,M,7000,8000,9000,38.39
0CO,9/4/23,5:55:00 AM,46.4,30.2,53,90,4,0,30.74,10,M,SCT,BKN,M,M,6500,8500,M,44.24
0CO,9/4/23,6:55:00 AM,44.6,30.2,56.74,300,5,0,30.74,10,M,CLR,M,M,M,M,M,M,41.36
0CO,9/4/23,7:55:00 AM,42.8,30.2,60.79,310,4,0,30.74,10,M,SCT,M,M,M,8000,M,M,40.03
0CO,9/4/23,8:55:00 AM,42.8,30.2,60.79,160,9,0,30.73,10,M,CLR,M,M,M,M,M,M,36.94
0CO,9/4/23,9:55:00 AM,42.8,28.4,56.48,180,5,0,30.72,10,M,CLR,M,M,M,M,M,M,39.22
0CO,9/4/23,10:55:00 AM,42.8,28.4,56.48,150,4,0,30.72,10,M,CLR,M,M,M,M,M,M,40.03
0CO,9/4/23,11:55:00 AM,42.8,26.6,52.45,150,6,0,30.73,10,M,CLR,M,M,M,M,M,M,38.54
0CO,9/4/23,12:55:00 PM,42.8,26.6,52.45,250,8,0,30.74,10,M,CLR,M,M,M,M,M,M,37.42
0CO,9/4/23,1:55:00 PM,42.8,28.4,56.48,290,6,0,30.75,10,M,BKN,M,M,M,9500,M,M,38.54
0CO,9/4/23,2:55:00 PM,39.2,32,75.16,340,8,0,30.77,10,M,CLR,M,M,M,M,M,M,32.98
0CO,9/4/23,3:55:00 PM,39.2,33.8,80.79,320,8,0,30.77,10,M,BKN,BKN,M,M,700,10000,M,32.98
0CO,9/4/23,4:55:00 PM,39.2,35.6,86.79,310,6,0,30.79,7,M,OVC,M,M,M,100,M,M,34.2
0CO,9/4/23,5:55:00 PM,35.6,35.6,100,340,13,0,30.79,0.25,23,OVC,M,M,M,100,M,M,26.18
0CO,9/4/23,6:55:00 PM,41,32,70.08,270,22,0,30.77,10,31,SCT,BKN,BKN,M,2600,3500,4200,30.63
0CO,9/4/23,7:55:00 PM,46.4,28.4,49.24,310,19,0,30.77,10,29,SCT,SCT,BKN,M,5000,7000,8500,38.48
0CO,9/4/23,8:55:00 PM,33.8,32,93.03,260,13,0,30.79,5,36,SCT,OVC,M,M,800,1500,M,23.87
0CO,9/4/23,9:55:00 PM,44.6,32,61.03,290,18,0,30.74,10,32,CLR,M,M,M,M,M,M,36.34
0CO,9/4/23,10:55:00 PM,46.4,30.2,53,300,21,0,30.74,10,30,CLR,M,M,M,M,M,M,38.06
0CO,9/4/23,11:55:00 PM,42.8,33.8,70.28,320,18,0,30.77,10,22,SCT,SCT,BKN,M,4000,5000,10000,33.97
0CO,9/5/23,12:55:00 AM,41,32,70.08,310,6,0,30.77,10,M,SCT,SCT,M,M,4100,8000,M,36.37
0CO,9/5/23,1:55:00 AM,37.4,32,80.65,80,3,0,30.79,10,M,CLR,M,M,M,M,M,M,34.86
0CO,9/5/23,2:55:00 AM,35.6,35.6,100,150,11,0,30.8,0.25,19,OVC,M,M,M,100,M,M,27.02
0CO,9/5/23,3:55:00 AM,35.6,35.6,100,140,18,0,30.79,0.25,21,OVC,M,M,M,100,M,M,24.49
0CO,9/5/23,4:55:00 AM,32,32,100,350,12,0.08,30.8,0.25,25,OVC,M,M,M,100,M,M,22
0CO,9/5/23,5:55:00 AM,32,32,100,300,17,0.06,30.79,0.5,21,OVC,M,M,M,100,M,M,20.08
0CO,9/5/23,6:55:00 AM,32,32,100,270,16,0.03,30.79,10,20,SCT,OVC,M,M,4400,6000,M,20.42
0CO,9/5/23,7:55:00 AM,33.8,32,93.03,280,10,0.02,30.77,10,17,SCT,SCT,SCT,M,8000,9000,11000,25.23
0CO,9/5/23,8:55:00 AM,33.8,30.2,86.49,260,7,0,30.77,10,18,SCT,M,M,M,8000,M,M,26.97
0CO,9/5/23,9:55:00 AM,33.8,30.2,86.49,160,8,0,30.79,10,17,BKN,OVC,M,M,5500,7000,M,26.33
0CO,9/5/23,10:55:00 AM,33.8,28.4,80.36,90,14,0,30.77,10,24,SCT,SCT,SCT,M,6500,8500,11000,23.48
0CO,9/5/23,11:55:00 AM,32,30.2,92.97,150,11,0,30.77,2.5,18,CLR,M,M,M,M,M,M,22.47
0CO,9/5/23,12:55:00 PM,32,32,100,170,14,0,30.78,0.25,20,BKN,M,M,M,100,M,M,21.16
0CO,9/5/23,1:55:00 PM,32,32,100,150,10,0,30.79,0.25,15,OVC,M,M,M,100,M,M,22.97
0CO,9/5/23,2:55:00 PM,32,32,100,120,19,0,30.8,0.25,32,OVC,M,M,M,100,M,M,19.44
0CO,9/5/23,3:55:00 PM,32,32,100,130,17,0,30.82,0.25,27,OVC,M,M,M,100,M,M,20.08
0CO,9/5/23,4:55:00 PM,32,32,100,140,13,0,30.83,0.25,19,OVC,M,M,M,100,M,M,21.57
0CO,9/5/23,5:55:00 PM,33.8,32,93.03,120,10,0,30.84,2,18,BKN,BKN,BKN,M,400,1400,2700,25.23
0CO,9/5/23,6:55:00 PM,33.8,33.8,100,140,14,0,30.84,0.25,19,OVC,M,M,M,200,M,M,23.48
0CO,9/5/23,7:55:00 PM,35.6,32,86.59,110,6,0,30.85,7,18,SCT,SCT,BKN,M,800,1600,2300,29.87
0CO,9/5/23,8:55:00 PM,35.6,33.8,93.08,140,7,0.01,30.85,4,17,SCT,BKN,OVC,M,200,1000,4200,29.17
0CO,9/5/23,9:55:00 PM,33.8,33.8,100,140,12,0.01,30.85,0.25,17,OVC,M,M,M,200,M,M,24.29
0CO,9/5/23,10:55:00 PM,33.8,33.8,100,120,7,0,30.85,0.25,16,OVC,M,M,M,200,M,M,26.97
0CO,9/5/23,11:55:00 PM,35.6,33.8,93.08,140,13,0,30.86,0.25,18,OVC,M,M,M,200,M,M,26.18
0CO,9/6/23,12:55:00 AM,33.8,33.8,100,160,16,0,30.86,0.25,M,OVC,M,M,M,200,M,M,22.76
0CO,9/6/23,1:55:00 AM,33.8,32,93.03,170,18,0,30.86,2.5,M,CLR,M,M,M,M,M,M,22.12
0CO,9/6/23,2:55:00 AM,33.8,30.2,86.49,160,15,0,30.86,10,18,CLR,M,M,M,M,M,M,23.11
0CO,9/6/23,3:55:00 AM,33.8,28.4,80.36,150,16,0,30.86,10,M,CLR,M,M,M,M,M,M,22.76
0CO,9/6/23,4:55:00 AM,33.8,28.4,80.36,150,15,0,30.85,10,M,CLR,M,M,M,M,M,M,23.11
0CO,9/6/23,5:55:00 AM,33.8,26.6,74.63,170,15,0,30.85,10,M,CLR,M,M,M,M,M,M,23.11
0CO,9/6/23,6:55:00 AM,35.6,21.2,55.41,260,5,0,30.85,10,M,CLR,M,M,M,M,M,M,30.67
0CO,9/6/23,7:55:00 AM,35.6,26.6,69.46,220,6,0,30.84,10,M,CLR,M,M,M,M,M,M,29.87
0CO,9/6/23,8:55:00 AM,35.6,26.6,69.46,270,8,0,30.83,10,M,CLR,M,M,M,M,M,M,28.55
0CO,9/6/23,9:55:00 AM,35.6,23,59.79,350,3,0,30.83,10,M,CLR,M,M,M,M,M,M,32.8
0CO,9/6/23,10:55:00 AM,35.6,21.2,55.41,210,5,0,30.82,10,M,CLR,M,M,M,M,M,M,30.67
0CO,9/6/23,11:55:00 AM,35.6,23,59.79,200,5,0,30.82,10,M,CLR,M,M,M,M,M,M,30.67
0CO,9/6/23,12:55:00 PM,35.6,21.2,55.41,230,5,0,30.82,10,M,CLR,M,M,M,M,M,M,30.67
0CO,9/6/23,1:55:00 PM,37.4,21.2,51.61,220,3,0,30.82,10,M,CLR,M,M,M,M,M,M,34.86
0CO,9/6/23,2:55:00 PM,42.8,21.2,41.84,250,5,0,30.83,10,M,CLR,M,M,M,M,M,M,39.22
0CO,9/6/23,3:55:00 PM,41,30.2,65.16,120,5,0,30.84,10,M,CLR,M,M,M,M,M,M,37.08
0CO,9/6/23,4:55:00 PM,44.6,32,61.03,150,6,0,30.85,10,M,CLR,M,M,M,M,M,M,40.71
0CO,9/6/23,5:55:00 PM,46.4,30.2,53,120,5,0,30.86,10,M,CLR,M,M,M,M,M,M,43.5
0CO,9/6/23,6:55:00 PM,48.2,30.2,49.53,120,5,0,30.85,10,M,CLR,M,M,M,M,M,M,45.63
0CO,9/6/23,7:55:00 PM,50,32,49.81,150,5,0,30.85,10,M,CLR,M,M,M,M,M,M,50
0CO,9/6/23,8:55:00 PM,51.8,28.4,40.25,340,6,0,30.84,10,M,CLR,M,M,M,M,M,M,51.8
0CO,9/6/23,9:55:00 PM,51.8,32,46.59,80,4,0,30.83,10,M,SCT,M,M,M,5000,M,M,51.8
0CO,9/6/23,10:55:00 PM,46.4,32,57,130,4,0,30.83,10,M,CLR,M,M,M,M,M,M,44.24
0CO,9/6/23,11:55:00 PM,44.6,32,61.03,130,4,0,30.82,10,M,CLR,M,M,M,M,M,M,42.13
0CO,9/7/23,12:55:00 AM,42.8,30.2,60.79,150,5,0,30.81,10,M,CLR,M,M,M,M,M,M,39.22
0CO,9/7/23,1:55:00 AM,41,28.4,60.54,150,6,0,30.81,10,M,CLR,M,M,M,M,M,M,36.37
0CO,9/7/23,2:55:00 AM,39.2,28.4,64.93,140,6,0,30.81,10,M,CLR,M,M,M,M,M,M,34.2
0CO,9/7/23,3:55:00 AM,41,26.6,56.22,170,4,0,30.8,10,M,CLR,M,M,M,M,M,M,37.93
0CO,9/7/23,4:55:00 AM,39.2,28.4,64.93,240,4,0,30.79,10,M,CLR,M,M,M,M,M,M,35.83
0CO,9/7/23,5:55:00 AM,41,28.4,60.54,240,5,0,30.78,10,17,CLR,M,M,M,M,M,M,37.08
0CO,9/7/23,6:55:00 AM,41,26.6,56.22,290,15,0,30.77,10,19,CLR,M,M,M,M,M,M,32.45
0CO,9/7/23,7:55:00 AM,41,26.6,56.22,290,15,0,30.77,10,M,CLR,M,M,M,M,M,M,32.45
0CO,9/7/23,8:55:00 AM,39.2,26.6,60.29,300,10,0,30.75,10,M,CLR,M,M,M,M,M,M,32
0CO,9/7/23,9:55:00 AM,39.2,26.6,60.29,290,13,0,30.74,10,M,CLR,M,M,M,M,M,M,30.79
0CO,9/7/23,10:55:00 AM,39.2,26.6,60.29,300,11,0,30.74,10,M,CLR,M,M,M,M,M,M,31.57
0CO,9/7/23,11:55:00 AM,37.4,26.6,64.7,290,11,0,30.74,10,M,SCT,M,M,M,3600,M,M,29.29
0CO,9/7/23,12:55:00 PM,37.4,28.4,69.67,280,11,0,30.74,10,M,BKN,M,M,M,3800,M,M,29.29
0CO,9/7/23,1:55:00 PM,41,28.4,60.54,300,13,0,30.75,10,M,SCT,M,M,M,3800,M,M,33.1
0CO,9/7/23,2:55:00 PM,41,28.4,60.54,290,12,0,30.75,10,M,CLR,M,M,M,M,M,M,33.46
0CO,9/7/23,3:55:00 PM,44.6,30.2,56.74,310,10,0,30.75,10,19,SCT,M,M,M,3700,M,M,38.77
0CO,9/7/23,4:55:00 PM,46.4,32,57,320,10,0,30.75,10,16,SCT,M,M,M,3900,M,M,41.03
0CO,9/7/23,5:55:00 PM,46.4,30.2,53,10,6,0,30.75,10,21,SCT,SCT,M,M,4200,5000,M,42.87
0CO,9/7/23,6:55:00 PM,48.2,30.2,49.53,360,6,0,30.74,10,18,SCT,SCT,M,M,4600,5500,M,45.04
0CO,9/7/23,7:55:00 PM,50,24.8,37.08,320,17,0,30.73,10,23,SCT,M,M,M,6000,M,M,50
0CO,9/7/23,8:55:00 PM,50,26.6,39.95,320,9,0,30.72,10,M,BKN,BKN,M,M,6000,7000,M,50
0CO,9/7/23,9:55:00 PM,48.2,26.6,42.73,310,10,0,30.71,10,21,SCT,SCT,SCT,M,7000,7500,8500,43.28
0CO,9/7/23,10:55:00 PM,48.2,26.6,42.73,310,5,0,30.7,10,M,SCT,SCT,BKN,M,6500,7500,8500,45.63
0CO,9/7/23,11:55:00 PM,46.4,28.4,49.24,80,9,0,30.7,10,M,BKN,BKN,OVC,M,6000,7000,9000,41.42
0CO,9/8/23,12:55:00 AM,42.8,32,65.38,110,13,0,30.69,10,M,OVC,M,M,M,4600,M,M,35.4
0CO,9/8/23,1:55:00 AM,41,30.2,65.16,140,6,0,30.7,10,M,SCT,SCT,SCT,M,4600,5500,7000,36.37
0CO,9/8/23,2:55:00 AM,42.8,28.4,56.48,210,4,0,30.7,10,M,CLR,M,M,M,M,M,M,40.03
0CO,9/8/23,3:55:00 AM,41,28.4,60.54,280,10,0,30.68,10,14,CLR,M,M,M,M,M,M,34.25
0CO,9/8/23,4:55:00 AM,41,28.4,60.54,290,12,0,30.68,10,M,CLR,M,M,M,M,M,M,33.46
0CO,9/8/23,5:55:00 AM,41,28.4,60.54,260,9,0,30.68,10,M,CLR,M,M,M,M,M,M,34.7
0CO,9/8/23,6:55:00 AM,41,28.4,60.54,260,9,0,30.68,10,15,CLR,M,M,M,M,M,M,34.7
0CO,9/8/23,7:55:00 AM,41,28.4,60.54,260,8,0,30.68,10,16,SCT,M,M,M,7000,M,M,35.2
0CO,9/8/23,8:55:00 AM,41,26.6,56.22,290,13,0,30.66,10,M,CLR,M,M,M,M,M,M,33.1
0CO,9/8/23,9:55:00 AM,41,26.6,56.22,290,13,0,30.66,10,M,CLR,M,M,M,M,M,M,33.1
0CO,9/8/23,10:55:00 AM,41,26.6,56.22,290,13,0,30.66,10,M,CLR,M,M,M,M,M,M,33.1
0CO,9/8/23,11:55:00 AM,41,24.8,52.17,290,12,0,30.66,10,M,CLR,M,M,M,M,M,M,33.46
0CO,9/8/23,12:35:00 PM,39.2,23,51.89,290,10,0,30.67,10,M,CLR,M,M,M,M,M,M,32
0CO,9/8/23,1:55:00 PM,41,24.8,52.17,300,13,0,30.69,10,M,CLR,M,M,M,M,M,M,33.1
0CO,9/8/23,2:55:00 PM,44.6,26.6,48.96,300,8,0,30.7,10,M,SCT,M,M,M,6000,M,M,39.63
0CO,9/8/23,3:55:00 PM,46.4,28.4,49.24,310,8,0,30.71,10,M,CLR,M,M,M,M,M,M,41.85
0CO,9/8/23,4:55:00 PM,46.4,26.6,45.73,50,5,0,30.71,10,M,SCT,SCT,M,M,5000,7000,M,43.5
0CO,9/8/23,5:55:00 PM,46.4,26.6,45.73,350,3,0,30.71,10,14,SCT,SCT,BKN,M,5000,6500,8500,45.15
0CO,9/8/23,6:55:00 PM,48.2,19.4,31.57,320,9,0,30.69,10,22,CLR,M,M,M,M,M,M,43.66
0CO,9/8/23,7:55:00 PM,51.8,21.2,29.82,350,5,0,30.68,10,M,SCT,SCT,M,M,7000,8000,M,51.8
0CO,9/8/23,8:55:00 PM,50,26.6,39.95,10,7,0,30.67,10,36,BKN,M,M,M,9500,M,M,50
0CO,9/8/23,9:55:00 PM,46.4,28.4,49.24,60,7,0,30.67,10,16,SCT,BKN,OVC,M,3900,4500,7000,42.33
0CO,9/8/23,10:55:00 PM,46.4,28.4,49.24,350,5,0,30.67,10,M,CLR,M,M,M,M,M,M,43.5
0CO,9/8/23,11:55:00 PM,44.6,28.4,52.72,310,6,0,30.67,10,M,CLR,M,M,M,M,M,M,40.71
0CO,9/9/23,12:55:00 AM,42.8,28.4,56.48,300,6,0,30.68,10,M,SCT,OVC,M,M,9000,11000,M,38.54
0CO,9/9/23,1:55:00 AM,42.8,26.6,52.45,250,12,0,30.68,10,M,CLR,M,M,M,M,M,M,35.75
0CO,9/9/23,2:55:00 AM,41,28.4,60.54,310,8,0,30.69,10,14,CLR,M,M,M,M,M,M,35.2
0CO,9/9/23,3:55:00 AM,41,28.4,60.54,260,7,0,30.7,10,15,SCT,M,M,M,11000,M,M,35.75
0CO,9/9/23,4:55:00 AM,42.8,28.4,56.48,300,11,0,30.69,10,M,SCT,SCT,M,M,7000,8000,M,36.11
0CO,9/9/23,5:55:00 AM,41,28.4,60.54,270,13,0,30.68,10,18,SCT,M,M,M,8000,M,M,33.1
0CO,9/9/23,6:55:00 AM,41,26.6,56.22,290,16,0,30.68,10,M,CLR,M,M,M,M,M,M,32.15
0CO,9/9/23,7:55:00 AM,41,26.6,56.22,290,15,0,30.66,10,M,CLR,M,M,M,M,M,M,32.45
0CO,9/9/23,8:55:00 AM,41,26.6,56.22,300,16,0,30.66,10,M,CLR,M,M,M,M,M,M,32.15
0CO,9/9/23,9:55:00 AM,41,26.6,56.22,290,15,0,30.66,10,M,CLR,M,M,M,M,M,M,32.45
0CO,9/9/23,10:55:00 AM,39.2,24.8,55.95,290,14,0,30.66,10,M,CLR,M,M,M,M,M,M,30.44
0CO,9/9/23,11:55:00 AM,39.2,24.8,55.95,290,14,0,30.67,10,M,CLR,M,M,M,M,M,M,30.44
0CO,9/9/23,12:55:00 PM,39.2,24.8,55.95,290,13,0,30.68,10,M,CLR,M,M,M,M,M,M,30.79
0CO,9/9/23,1:55:00 PM,41,26.6,56.22,300,12,0,30.68,10,18,CLR,M,M,M,M,M,M,33.46
0CO,9/9/23,2:55:00 PM,42.8,26.6,52.45,290,11,0,30.69,10,18,CLR,M,M,M,M,M,M,36.11
0CO,9/9/23,3:55:00 PM,44.6,28.4,52.72,300,11,0,30.71,10,16,CLR,M,M,M,M,M,M,38.39
0CO,9/9/23,4:55:00 PM,46.4,30.2,53,320,8,0,30.7,10,15,CLR,M,M,M,M,M,M,41.85
0CO,9/9/23,5:55:00 PM,48.2,30.2,49.53,320,8,0,30.7,10,18,BKN,BKN,BKN,M,4900,5500,11000,44.07
0CO,9/9/23,6:55:00 PM,51.8,28.4,40.25,300,13,0,30.68,10,26,BKN,BKN,M,M,5000,6500,M,51.8
0CO,9/9/23,7:55:00 PM,48.2,28.4,46.02,290,12,0,30.68,10,26,SCT,BKN,BKN,M,6000,7000,9000,42.62
0CO,9/9/23,8:55:00 PM,48.2,24.8,39.66,300,10,0,30.66,10,16,SCT,BKN,OVC,M,5500,7000,11000,43.28
0CO,9/9/23,9:55:00 PM,42.8,32,65.38,300,18,0,30.67,10,26,SCT,OVC,M,M,4800,6000,M,33.97
0CO,9/9/23,10:55:00 PM,44.6,30.2,56.74,290,14,0,30.66,10,18,BKN,OVC,M,M,8000,10000,M,37.4
0CO,9/9/23,11:55:00 PM,44.6,28.4,52.72,290,15,0,30.66,10,22,SCT,BKN,BKN,M,5500,8000,9500,37.11
0CO,9/10/23,12:55:00 AM,42.8,28.4,56.48,270,14,0,30.66,10,23,SCT,BKN,OVC,M,4200,7500,8000,35.08
0CO,9/10/23,1:55:00 AM,42.8,30.2,60.79,250,7,0,30.66,10,M,SCT,BKN,OVC,M,4000,5500,6500,37.94
0CO,9/10/23,2:55:00 AM,37.4,32,80.65,300,20,0,30.67,10,27,SCT,BKN,OVC,M,4700,6500,8000,26.31
0CO,9/10/23,3:55:00 AM,37.4,32,80.65,280,20,0,30.67,10,M,SCT,SCT,M,M,9000,12000,M,26.31
0CO,9/10/23,4:55:00 AM,37.4,32,80.65,270,11,0,30.68,10,14,CLR,M,M,M,M,M,M,29.29
0CO,9/10/23,5:55:00 AM,39.2,30.2,69.88,290,17,0,30.65,10,20,SCT,BKN,OVC,M,4800,6000,8000,29.51
0CO,9/10/23,6:55:00 AM,39.2,30.2,69.88,290,17,0,30.63,10,M,CLR,M,M,M,M,M,M,29.51
0CO,9/10/23,7:55:00 AM,37.4,30.2,74.98,310,12,0,30.62,10,21,CLR,M,M,M,M,M,M,28.87
0CO,9/10/23,8:55:00 AM,35.6,30.2,80.51,340,15,0,30.6,10,26,CLR,M,M,M,M,M,M,25.45
0CO,9/10/23,9:55:00 AM,35.6,30.2,80.51,330,14,0,30.6,10,22,CLR,M,M,M,M,M,M,25.8
0CO,9/10/23,10:55:00 AM,35.6,30.2,80.51,330,17,0,30.6,10,23,CLR,M,M,M,M,M,M,24.79
0CO,9/10/23,11:55:00 AM,37.4,30.2,74.98,310,9,0,30.62,10,23,CLR,M,M,M,M,M,M,30.23
0CO,9/10/23,12:55:00 PM,35.6,30.2,80.51,310,6,0,30.63,10,17,CLR,M,M,M,M,M,M,29.87
0CO,9/10/23,1:55:00 PM,37.4,30.2,74.98,300,6,0,30.64,10,M,CLR,M,M,M,M,M,M,32.03
0CO,9/10/23,2:55:00 PM,42.8,30.2,60.79,10,5,0,30.65,10,M,CLR,M,M,M,M,M,M,39.22
0CO,9/10/23,3:55:00 PM,44.6,30.2,56.74,80,6,0,30.66,10,M,CLR,M,M,M,M,M,M,40.71
0CO,9/10/23,4:55:00 PM,46.4,30.2,53,40,5,0,30.66,10,M,CLR,M,M,M,M,M,M,43.5
0CO,9/10/23,5:55:00 PM,50,26.6,39.95,320,7,0,30.65,10,M,SCT,M,M,M,7000,M,M,50
0CO,9/10/23,6:55:00 PM,46.4,30.2,53,320,4,0,30.63,10,18,SCT,OVC,M,M,4800,6000,M,44.24
0CO,9/10/23,7:55:00 PM,41,32,70.08,160,9,0,30.63,7,23,SCT,BKN,OVC,M,1300,2000,6000,34.7
0CO,9/10/23,8:55:00 PM,44.6,30.2,56.74,170,10,0,30.6,10,14,SCT,M,M,M,7000,M,M,38.77
0CO,9/10/23,9:55:00 PM,41,30.2,65.16,290,15,0,30.6,10,22,SCT,SCT,OVC,M,2700,3300,6000,32.45
0CO,9/10/23,10:35:00 PM,35.6,32,86.59,260,14,0,30.62,7,23,SCT,BKN,OVC,M,2100,4200,6000,25.8
0CO,9/10/23,11:55:00 PM,33.8,32,93.03,270,17,0.05,30.62,3,M,SCT,OVC,M,M,100,800,M,22.43
0CO,9/11/23,12:55:00 AM,37.4,32,80.65,130,8,0.01,30.58,10,15,SCT,BKN,OVC,M,1300,4900,8000,30.76
0CO,9/11/23,1:55:00 AM,41,28.4,60.54,150,8,0,30.58,10,M,CLR,M,M,M,M,M,M,35.2
0CO,9/11/23,2:55:00 AM,41,30.2,65.16,190,13,0,30.58,10,M,CLR,M,M,M,M,M,M,33.1
0CO,9/11/23,3:55:00 AM,39.2,30.2,69.88,250,10,0,30.57,10,18,CLR,M,M,M,M,M,M,32
0CO,9/11/23,4:55:00 AM,39.2,30.2,69.88,260,14,0,30.55,10,18,SCT,M,M,M,6500,M,M,30.44
0CO,9/11/23,5:55:00 AM,39.2,30.2,69.88,260,14,0,30.54,10,17,CLR,M,M,M,M,M,M,30.44
0CO,9/11/23,6:55:00 AM,39.2,30.2,69.88,200,9,0,30.53,10,M,CLR,M,M,M,M,M,M,32.47
0CO,9/11/23,7:55:00 AM,41,28.4,60.54,270,7,0,30.51,10,M,CLR,M,M,M,M,M,M,35.75
0CO,9/11/23,8:55:00 AM,41,28.4,60.54,250,3,0,30.49,10,M,CLR,M,M,M,M,M,M,38.98
0CO,9/11/23,9:55:00 AM,39.2,28.4,64.93,270,5,0,30.49,10,M,CLR,M,M,M,M,M,M,34.95
0CO,9/11/23,10:55:00 AM,37.4,28.4,69.67,260,9,0,30.49,10,M,CLR,M,M,M,M,M,M,30.23
0CO,9/11/23,11:55:00 AM,37.4,28.4,69.67,280,7,0,30.48,10,M,CLR,M,M,M,M,M,M,31.36
0CO,9/11/23,12:55:00 PM,37.4,30.2,74.98,260,9,0,30.48,10,M,CLR,M,M,M,M,M,M,30.23
0CO,9/11/23,1:55:00 PM,37.4,30.2,74.98,280,7,0,30.48,10,M,CLR,M,M,M,M,M,M,31.36
0CO,9/11/23,2:55:00 PM,41,32,70.08,300,8,0,30.48,10,M,CLR,M,M,M,M,M,M,35.2
0CO,9/11/23,3:55:00 PM,42.8,32,65.38,300,8,0,30.49,10,M,CLR,M,M,M,M,M,M,37.42
0CO,9/11/23,4:55:00 PM,42.8,32,65.38,320,8,0,30.49,10,17,SCT,SCT,BKN,M,3100,3900,6000,37.42
0CO,9/11/23,5:55:00 PM,42.8,35.6,75.5,340,6,0,30.49,10,20,SCT,BKN,OVC,M,2500,3500,7000,38.54
0CO,9/11/23,6:55:00 PM,44.6,32,61.03,280,21,0,30.44,10,24,SCT,SCT,SCT,M,3400,4700,5500,35.66
0CO,9/11/23,7:55:00 PM,46.4,32,57,320,12,0,30.43,10,25,CLR,M,M,M,M,M,M,40.33
0CO,9/11/23,8:55:00 PM,44.6,32,61.03,30,6,0,30.41,10,M,SCT,BKN,OVC,M,5500,6500,7500,40.71
0CO,9/11/23,9:55:00 PM,42.8,28.4,56.48,280,5,0,30.41,10,15,OVC,M,M,M,4300,M,M,39.22
0CO,9/11/23,10:55:00 PM,42.8,32,65.38,300,16,0,30.39,10,26,SCT,BKN,OVC,M,3000,4300,6000,34.5
0CO,9/11/23,11:55:00 PM,35.6,32,86.59,270,26,0,30.41,10,36,SCT,BKN,OVC,M,2400,3000,6000,22.47
0CO,9/12/23,12:55:00 AM,37.4,28.4,69.67,250,12,0,30.36,10,17,SCT,OVC,M,M,8000,9000,M,28.87
0CO,9/12/23,1:55:00 AM,39.2,26.6,60.29,260,7,0,30.36,10,18,SCT,M,M,M,12000,M,M,33.56
0CO,9/12/23,2:55:00 AM,39.2,26.6,60.29,230,9,0,30.35,10,18,CLR,M,M,M,M,M,M,32.47
0CO,9/12/23,3:55:00 AM,41,26.6,56.22,250,21,0,30.33,10,31,CLR,M,M,M,M,M,M,30.86
0CO,9/12/23,4:55:00 AM,39.2,26.6,60.29,250,16,0,30.33,10,22,SCT,SCT,M,M,9000,11000,M,29.8
0CO,9/12/23,5:35:00 AM,39.2,26.6,60.29,250,15,0,30.32,10,23,CLR,M,M,M,M,M,M,30.11
0CO,9/12/23,6:35:00 AM,39.2,26.6,60.29,220,7,0,30.32,10,19,CLR,M,M,M,M,M,M,33.56
0CO,9/12/23,7:55:00 AM,39.2,23,51.89,210,8,0,30.3,10,24,CLR,M,M,M,M,M,M,32.98
0CO,9/12/23,8:55:00 AM,37.4,24.8,60.04,250,17,0,30.27,10,23,CLR,M,M,M,M,M,M,27.15
0CO,9/12/23,9:55:00 AM,37.4,24.8,60.04,240,17,0,30.26,10,27,CLR,M,M,M,M,M,M,27.15
0CO,9/12/23,10:55:00 AM,37.4,24.8,60.04,270,14,0,30.26,10,23,CLR,M,M,M,M,M,M,28.12
0CO,9/12/23,11:55:00 AM,37.4,24.8,60.04,260,19,0,30.25,10,28,CLR,M,M,M,M,M,M,26.58
0CO,9/12/23,12:55:00 PM,37.4,24.8,60.04,250,16,0,30.25,10,23,CLR,M,M,M,M,M,M,27.46
0CO,9/12/23,1:55:00 PM,39.2,23,51.89,230,12,0,30.26,10,23,CLR,M,M,M,M,M,M,31.17
0CO,9/12/23,2:55:00 PM,42.8,23,45.14,220,6,0,30.26,10,17,CLR,M,M,M,M,M,M,38.54
0CO,9/12/23,3:35:00 PM,42.8,21.2,41.84,250,25,0,30.26,10,34,CLR,M,M,M,M,M,M,32.43
0CO,9/12/23,4:55:00 PM,44.6,21.2,39.06,250,24,0,30.27,10,35,CLR,M,M,M,M,M,M,35.06
0CO,9/12/23,5:55:00 PM,46.4,21.2,36.48,260,26,0,30.26,10,36,CLR,M,M,M,M,M,M,37.14
0CO,9/12/23,6:55:00 PM,50,21.2,31.87,230,18,0,30.27,10,31,CLR,M,M,M,M,M,M,50
0CO,9/12/23,7:55:00 PM,50,19.4,29.52,240,17,0,30.27,10,36,CLR,M,M,M,M,M,M,50
0CO,9/12/23,8:55:00 PM,51.8,19.4,27.62,240,18,0,30.27,10,35,SCT,M,M,M,9000,M,M,51.8
0CO,9/12/23,9:55:00 PM,51.8,19.4,27.62,260,18,0,30.27,10,32,BKN,M,M,M,9000,M,M,51.8
0CO,9/12/23,10:55:00 PM,51.8,17.6,25.56,230,14,0,30.28,10,36,BKN,M,M,M,9000,M,M,51.8
0CO,9/12/23,11:55:00 PM,51.8,17.6,25.56,240,14,0,30.29,10,29,SCT,M,M,M,9000,M,M,51.8
0CO,9/13/23,12:55:00 AM,48.2,17.6,29.23,240,10,0,30.31,10,M,SCT,M,M,M,9000,M,M,43.28
0CO,9/13/23,1:55:00 AM,44.6,17.6,33.49,240,11,0,30.32,10,27,SCT,M,M,M,9000,M,M,38.39
0CO,9/13/23,2:55:00 AM,44.6,19.4,36.18,240,9,0,30.33,10,29,CLR,M,M,M,M,M,M,39.18
0CO,9/13/23,3:55:00 AM,42.8,21.2,41.84,270,9,0,30.34,10,17,SCT,M,M,M,8000,M,M,36.94
0CO,9/13/23,4:55:00 AM,42.8,21.2,41.84,240,8,0,30.34,10,M,CLR,M,M,M,M,M,M,37.42
0CO,9/13/23,5:55:00 AM,42.8,21.2,41.84,220,6,0,30.35,10,M,CLR,M,M,M,M,M,M,38.54
0CO,9/13/23,6:55:00 AM,41,21.2,44.85,220,7,0,30.35,10,M,CLR,M,M,M,M,M,M,35.75
0CO,9/13/23,7:55:00 AM,41,21.2,44.85,200,11,0,30.34,10,28,CLR,M,M,M,M,M,M,33.84
0CO,9/13/23,8:55:00 AM,41,21.2,44.85,150,15,0,30.35,10,23,CLR,M,M,M,M,M,M,32.45
0CO,9/13/23,9:55:00 AM,41,21.2,44.85,220,8,0,30.35,10,17,BKN,M,M,M,6000,M,M,35.2
0CO,9/13/23,10:55:00 AM,39.2,21.2,48.1,220,8,0,30.36,10,14,SCT,M,M,M,6000,M,M,32.98
0CO,9/13/23,11:55:00 AM,37.4,21.2,51.61,210,9,0,30.37,10,20,CLR,M,M,M,M,M,M,30.23
0CO,9/13/23,12:55:00 PM,37.4,21.2,51.61,240,13,0,30.38,10,23,CLR,M,M,M,M,M,M,28.49
0CO,9/13/23,1:55:00 PM,37.4,21.2,51.61,210,7,0,30.39,10,21,CLR,M,M,M,M,M,M,31.36
0CO,9/13/23,2:55:00 PM,39.2,19.4,44.55,260,15,0,30.4,10,26,CLR,M,M,M,M,M,M,30.11
0CO,9/13/23,3:55:00 PM,41,19.4,41.54,270,17,0,30.41,10,24,CLR,M,M,M,M,M,M,31.87
0CO,9/13/23,4:55:00 PM,44.6,19.4,36.18,240,14,0,30.43,10,22,CLR,M,M,M,M,M,M,37.4
0CO,9/13/23,5:55:00 PM,44.6,21.2,39.06,270,16,0,30.44,10,27,CLR,M,M,M,M,M,M,36.84
0CO,9/13/23,6:55:00 PM,44.6,23,42.14,280,9,0,30.45,10,18,SCT,M,M,M,7000,M,M,39.18
0CO,9/13/23,7:55:00 PM,46.4,21.2,36.48,310,12,0,30.45,10,17,SCT,M,M,M,7000,M,M,40.33
0CO,9/13/23,8:55:00 PM,50,14,23.37,240,13,0,30.46,10,30,SCT,M,M,M,8000,M,M,50
0CO,9/13/23,9:55:00 PM,50,21.2,31.87,300,13,0,30.47,10,23,CLR,M,M,M,M,M,M,50
0CO,9/13/23,10:55:00 PM,46.4,26.6,45.73,60,4,0,30.48,10,M,SCT,SCT,M,M,6500,8000,M,44.24
0CO,9/13/23,11:55:00 PM,42.8,26.6,52.45,M,M,0,30.49,10,M,SCT,M,M,M,8000,M,M,M
0CO,9/14/23,12:55:00 AM,41,26.6,56.22,120,5,0,30.51,10,M,SCT,M,M,M,8000,M,M,37.08
0CO,9/14/23,1:55:00 AM,39.2,26.6,60.29,130,4,0,30.52,10,M,CLR,M,M,M,M,M,M,35.83
0CO,9/14/23,2:55:00 AM,39.2,24.8,55.95,110,13,0,30.53,10,19,CLR,M,M,M,M,M,M,30.79
0CO,9/14/23,3:55:00 AM,37.4,23,55.68,140,19,0,30.53,10,22,SCT,SCT,M,M,8000,8500,M,26.58
0CO,9/14/23,4:55:00 AM,35.6,23,59.79,140,19,0,30.53,10,M,SCT,SCT,BKN,M,6000,7500,12000,24.2
0CO,9/14/23,5:55:00 AM,37.4,23,55.68,160,17,0,30.54,10,21,CLR,M,M,M,M,M,M,27.15
0CO,9/14/23,6:55:00 AM,37.4,23,55.68,230,6,0,30.54,10,15,CLR,M,M,M,M,M,M,32.03
0CO,9/14/23,7:55:00 AM,37.4,23,55.68,240,11,0,30.53,10,17,CLR,M,M,M,M,M,M,29.29
0CO,9/14/23,8:55:00 AM,37.4,19.4,47.8,260,9,0,30.52,10,19,CLR,M,M,M,M,M,M,30.23
0CO,9/14/23,9:55:00 AM,37.4,15.8,40.93,270,14,0,30.51,10,22,CLR,M,M,M,M,M,M,28.12
0CO,9/14/23,10:55:00 AM,37.4,15.8,40.93,270,20,0,30.5,10,25,CLR,M,M,M,M,M,M,26.31
0CO,9/14/23,11:55:00 AM,37.4,15.8,40.93,270,19,0,30.51,10,27,CLR,M,M,M,M,M,M,26.58
0CO,9/14/23,12:55:00 PM,35.6,15.8,43.95,270,10,0,30.53,10,24,CLR,M,M,M,M,M,M,27.48
0CO,9/14/23,1:55:00 PM,35.6,17.6,47.51,280,18,0,30.54,10,25,CLR,M,M,M,M,M,M,24.49
0CO,9/14/23,2:55:00 PM,39.2,17.6,41.24,290,23,0,30.55,10,31,CLR,M,M,M,M,M,M,27.99
0CO,9/14/23,3:55:00 PM,41,19.4,41.54,280,19,0,30.57,10,28,CLR,M,M,M,M,M,M,31.34
0CO,9/14/23,4:55:00 PM,44.6,19.4,36.18,300,10,0,30.58,10,21,CLR,M,M,M,M,M,M,38.77
0CO,9/14/23,5:55:00 PM,48.2,19.4,31.57,240,10,0,30.59,10,15,CLR,M,M,M,M,M,M,43.28
0CO,9/14/23,6:55:00 PM,48.2,15.8,27.04,270,14,0,30.59,10,25,CLR,M,M,M,M,M,M,42.04
0CO,9/14/23,7:55:00 PM,51.8,17.6,25.56,240,12,0,30.58,10,21,CLR,M,M,M,M,M,M,51.8
0CO,9/14/23,8:55:00 PM,51.8,17.6,25.56,170,7,0,30.58,10,16,SCT,M,M,M,8000,M,M,51.8
0CO,9/14/23,9:55:00 PM,50,17.6,27.33,120,4,0,30.58,10,M,SCT,M,M,M,8000,M,M,50
0CO,9/14/23,10:55:00 PM,51.8,14,21.86,250,10,0,30.58,10,24,CLR,M,M,M,M,M,M,51.8
0CO,9/14/23,11:55:00 PM,51.8,15.8,23.65,300,9,0,30.58,10,19,CLR,M,M,M,M,M,M,51.8
0CO,9/15/23,12:55:00 AM,46.4,17.6,31.28,350,4,0,30.58,10,M,CLR,M,M,M,M,M,M,44.24
0CO,9/15/23,1:55:00 AM,44.6,23,42.14,160,6,0,30.59,10,M,CLR,M,M,M,M,M,M,40.71
0CO,9/15/23,2:55:00 AM,44.6,23,42.14,160,8,0,30.6,10,M,CLR,M,M,M,M,M,M,39.63
0CO,9/15/23,3:55:00 AM,44.6,23,42.14,160,4,0,30.6,10,M,CLR,M,M,M,M,M,M,42.13
0CO,9/15/23,4:55:00 AM,42.8,26.6,52.45,190,9,0,30.58,10,M,CLR,M,M,M,M,M,M,36.94
0CO,9/15/23,5:55:00 AM,42.8,26.6,52.45,M,M,0,30.58,10,M,CLR,M,M,M,M,M,M,M
0CO,9/15/23,6:55:00 AM,42.8,28.4,56.48,140,8,0,30.58,10,M,CLR,M,M,M,M,M,M,37.42
0CO,9/15/23,7:55:00 AM,42.8,21.2,41.84,250,6,0,30.56,10,M,CLR,M,M,M,M,M,M,38.54
0CO,9/15/23,8:55:00 AM,42.8,21.2,41.84,240,6,0,30.55,10,M,CLR,M,M,M,M,M,M,38.54
0CO,9/15/23,9:55:00 AM,42.8,19.4,38.75,260,8,0,30.55,10,M,CLR,M,M,M,M,M,M,37.42
0CO,9/15/23,10:35:00 AM,42.8,19.4,38.75,240,6,0,30.55,10,M,CLR,M,M,M,M,M,M,38.54
0CO,9/15/23,11:55:00 AM,42.8,19.4,38.75,0,0,0,30.55,10,M,CLR,M,M,M,M,M,M,42.8
0CO,9/15/23,12:55:00 PM,44.6,17.6,33.49,170,6,0,30.56,10,15,CLR,M,M,M,M,M,M,40.71
0CO,9/15/23,1:55:00 PM,44.6,19.4,36.18,160,8,0,30.58,10,M,CLR,M,M,M,M,M,M,39.63
0CO,9/15/23,2:55:00 PM,48.2,21.2,34.09,150,5,0,30.58,10,M,CLR,M,M,M,M,M,M,45.63
0CO,9/15/23,3:55:00 PM,48.2,19.4,31.57,240,10,0,30.59,10,15,CLR,M,M,M,M,M,M,43.28
0CO,9/15/23,4:55:00 PM,50,19.4,29.52,210,8,0,30.58,10,17,CLR,M,M,M,M,M,M,50
0CO,9/15/23,5:55:00 PM,48.2,21.2,34.09,240,11,0,30.58,10,15,OVC,M,M,M,7500,M,M,42.94
0CO,9/15/23,6:55:00 PM,41,28.4,60.54,250,9,0,30.58,10,23,SCT,BKN,OVC,M,3800,6000,7500,34.7
0CO,9/15/23,7:55:00 PM,46.4,26.6,45.73,220,9,0,30.55,10,17,SCT,SCT,BKN,M,5000,7000,10000,41.42
0CO,9/15/23,8:55:00 PM,42.8,30.2,60.79,290,13,0,30.53,10,24,BKN,BKN,OVC,M,6500,7500,10000,35.4
0CO,9/15/23,9:55:00 PM,39.2,30.2,69.88,270,24,0,30.53,10,30,BKN,OVC,M,M,6000,8000,M,27.77
0CO,9/15/23,10:55:00 PM,41,30.2,65.16,260,9,0,30.5,10,24,SCT,BKN,M,M,8500,11000,M,34.7
0CO,9/15/23,11:55:00 PM,41,28.4,60.54,260,7,0,30.49,10,23,SCT,M,M,M,12000,M,M,35.75
0CO,9/16/23,12:55:00 AM,41,26.6,56.22,250,13,0,30.49,10,23,CLR,M,M,M,M,M,M,33.1
0CO,9/16/23,1:55:00 AM,39.2,30.2,69.88,260,17,0,30.5,10,25,CLR,M,M,M,M,M,M,29.51
0CO,9/16/23,2:55:00 AM,39.2,26.6,60.29,220,9,0,30.51,10,15,CLR,M,M,M,M,M,M,32.47
0CO,9/16/23,3:55:00 AM,41,26.6,56.22,220,6,0,30.51,10,M,SCT,M,M,M,11000,M,M,36.37
0CO,9/16/23,4:55:00 AM,39.2,26.6,60.29,240,6,0,30.52,10,M,SCT,M,M,M,12000,M,M,34.2
0CO,9/16/23,5:55:00 AM,41,26.6,56.22,220,6,0,30.51,10,M,SCT,BKN,M,M,5000,12000,M,36.37
0CO,9/16/23,6:55:00 AM,41,26.6,56.22,250,7,0,30.49,10,M,CLR,M,M,M,M,M,M,35.75
0CO,9/16/23,7:55:00 AM,39.2,26.6,60.29,220,7,0,30.49,10,20,CLR,M,M,M,M,M,M,33.56
0CO,9/16/23,8:55:00 AM,39.2,26.6,60.29,210,8,0,30.48,10,M,CLR,M,M,M,M,M,M,32.98
0CO,9/16/23,9:55:00 AM,37.4,26.6,64.7,250,13,0,30.49,10,17,CLR,M,M,M,M,M,M,28.49
0CO,9/16/23,10:55:00 AM,39.2,23,51.89,250,9,0,30.48,10,15,CLR,M,M,M,M,M,M,32.47
0CO,9/16/23,11:55:00 AM,37.4,24.8,60.04,260,16,0,30.47,10,19,CLR,M,M,M,M,M,M,27.46
0CO,9/16/23,12:55:00 PM,37.4,26.6,64.7,240,11,0,30.48,10,M,SCT,M,M,M,11000,M,M,29.29
0CO,9/16/23,1:55:00 PM,37.4,28.4,69.67,250,7,0,30.49,10,17,OVC,M,M,M,11000,M,M,31.36
0CO,9/16/23,2:55:00 PM,35.6,28.4,74.8,300,9,0,30.49,10,18,OVC,M,M,M,9000,M,M,27.99
0CO,9/16/23,3:55:00 PM,37.4,28.4,69.67,270,8,0,30.5,10,M,SCT,BKN,M,M,8000,10000,M,30.76
0CO,9/16/23,4:15:00 PM,41,30.2,65.16,360,3,0,30.5,10,M,SCT,M,M,M,9000,M,M,38.98
0CO,9/16/23,5:55:00 PM,44.6,28.4,52.72,280,10,0,30.5,10,M,BKN,BKN,M,M,7500,8500,M,38.77
0CO,9/16/23,6:55:00 PM,46.4,28.4,49.24,190,9,0,30.5,10,16,SCT,M,M,M,6500,M,M,41.42
0CO,9/16/23,7:55:00 PM,44.6,30.2,56.74,150,6,0,30.49,10,M,BKN,OVC,M,M,4800,5000,M,40.71
0CO,9/16/23,8:55:00 PM,41,32,70.08,150,18,0,30.46,10,28,SCT,SCT,BKN,M,2000,3400,8000,31.6
0CO,9/16/23,9:55:00 PM,44.6,32,61.03,230,8,0,30.46,10,21,BKN,M,M,M,5500,M,M,39.63
0CO,9/16/23,10:55:00 PM,44.6,32,61.03,220,7,0,30.44,10,M,SCT,SCT,M,M,6000,7000,M,40.14
0CO,9/16/23,11:55:00 PM,42.8,32,65.38,210,7,0,30.44,10,M,SCT,M,M,M,6000,M,M,37.94
0CO,9/17/23,12:55:00 AM,41,32,70.08,260,12,0,30.45,10,15,CLR,M,M,M,M,M,M,33.46
0CO,9/17/23,1:55:00 AM,41,30.2,65.16,210,9,0,30.45,10,M,CLR,M,M,M,M,M,M,34.7
0CO,9/17/23,2:55:00 AM,37.4,32,80.65,260,11,0,30.46,10,21,CLR,M,M,M,M,M,M,29.29
0CO,9/17/23,3:55:00 AM,37.4,32,80.65,210,7,0,30.45,10,17,CLR,M,M,M,M,M,M,31.36
0CO,9/17/23,4:55:00 AM,37.4,32,80.65,250,19,0,30.45,10,M,CLR,M,M,M,M,M,M,26.58
0CO,9/17/23,5:55:00 AM,37.4,30.2,74.98,250,8,0,30.44,10,25,CLR,M,M,M,M,M,M,30.76
0CO,9/17/23,6:35:00 AM,37.4,30.2,74.98,260,14,0,30.43,10,25,CLR,M,M,M,M,M,M,28.12
0CO,9/17/23,7:55:00 AM,37.4,30.2,74.98,260,14,0,30.42,10,22,CLR,M,M,M,M,M,M,28.12
0CO,9/17/23,8:55:00 AM,37.4,30.2,74.98,280,17,0,30.39,10,23,CLR,M,M,M,M,M,M,27.15
0CO,9/17/23,9:55:00 AM,39.2,30.2,69.88,250,6,0,30.4,10,16,SCT,M,M,M,6500,M,M,34.2
0CO,9/17/23,10:55:00 AM,41,28.4,60.54,220,5,0,30.4,10,M,CLR,M,M,M,M,M,M,37.08
0CO,9/17/23,11:55:00 AM,41,28.4,60.54,170,6,0,30.4,10,M,CLR,M,M,M,M,M,M,36.37
0CO,9/17/23,12:55:00 PM,41,28.4,60.54,120,3,0,30.39,10,M,SCT,SCT,M,M,4600,6000,M,38.98
0CO,9/17/23,1:55:00 PM,41,30.2,65.16,160,7,0,30.38,10,M,CLR,M,M,M,M,M,M,35.75
0CO,9/17/23,2:55:00 PM,42.8,30.2,60.79,M,M,0,30.38,10,M,SCT,SCT,M,M,3500,4100,M,M
0CO,9/17/23,3:55:00 PM,42.8,28.4,56.48,240,15,0,30.37,10,22,SCT,M,M,M,4200,M,M,34.78
0CO,9/17/23,4:55:00 PM,44.6,30.2,56.74,230,10,0,30.35,10,20,SCT,BKN,M,M,3900,4600,M,38.77
0CO,9/17/23,5:55:00 PM,44.6,30.2,56.74,190,12,0,30.33,10,24,SCT,BKN,M,M,3900,4600,M,38.04
0CO,9/17/23,6:55:00 PM,37.4,33.8,86.69,160,15,0,30.31,10,20,BKN,BKN,OVC,M,1900,2500,3300,27.78
0CO,9/17/23,7:55:00 PM,37.4,35.6,93.14,140,12,0.03,30.28,0.5,19,OVC,M,M,M,100,M,M,28.87
0CO,9/17/23,8:55:00 PM,41,32,70.08,210,7,0,30.26,10,23,SCT,SCT,BKN,M,3000,4600,7500,35.75
0CO,9/17/23,9:55:00 PM,33.8,33.8,100,80,7,0,30.23,0.25,M,OVC,M,M,M,100,M,M,26.97
0CO,9/17/23,10:55:00 PM,35.6,30.2,80.51,250,18,0.07,30.2,10,45,SCT,M,M,M,3200,M,M,24.49
0CO,9/17/23,11:55:00 PM,37.4,28.4,69.67,270,31,0,30.2,10,42,CLR,M,M,M,M,M,M,23.94
0CO,9/18/23,12:55:00 AM,35.6,26.6,69.46,280,20,0,30.21,10,32,SCT,SCT,M,M,3100,4000,M,23.92
0CO,9/18/23,1:55:00 AM,33.8,24.8,69.25,270,22,0,30.2,10,36,CLR,M,M,M,M,M,M,20.99
0CO,9/18/23,2:55:00 AM,33.8,21.2,59.53,270,26,0,30.21,10,35,CLR,M,M,M,M,M,M,20.02
0CO,9/18/23,3:55:00 AM,32,21.2,63.99,280,25,0,30.23,10,35,CLR,M,M,M,M,M,M,17.81
0CO,9/18/23,4:55:00 AM,32,19.4,59.27,270,27,0,30.22,10,40,CLR,M,M,M,M,M,M,17.34
0CO,9/18/23,5:55:00 AM,32,19.4,59.27,270,25,0,30.25,10,35,CLR,M,M,M,M,M,M,17.81
0CO,9/18/23,6:55:00 AM,32,19.4,59.27,270,20,0,30.26,10,37,CLR,M,M,M,M,M,M,19.14
0CO,9/18/23,7:55:00 AM,32,19.4,59.27,270,22,0,30.25,10,37,CLR,M,M,M,M,M,M,18.58
0CO,9/18/23,8:55:00 AM,32,19.4,59.27,280,23,0,30.23,10,47,CLR,M,M,M,M,M,M,18.31
0CO,9/18/23,9:55:00 AM,32,14,46.92,270,26,0,30.23,10,37,CLR,M,M,M,M,M,M,17.58
0CO,9/18/23,10:55:00 AM,32,14,46.92,270,29,0,30.22,10,45,CLR,M,M,M,M,M,M,16.9
0CO,9/18/23,11:55:00 AM,32,12.2,43.34,290,19,0,30.23,10,35,CLR,M,M,M,M,M,M,19.44
0CO,9/18/23,12:55:00 PM,30.2,12.2,46.62,310,17,0,30.25,10,30,CLR,M,M,M,M,M,M,17.72
0CO,9/18/23,1:55:00 PM,30.2,12.2,46.62,300,13,0,30.25,10,31,CLR,M,M,M,M,M,M,19.26
0CO,9/18/23,2:55:00 PM,30.2,14,50.47,320,12,0,30.26,10,22,CLR,M,M,M,M,M,M,19.71
0CO,9/18/23,3:55:00 PM,32,15.8,50.75,290,17,0,30.27,10,26,CLR,M,M,M,M,M,M,20.08
0CO,9/18/23,4:55:00 PM,35.6,15.8,43.95,300,18,0,30.27,10,35,CLR,M,M,M,M,M,M,24.49
0CO,9/18/23,5:55:00 PM,41,15.8,35.57,300,17,0,30.29,10,29,CLR,M,M,M,M,M,M,31.87
0CO,9/18/23,6:55:00 PM,42.8,14,30.68,280,28,0,30.29,10,33,CLR,M,M,M,M,M,M,31.89
0CO,9/18/23,7:55:00 PM,42.8,12.2,28.34,280,25,0,30.31,10,35,CLR,M,M,M,M,M,M,32.43
0CO,9/18/23,8:55:00 PM,44.6,14,28.64,290,16,0,30.32,10,31,CLR,M,M,M,M,M,M,36.84
0CO,9/18/23,9:55:00 PM,46.4,12.2,24.71,290,17,0,30.33,10,22,CLR,M,M,M,M,M,M,38.94
0CO,9/18/23,10:55:00 PM,44.6,8.6,22.53,260,16,0,30.34,10,26,CLR,M,M,M,M,M,M,36.84
0CO,9/18/23,11:55:00 PM,44.6,10.4,24.42,260,13,0,30.35,10,24,CLR,M,M,M,M,M,M,37.71
0CO,9/19/23,12:55:00 AM,41,12.2,30.38,270,8,0,30.36,10,16,CLR,M,M,M,M,M,M,35.2
0CO,9/19/23,1:55:00 AM,35.6,15.8,43.95,280,11,0,30.37,10,M,CLR,M,M,M,M,M,M,27.02
0CO,9/19/23,2:55:00 AM,33.8,17.6,51.04,350,3,0,30.38,10,M,CLR,M,M,M,M,M,M,30.75
0CO,9/19/23,3:55:00 AM,33.8,17.6,51.04,290,13,0,30.39,10,M,CLR,M,M,M,M,M,M,23.87
0CO,9/19/23,4:55:00 AM,33.8,17.6,51.04,310,13,0,30.38,10,21,CLR,M,M,M,M,M,M,23.87
0CO,9/19/23,5:55:00 AM,33.8,17.6,51.04,300,14,0,30.38,10,20,CLR,M,M,M,M,M,M,23.48
0CO,9/19/23,6:55:00 AM,32,17.6,54.87,300,17,0,30.38,10,24,CLR,M,M,M,M,M,M,20.08
0CO,9/19/23,7:55:00 AM,32,17.6,54.87,320,12,0,30.38,10,24,CLR,M,M,M,M,M,M,22
0CO,9/19/23,8:55:00 AM,32,17.6,54.87,300,15,0,30.38,10,27,CLR,M,M,M,M,M,M,20.78
0CO,9/19/23,9:55:00 AM,32,17.6,54.87,300,18,0,30.38,10,26,CLR,M,M,M,M,M,M,19.75
0CO,9/19/23,10:55:00 AM,32,17.6,54.87,310,14,0,30.38,10,25,CLR,M,M,M,M,M,M,21.16
0CO,9/19/23,11:55:00 AM,32,19.4,59.27,290,18,0,30.39,10,26,CLR,M,M,M,M,M,M,19.75
0CO,9/19/23,12:55:00 PM,32,19.4,59.27,300,16,0,30.41,10,23,CLR,M,M,M,M,M,M,20.42
0CO,9/19/23,1:55:00 PM,32,19.4,59.27,290,18,0,30.44,10,27,CLR,M,M,M,M,M,M,19.75
0CO,9/19/23,2:55:00 PM,33.8,21.2,59.53,280,24,0,30.45,10,31,CLR,M,M,M,M,M,M,20.49
0CO,9/19/23,3:55:00 PM,37.4,21.2,51.61,260,9,0,30.48,10,29,CLR,M,M,M,M,M,M,30.23
0CO,9/19/23,4:55:00 PM,41,21.2,44.85,280,14,0,30.49,10,22,CLR,M,M,M,M,M,M,32.76
0CO,9/19/23,5:55:00 PM,42.8,21.2,41.84,260,11,0,30.5,10,22,CLR,M,M,M,M,M,M,36.11
0CO,9/19/23,6:55:00 PM,44.6,23,42.14,260,9,0,30.49,10,15,SCT,SCT,M,M,5000,6000,M,39.18
0CO,9/19/23,7:55:00 PM,46.4,24.8,42.44,320,10,0,30.49,10,17,CLR,M,M,M,M,M,M,41.03
0CO,9/19/23,8:55:00 PM,46.4,23,39.36,330,4,0,30.48,10,14,SCT,M,M,M,6500,M,M,44.24
0CO,9/19/23,9:55:00 PM,50,23,34.39,320,7,0,30.47,10,15,SCT,M,M,M,8000,M,M,50
0CO,9/19/23,10:55:00 PM,48.2,23,36.78,70,8,0,30.47,10,M,SCT,BKN,M,M,6500,7500,M,44.07
0CO,9/19/23,11:55:00 PM,44.6,21.2,39.06,320,10,0,30.47,10,18,CLR,M,M,M,M,M,M,38.77
0CO,9/20/23,12:55:00 AM,42.8,21.2,41.84,320,4,0,30.48,10,M,CLR,M,M,M,M,M,M,40.03
0CO,9/20/23,1:55:00 AM,41,21.2,44.85,230,6,0,30.48,10,M,CLR,M,M,M,M,M,M,36.37
0CO,9/20/23,2:55:00 AM,41,19.4,41.54,40,3,0,30.49,10,M,CLR,M,M,M,M,M,M,38.98
0CO,9/20/23,3:55:00 AM,41,17.6,38.45,270,7,0,30.49,10,M,CLR,M,M,M,M,M,M,35.75
0CO,9/20/23,4:55:00 AM,39.2,17.6,41.24,270,12,0,30.49,10,16,CLR,M,M,M,M,M,M,31.17
0CO,9/20/23,5:55:00 AM,37.4,19.4,47.8,300,9,0,30.48,10,M,CLR,M,M,M,M,M,M,30.23
0CO,9/20/23,6:55:00 AM,37.4,19.4,47.8,280,9,0,30.48,10,M,CLR,M,M,M,M,M,M,30.23
0CO,9/20/23,7:55:00 AM,35.6,21.2,55.41,280,13,0,30.47,10,17,CLR,M,M,M,M,M,M,26.18
0CO,9/20/23,8:55:00 AM,37.4,23,55.68,280,18,0,30.46,10,25,CLR,M,M,M,M,M,M,26.86
0CO,9/20/23,9:55:00 AM,37.4,23,55.68,280,19,0,30.44,10,26,CLR,M,M,M,M,M,M,26.58
0CO,9/20/23,10:55:00 AM,37.4,23,55.68,290,15,0,30.45,10,23,CLR,M,M,M,M,M,M,27.78
0CO,9/20/23,11:55:00 AM,37.4,24.8,60.04,280,11,0,30.45,10,M,CLR,M,M,M,M,M,M,29.29
0CO,9/20/23,12:55:00 PM,37.4,24.8,60.04,260,11,0,30.46,10,14,CLR,M,M,M,M,M,M,29.29
0CO,9/20/23,1:55:00 PM,37.4,23,55.68,200,6,0,30.47,10,M,CLR,M,M,M,M,M,M,32.03
0CO,9/20/23,2:55:00 PM,41,23,48.39,210,6,0,30.47,10,M,CLR,M,M,M,M,M,M,36.37
0CO,9/20/23,3:55:00 PM,44.6,26.6,48.96,160,10,0,30.48,10,17,CLR,M,M,M,M,M,M,38.77
0CO,9/20/23,4:55:00 PM,44.6,24.8,45.44,250,7,0,30.48,10,M,CLR,M,M,M,M,M,M,40.14
0CO,9/20/23,5:55:00 PM,44.6,26.6,48.96,130,3,0,30.47,10,M,SCT,SCT,SCT,M,5000,5500,6500,43.09
0CO,9/20/23,6:55:00 PM,50,21.2,31.87,240,13,0,30.45,10,26,SCT,M,M,M,6500,M,M,50
0CO,9/20/23,7:55:00 PM,50,21.2,31.87,240,8,0,30.44,10,26,SCT,M,M,M,7000,M,M,50
0CO,9/20/23,8:55:00 PM,51.8,17.6,25.56,280,22,0,30.43,10,28,CLR,M,M,M,M,M,M,51.8
0CO,9/20/23,9:55:00 PM,50,26.6,39.95,360,3,0,30.44,10,M,CLR,M,M,M,M,M,M,50
0CO,9/20/23,10:55:00 PM,48.2,24.8,39.66,310,4,0,30.43,10,M,CLR,M,M,M,M,M,M,46.34
0CO,9/20/23,11:55:00 PM,51.8,17.6,25.56,280,12,0,30.43,10,18,CLR,M,M,M,M,M,M,51.8
0CO,9/21/23,12:55:00 AM,46.4,14,26.75,300,10,0,30.43,10,15,CLR,M,M,M,M,M,M,41.03
0CO,9/21/23,1:55:00 AM,42.8,12.2,28.34,310,8,0,30.44,10,M,CLR,M,M,M,M,M,M,37.42
0CO,9/21/23,2:55:00 AM,42.8,12.2,28.34,300,6,0,30.45,10,15,CLR,M,M,M,M,M,M,38.54
0CO,9/21/23,3:55:00 AM,41,8.6,25.87,310,12,0,30.45,10,19,CLR,M,M,M,M,M,M,33.46
0CO,9/21/23,4:55:00 AM,39.2,12.2,32.58,300,5,0,30.47,10,M,CLR,M,M,M,M,M,M,34.95
0CO,9/21/23,5:35:00 AM,37.4,12.2,34.96,290,5,0,30.46,10,M,CLR,M,M,M,M,M,M,32.81
0CO,9/21/23,6:55:00 AM,37.4,19.4,47.8,320,15,0,30.46,10,22,CLR,M,M,M,M,M,M,27.78
0CO,9/21/23,7:55:00 AM,37.4,17.6,44.25,300,9,0,30.46,10,M,CLR,M,M,M,M,M,M,30.23
0CO,9/21/23,8:55:00 AM,39.2,17.6,41.24,300,10,0,30.45,10,M,CLR,M,M,M,M,M,M,32
0CO,9/21/23,9:55:00 AM,39.2,17.6,41.24,190,4,0,30.46,10,M,CLR,M,M,M,M,M,M,35.83
0CO,9/21/23,10:55:00 AM,41,15.8,35.57,150,9,0,30.46,10,15,CLR,M,M,M,M,M,M,34.7
0CO,9/21/23,11:55:00 AM,35.6,14,40.63,130,13,0,30.45,10,24,CLR,M,M,M,M,M,M,26.18
0CO,9/21/23,12:55:00 PM,35.6,17.6,47.51,130,15,0,30.47,10,M,CLR,M,M,M,M,M,M,25.45
0CO,9/21/23,1:55:00 PM,37.4,21.2,51.61,120,16,0,30.47,10,27,CLR,M,M,M,M,M,M,27.46
0CO,9/21/23,2:55:00 PM,37.4,19.4,47.8,M,M,0,30.47,10,M,CLR,M,M,M,M,M,M,M
0CO,9/21/23,3:55:00 PM,37.4,21.2,51.61,140,20,0,30.47,10,26,SCT,M,M,M,6000,M,M,26.31
0CO,9/21/23,4:35:00 PM,41,23,48.39,120,17,0,30.46,10,28,CLR,M,M,M,M,M,M,31.87
0CO,9/21/23,5:55:00 PM,41,23,48.39,130,18,0,30.45,10,31,CLR,M,M,M,M,M,M,31.6
0CO,9/21/23,6:55:00 PM,41,24.8,52.17,120,22,0,30.43,10,32,CLR,M,M,M,M,M,M,30.63
0CO,9/21/23,7:55:00 PM,39.2,24.8,55.95,120,22,0,30.41,10,35,SCT,SCT,M,M,4300,4800,M,28.22
0CO,9/21/23,8:55:00 PM,37.4,24.8,60.04,120,25,0,30.37,10,49,SCT,BKN,BKN,M,3500,4100,4800,25.12
0CO,9/21/23,9:55:00 PM,33.8,28.4,80.36,130,20,0,30.41,10,33,SCT,BKN,OVC,M,1800,3400,4900,21.53
0CO,9/21/23,10:55:00 PM,30.2,28.4,92.92,120,31,0,30.38,0.25,41,OVC,M,M,M,200,M,M,14.01
0CO,9/21/23,11:55:00 PM,28.4,28.4,100,130,31,0,30.38,0.25,44,OVC,M,M,M,200,M,M,11.52
0CO,9/22/23,12:55:00 AM,28.4,28.4,100,130,23,0,30.4,0.25,36,OVC,M,M,M,200,M,M,13.47
0CO,9/22/23,1:55:00 AM,28.4,28.4,100,120,21,0,30.41,0.25,29,OVC,M,M,M,200,M,M,14.05
0CO,9/22/23,2:55:00 AM,28.4,28.4,100,130,11,0,30.41,0.25,27,OVC,M,M,M,200,M,M,17.92
0CO,9/22/23,3:55:00 AM,28.4,26.6,92.86,130,18,0,30.43,0.25,26,OVC,M,M,M,200,M,M,15.01
0CO,9/22/23,4:55:00 AM,28.4,26.6,92.86,130,17,0,30.42,0.25,26,OVC,M,M,M,200,M,M,15.36
0CO,9/22/23,5:55:00 AM,26.6,26.6,100,140,19,0,30.42,0.25,27,OVC,M,M,M,200,M,M,12.3
0CO,9/22/23,6:55:00 AM,26.6,26.6,100,130,20,0,30.41,0.25,28,OVC,M,M,M,200,M,M,11.97
0CO,9/22/23,7:55:00 AM,26.6,26.6,100,130,21,0,30.41,0.25,M,OVC,M,M,M,200,M,M,11.65
0CO,9/22/23,8:55:00 AM,26.6,26.6,100,160,18,0,30.41,0.25,M,OVC,M,M,M,200,M,M,12.64
0CO,9/22/23,9:55:00 AM,26.6,26.6,100,150,14,0,30.39,0.25,17,OVC,M,M,M,200,M,M,14.2
0CO,9/22/23,10:55:00 AM,26.6,26.6,100,170,7,0,30.4,0.25,M,BKN,OVC,M,M,500,1000,M,18.2
0CO,9/22/23,11:55:00 AM,26.6,26.6,100,170,7,0,30.41,0.25,M,BKN,BKN,OVC,M,200,1000,2400,18.2
0CO,9/22/23,12:55:00 PM,26.6,26.6,100,160,9,0,30.41,4,M,SCT,OVC,M,M,1400,2300,M,16.8
0CO,9/22/23,1:55:00 PM,26.6,26.6,100,140,3,0,30.44,2,M,BKN,OVC,M,M,1600,2900,M,22.52
0CO,9/22/23,2:55:00 PM,28.4,26.6,92.86,0,0,0,30.44,1.75,M,OVC,M,M,M,2200,M,M,28.4
0CO,9/22/23,3:55:00 PM,28.4,26.6,92.86,0,0,0,30.46,0.25,M,OVC,M,M,M,200,M,M,28.4
0CO,9/22/23,4:55:00 PM,28.4,28.4,100,230,4,0,30.47,0.25,M,OVC,M,M,M,100,M,M,23.22
0CO,9/22/23,5:55:00 PM,30.2,30.2,100,280,5,0.09,30.47,0.25,M,OVC,M,M,M,100,M,M,24.26
0CO,9/22/23,6:55:00 PM,32,32,100,360,3,0.08,30.46,0.5,M,BKN,BKN,OVC,M,200,600,1200,28.69
0CO,9/22/23,7:55:00 PM,32,32,100,0,0,0.11,30.46,1,M,BKN,OVC,M,M,300,1000,M,32
0CO,9/22/23,8:55:00 PM,33.8,32,93.03,110,5,0.06,30.46,10,M,SCT,SCT,SCT,M,1400,2100,2800,28.53
0CO,9/22/23,9:55:00 PM,35.6,30.2,80.51,320,4,0.05,30.45,10,M,SCT,SCT,M,M,2200,2900,M,31.62
0CO,9/22/23,10:55:00 PM,35.6,28.4,74.8,260,6,0,30.45,10,M,SCT,BKN,BKN,M,2400,2900,3500,29.87
0CO,9/22/23,11:55:00 PM,35.6,30.2,80.51,350,3,0,30.45,10,M,SCT,BKN,M,M,2400,3100,M,32.8
0CO,9/23/23,12:55:00 AM,33.8,28.4,80.36,320,11,0,30.45,10,15,CLR,M,M,M,M,M,M,24.74
0CO,9/23/23,1:55:00 AM,32,26.6,80.22,320,10,0,30.45,10,M,BKN,M,M,M,2800,M,M,22.97
0CO,9/23/23,2:55:00 AM,32,28.4,86.39,340,17,0,30.46,10,24,SCT,M,M,M,2700,M,M,20.08
0CO,9/23/23,3:55:00 AM,32,30.2,92.97,320,11,0,30.47,10,21,CLR,M,M,M,M,M,M,22.47
0CO,9/23/23,4:55:00 AM,32,30.2,92.97,330,12,0,30.47,10,29,BKN,M,M,M,2900,M,M,22
0CO,9/23/23,5:55:00 AM,32,30.2,92.97,340,17,0,30.46,10,M,CLR,M,M,M,M,M,M,20.08
0CO,9/23/23,6:55:00 AM,32,28.4,86.39,340,16,0,30.46,10,M,CLR,M,M,M,M,M,M,20.42
0CO,9/23/23,7:55:00 AM,32,28.4,86.39,340,19,0,30.45,10,M,CLR,M,M,M,M,M,M,19.44
0CO,9/23/23,8:55:00 AM,30.2,28.4,92.92,330,14,0,30.45,10,19,CLR,M,M,M,M,M,M,18.84
0CO,9/23/23,9:55:00 AM,30.2,28.4,92.92,340,19,0,30.44,10,26,SCT,M,M,M,2100,M,M,17.06
0CO,9/23/23,10:55:00 AM,32,26.6,80.22,340,20,0,30.44,10,24,CLR,M,M,M,M,M,M,19.14
0CO,9/23/23,11:55:00 AM,30.2,26.6,86.28,340,20,0,30.44,10,25,CLR,M,M,M,M,M,M,16.75
0CO,9/23/23,12:55:00 PM,30.2,28.4,92.92,340,21,0,30.44,10,31,CLR,M,M,M,M,M,M,16.45
0CO,9/23/23,1:55:00 PM,32,26.6,80.22,340,19,0,30.46,10,27,CLR,M,M,M,M,M,M,19.44
0CO,9/23/23,2:55:00 PM,32,28.4,86.39,330,8,0,30.48,10,21,CLR,M,M,M,M,M,M,24.11
0CO,9/23/23,3:55:00 PM,33.8,26.6,74.63,330,12,0,30.48,10,27,CLR,M,M,M,M,M,M,24.29
0CO,9/23/23,4:55:00 PM,35.6,28.4,74.8,320,10,0,30.48,10,26,CLR,M,M,M,M,M,M,27.48
0CO,9/23/23,5:55:00 PM,37.4,26.6,64.7,310,9,0,30.49,10,17,CLR,M,M,M,M,M,M,30.23
0CO,9/23/23,6:55:00 PM,41,24.8,52.17,290,17,0,30.48,10,22,CLR,M,M,M,M,M,M,31.87
0CO,9/23/23,7:55:00 PM,41,21.2,44.85,280,21,0,30.46,10,30,CLR,M,M,M,M,M,M,30.86
0CO,9/23/23,8:55:00 PM,42.8,23,45.14,300,12,0,30.45,10,25,SCT,M,M,M,5000,M,M,35.75
0CO,9/23/23,9:55:00 PM,42.8,23,45.14,300,20,0,30.44,10,32,SCT,M,M,M,4800,M,M,33.48
0CO,9/23/23,10:55:00 PM,41,26.6,56.22,300,14,0,30.45,10,24,BKN,BKN,BKN,M,4400,4900,10000,32.76
0CO,9/23/23,11:55:00 PM,39.2,23,51.89,290,20,0,30.45,10,23,CLR,M,M,M,M,M,M,28.7
0CO,9/24/23,12:55:00 AM,35.6,26.6,69.46,320,12,0,30.44,10,24,SCT,M,M,M,12000,M,M,26.58
0CO,9/24/23,1:55:00 AM,33.8,24.8,69.25,320,18,0,30.44,10,29,CLR,M,M,M,M,M,M,22.12
0CO,9/24/23,2:55:00 AM,33.8,24.8,69.25,320,17,0,30.46,10,30,CLR,M,M,M,M,M,M,22.43
0CO,9/24/23,3:55:00 AM,33.8,24.8,69.25,330,24,0,30.46,10,33,CLR,M,M,M,M,M,M,20.49
0CO,9/24/23,4:55:00 AM,33.8,23,64.23,330,18,0,30.48,10,27,CLR,M,M,M,M,M,M,22.12
0CO,9/24/23,5:55:00 AM,33.8,23,64.23,330,19,0,30.45,10,30,CLR,M,M,M,M,M,M,21.82
0CO,9/24/23,6:55:00 AM,33.8,23,64.23,340,27,0,30.45,10,34,SCT,M,M,M,10000,M,M,19.8
0CO,9/24/23,7:55:00 AM,32,21.2,63.99,340,26,0,30.44,10,38,CLR,M,M,M,M,M,M,17.58
0CO,9/24/23,8:55:00 AM,32,21.2,63.99,330,21,0,30.45,10,31,CLR,M,M,M,M,M,M,18.85
0CO,9/24/23,9:55:00 AM,32,23,69.04,340,26,0,30.45,10,33,CLR,M,M,M,M,M,M,17.58
0CO,9/24/23,10:55:00 AM,32,23,69.04,340,18,0,30.47,10,30,CLR,M,M,M,M,M,M,19.75
0CO,9/24/23,11:55:00 AM,32,23,69.04,350,17,0,30.47,10,27,CLR,M,M,M,M,M,M,20.08
0CO,9/24/23,12:55:00 PM,32,23,69.04,340,10,0,30.48,10,25,CLR,M,M,M,M,M,M,22.97
0CO,9/24/23,1:55:00 PM,32,23,69.04,340,18,0,30.5,10,23,CLR,M,M,M,M,M,M,19.75
0CO,9/24/23,2:55:00 PM,32,24.8,74.44,330,18,0,30.51,10,31,CLR,M,M,M,M,M,M,19.75
0CO,9/24/23,3:55:00 PM,33.8,24.8,69.25,320,16,0,30.52,10,29,CLR,M,M,M,M,M,M,22.76
0CO,9/24/23,4:55:00 PM,37.4,26.6,64.7,310,10,0,30.55,10,18,CLR,M,M,M,M,M,M,29.74
0CO,9/24/23,5:55:00 PM,39.2,26.6,60.29,320,15,0,30.55,10,25,CLR,M,M,M,M,M,M,30.11
0CO,9/24/23,6:55:00 PM,42.8,28.4,56.48,340,8,0,30.57,10,18,CLR,M,M,M,M,M,M,37.42
0CO,9/24/23,7:55:00 PM,44.6,28.4,52.72,320,10,0,30.57,10,21,CLR,M,M,M,M,M,M,38.77
0CO,9/24/23,8:55:00 PM,46.4,28.4,49.24,330,16,0,30.57,10,27,CLR,M,M,M,M,M,M,39.19
0CO,9/24/23,9:55:00 PM,46.4,28.4,49.24,340,9,0,30.6,10,19,CLR,M,M,M,M,M,M,41.42
0CO,9/24/23,10:55:00 PM,44.6,28.4,52.72,300,13,0,30.6,10,22,CLR,M,M,M,M,M,M,37.71
0CO,9/24/23,11:55:00 PM,44.6,28.4,52.72,320,8,0,30.62,10,M,CLR,M,M,M,M,M,M,39.63
0CO,9/25/23,12:55:00 AM,42.8,28.4,56.48,300,6,0,30.63,10,M,CLR,M,M,M,M,M,M,38.54
0CO,9/25/23,1:55:00 AM,41,28.4,60.54,300,8,0,30.64,10,M,CLR,M,M,M,M,M,M,35.2
0CO,9/25/23,2:55:00 AM,41,28.4,60.54,260,9,0,30.65,10,M,CLR,M,M,M,M,M,M,34.7
0CO,9/25/23,3:55:00 AM,41,28.4,60.54,300,7,0,30.65,10,M,CLR,M,M,M,M,M,M,35.75
0CO,9/25/23,4:55:00 AM,41,28.4,60.54,190,9,0,30.65,10,M,CLR,M,M,M,M,M,M,34.7
0CO,9/25/23,5:55:00 AM,41,28.4,60.54,270,7,0,30.65,10,M,CLR,M,M,M,M,M,M,35.75
0CO,9/25/23,6:55:00 AM,39.2,28.4,64.93,300,6,0,30.64,10,M,CLR,M,M,M,M,M,M,34.2
0CO,9/25/23,7:55:00 AM,39.2,28.4,64.93,290,7,0,30.64,10,M,CLR,M,M,M,M,M,M,33.56
0CO,9/25/23,8:55:00 AM,41,26.6,56.22,290,11,0,30.64,10,17,CLR,M,M,M,M,M,M,33.84
0CO,9/25/23,9:55:00 AM,41,26.6,56.22,290,12,0,30.64,10,M,CLR,M,M,M,M,M,M,33.46
0CO,9/25/23,10:55:00 AM,41,26.6,56.22,290,10,0,30.65,10,M,CLR,M,M,M,M,M,M,34.25
0CO,9/25/23,11:55:00 AM,42.8,21.2,41.84,290,6,0,30.65,10,M,CLR,M,M,M,M,M,M,38.54
0CO,9/25/23,12:35:00 PM,42.8,21.2,41.84,300,9,0,30.65,10,M,CLR,M,M,M,M,M,M,36.94
0CO,9/25/23,1:55:00 PM,44.6,19.4,36.18,0,0,0,30.67,10,M,CLR,M,M,M,M,M,M,44.6
0CO,9/25/23,2:55:00 PM,46.4,17.6,31.28,260,10,0,30.67,10,M,CLR,M,M,M,M,M,M,41.03
0CO,9/25/23,3:55:00 PM,50,21.2,31.87,270,7,0,30.68,10,M,CLR,M,M,M,M,M,M,50
0CO,9/25/23,4:55:00 PM,50,21.2,31.87,0,0,0,30.68,10,M,CLR,M,M,M,M,M,M,50
0CO,9/25/23,5:55:00 PM,51.8,26.6,37.38,350,6,0,30.68,10,M,CLR,M,M,M,M,M,M,51.8
0CO,9/25/23,6:55:00 PM,55.4,28.4,35.28,350,4,0,30.67,10,M,CLR,M,M,M,M,M,M,55.4
0CO,9/25/23,7:55:00 PM,55.4,26.6,32.76,360,5,0,30.66,10,M,CLR,M,M,M,M,M,M,55.4
0CO,9/25/23,8:55:00 PM,55.4,30.2,37.97,350,4,0,30.65,10,M,CLR,M,M,M,M,M,M,55.4
0CO,9/25/23,9:55:00 PM,55.4,32,40.84,160,7,0,30.64,10,M,SCT,M,M,M,6500,M,M,55.4
0CO,9/25/23,10:55:00 PM,51.8,32,46.59,170,6,0,30.64,10,19,CLR,M,M,M,M,M,M,51.8
0CO,9/25/23,11:55:00 PM,50,32,49.81,170,4,0,30.64,10,15,CLR,M,M,M,M,M,M,50
0CO,9/26/23,12:55:00 AM,48.2,32,53.27,160,8,0,30.63,10,M,CLR,M,M,M,M,M,M,44.07
0CO,9/26/23,1:55:00 AM,50,28.4,43.03,310,5,0,30.63,10,M,CLR,M,M,M,M,M,M,50
0CO,9/26/23,2:55:00 AM,48.2,26.6,42.73,360,6,0,30.64,10,M,CLR,M,M,M,M,M,M,45.04
0CO,9/26/23,3:55:00 AM,46.4,30.2,53,260,5,0,30.64,10,M,CLR,M,M,M,M,M,M,43.5
0CO,9/26/23,4:55:00 AM,46.4,28.4,49.24,340,5,0,30.63,10,M,CLR,M,M,M,M,M,M,43.5
0CO,9/26/23,5:55:00 AM,44.6,28.4,52.72,320,6,0,30.63,10,M,CLR,M,M,M,M,M,M,40.71
0CO,9/26/23,6:55:00 AM,44.6,28.4,52.72,300,6,0,30.62,10,M,CLR,M,M,M,M,M,M,40.71
0CO,9/26/23,7:55:00 AM,42.8,28.4,56.48,300,9,0,30.61,10,17,CLR,M,M,M,M,M,M,36.94
0CO,9/26/23,8:55:00 AM,42.8,28.4,56.48,300,7,0,30.61,10,16,CLR,M,M,M,M,M,M,37.94
0CO,9/26/23,9:55:00 AM,42.8,28.4,56.48,300,11,0,30.6,10,17,CLR,M,M,M,M,M,M,36.11
0CO,9/26/23,10:55:00 AM,42.8,28.4,56.48,300,11,0,30.61,10,17,CLR,M,M,M,M,M,M,36.11
0CO,9/26/23,11:55:00 AM,42.8,26.6,52.45,290,13,0,30.62,10,M,CLR,M,M,M,M,M,M,35.4
0CO,9/26/23,12:55:00 PM,42.8,26.6,52.45,290,17,0,30.61,10,20,CLR,M,M,M,M,M,M,34.22
0CO,9/26/23,1:55:00 PM,42.8,26.6,52.45,290,13,0,30.63,10,21,CLR,M,M,M,M,M,M,35.4
0CO,9/26/23,2:55:00 PM,44.6,24.8,45.44,310,13,0,30.64,10,22,CLR,M,M,M,M,M,M,37.71
0CO,9/26/23,3:55:00 PM,46.4,26.6,45.73,280,29,0,30.64,10,36,CLR,M,M,M,M,M,M,36.65
0CO,9/26/23,4:55:00 PM,48.2,24.8,39.66,290,19,0,30.65,10,34,CLR,M,M,M,M,M,M,40.86
0CO,9/26/23,5:55:00 PM,50,24.8,37.08,290,18,0,30.66,10,30,CLR,M,M,M,M,M,M,50
0CO,9/26/23,6:55:00 PM,50,24.8,37.08,280,21,0,30.65,10,M,CLR,M,M,M,M,M,M,50
0CO,9/26/23,7:55:00 PM,53.6,24.8,32.46,M,M,0,30.64,10,M,SCT,M,M,M,6000,M,M,53.6
0CO,9/26/23,8:55:00 PM,51.8,26.6,37.38,290,17,0,30.64,10,30,SCT,M,M,M,6500,M,M,51.8
0CO,9/26/23,9:55:00 PM,51.8,24.8,34.69,310,16,0,30.64,10,25,CLR,M,M,M,M,M,M,51.8
0CO,9/26/23,10:55:00 PM,51.8,24.8,34.69,300,11,0,30.65,10,21,CLR,M,M,M,M,M,M,51.8
0CO,9/26/23,11:55:00 PM,51.8,23,32.17,310,11,0,30.65,10,20,CLR,M,M,M,M,M,M,51.8
0CO,9/27/23,12:55:00 AM,46.4,23,39.36,300,7,0,30.66,10,M,BKN,M,M,M,8000,M,M,42.33
0CO,9/27/23,1:55:00 AM,44.6,23,42.14,290,9,0,30.67,10,M,SCT,M,M,M,8000,M,M,39.18
0CO,9/27/23,2:55:00 AM,44.6,23,42.14,300,12,0,30.68,10,M,SCT,M,M,M,7500,M,M,38.04
0CO,9/27/23,3:55:00 AM,44.6,23,42.14,310,9,0,30.69,10,M,SCT,SCT,M,M,7000,9000,M,39.18
0CO,9/27/23,4:55:00 AM,44.6,23,42.14,310,5,0,30.7,10,M,BKN,M,M,M,7000,M,M,41.36
0CO,9/27/23,5:55:00 AM,44.6,21.2,39.06,340,4,0,30.7,10,M,SCT,M,M,M,8500,M,M,42.13
0CO,9/27/23,6:55:00 AM,44.6,21.2,39.06,0,0,0,30.69,10,M,SCT,BKN,M,M,7000,8500,M,44.6
0CO,9/27/23,7:55:00 AM,44.6,21.2,39.06,70,9,0,30.69,10,M,SCT,BKN,OVC,M,5000,6000,7000,39.18
0CO,9/27/23,8:55:00 AM,44.6,24.8,45.44,170,12,0,30.69,10,27,SCT,BKN,M,M,8000,9000,M,38.04
0CO,9/27/23,9:55:00 AM,42.8,26.6,52.45,M,M,0,30.68,10,M,CLR,M,M,M,M,M,M,M
0CO,9/27/23,10:55:00 AM,44.6,21.2,39.06,M,M,0,30.69,10,M,SCT,SCT,BKN,M,6000,7000,8000,M
0CO,9/27/23,11:55:00 AM,42.8,19.4,38.75,110,14,0,30.69,10,20,BKN,OVC,M,M,5500,9000,M,35.08
0CO,9/27/23,12:55:00 PM,42.8,19.4,38.75,M,M,0,30.7,10,M,SCT,BKN,BKN,M,5500,7500,8500,M
0CO,9/27/23,1:55:00 PM,42.8,19.4,38.75,M,M,0,30.72,10,M,SCT,OVC,M,M,6500,7500,M,M
0CO,9/27/23,2:55:00 PM,44.6,19.4,36.18,160,6,0,30.73,10,M,SCT,M,M,M,8000,M,M,40.71
0CO,9/27/23,3:55:00 PM,48.2,21.2,34.09,130,14,0,30.74,10,M,CLR,M,M,M,M,M,M,42.04
0CO,9/27/23,4:55:00 PM,50,21.2,31.87,M,M,0,30.75,10,M,CLR,M,M,M,M,M,M,50
0CO,9/27/23,5:55:00 PM,50,21.2,31.87,170,7,0,30.74,10,22,SCT,SCT,M,M,6500,7500,M,50
0CO,9/27/23,6:55:00 PM,51.8,23,32.17,140,15,0,30.73,10,23,BKN,M,M,M,6500,M,M,51.8
0CO,9/27/23,7:55:00 PM,50,23,34.39,130,4,0,30.72,10,M,SCT,SCT,OVC,M,4000,4800,6500,50
0CO,9/27/23,8:55:00 PM,48.2,26.6,42.73,260,9,0,30.72,10,M,SCT,SCT,M,M,6500,7000,M,43.66
0CO,9/27/23,9:55:00 PM,46.4,26.6,45.73,150,17,0,30.72,10,M,SCT,SCT,M,M,6500,10000,M,38.94
0CO,9/27/23,10:55:00 PM,46.4,24.8,42.44,110,15,0,30.72,10,M,CLR,M,M,M,M,M,M,39.45
0CO,9/27/23,11:55:00 PM,44.6,26.6,48.96,M,M,0,30.72,10,M,CLR,M,M,M,M,M,M,M
0CO,9/28/23,12:55:00 AM,42.8,26.6,52.45,M,M,0,30.72,10,M,CLR,M,M,M,M,M,M,M
0CO,9/28/23,1:55:00 AM,42.8,28.4,56.48,140,16,0,30.74,10,M,CLR,M,M,M,M,M,M,34.5
0CO,9/28/23,2:55:00 AM,42.8,28.4,56.48,150,18,0,30.74,10,25,CLR,M,M,M,M,M,M,33.97
0CO,9/28/23,3:55:00 AM,41,28.4,60.54,150,17,0,30.75,10,24,CLR,M,M,M,M,M,M,31.87
0CO,9/28/23,4:55:00 AM,41,28.4,60.54,150,19,0,30.74,10,23,CLR,M,M,M,M,M,M,31.34
0CO,9/28/23,5:55:00 AM,41,28.4,60.54,160,7,0,30.75,10,23,CLR,M,M,M,M,M,M,35.75
0CO,9/28/23,6:55:00 AM,41,28.4,60.54,150,8,0,30.75,10,M,CLR,M,M,M,M,M,M,35.2
0CO,9/28/23,7:55:00 AM,42.8,26.6,52.45,240,10,0,30.74,10,15,CLR,M,M,M,M,M,M,36.51
0CO,9/28/23,8:55:00 AM,42.8,26.6,52.45,260,8,0,30.73,10,21,CLR,M,M,M,M,M,M,37.42
0CO,9/28/23,9:55:00 AM,41,28.4,60.54,260,6,0,30.74,10,M,CLR,M,M,M,M,M,M,36.37
0CO,9/28/23,10:55:00 AM,41,28.4,60.54,260,7,0,30.74,10,M,CLR,M,M,M,M,M,M,35.75
0CO,9/28/23,11:55:00 AM,42.8,26.6,52.45,260,6,0,30.74,10,M,CLR,M,M,M,M,M,M,38.54
0CO,9/28/23,12:55:00 PM,42.8,26.6,52.45,260,7,0,30.75,10,M,CLR,M,M,M,M,M,M,37.94
0CO,9/28/23,1:55:00 PM,44.6,21.2,39.06,0,0,0,30.77,10,M,CLR,M,M,M,M,M,M,44.6
0CO,9/28/23,2:55:00 PM,46.4,23,39.36,150,7,0,30.77,10,M,CLR,M,M,M,M,M,M,42.33
0CO,9/28/23,3:55:00 PM,50,21.2,31.87,130,4,0,30.79,10,M,CLR,M,M,M,M,M,M,50
0CO,9/28/23,4:55:00 PM,51.8,23,32.17,150,9,0,30.79,10,15,CLR,M,M,M,M,M,M,51.8
0CO,9/28/23,5:55:00 PM,53.6,21.2,27.91,170,6,0,30.79,10,19,CLR,M,M,M,M,M,M,53.6
0CO,9/28/23,6:55:00 PM,53.6,23,30.11,190,10,0,30.78,10,18,BKN,M,M,M,7000,M,M,53.6
0CO,9/28/23,7:55:00 PM,55.4,23,28.2,200,6,0,30.77,10,21,CLR,M,M,M,M,M,M,55.4
0CO,9/28/23,8:55:00 PM,53.6,28.4,37.67,M,M,0,30.75,10,M,SCT,M,M,M,7000,M,M,53.6
0CO,9/28/23,9:55:00 PM,50,30.2,46.31,170,11,0,30.75,10,26,SCT,SCT,M,M,6000,7000,M,50
0CO,9/28/23,10:55:00 PM,50,30.2,46.31,M,M,0,30.74,10,M,CLR,M,M,M,M,M,M,50
0CO,9/28/23,11:55:00 PM,46.4,32,57,120,14,0,30.74,10,M,CLR,M,M,M,M,M,M,39.72
0CO,9/29/23,12:55:00 AM,44.6,32,61.03,M,M,0,30.74,10,M,CLR,M,M,M,M,M,M,M
0CO,9/29/23,1:55:00 AM,44.6,32,61.03,190,6,0,30.75,10,20,CLR,M,M,M,M,M,M,40.71
0CO,9/29/23,2:55:00 AM,42.8,33.8,70.28,180,5,0,30.76,10,M,SCT,M,M,M,7000,M,M,39.22
0CO,9/29/23,3:55:00 AM,42.8,32,65.38,250,9,0,30.76,10,M,CLR,M,M,M,M,M,M,36.94
0CO,9/29/23,4:55:00 AM,42.8,32,65.38,260,13,0,30.75,10,23,CLR,M,M,M,M,M,M,35.4
0CO,9/29/23,5:55:00 AM,42.8,32,65.38,240,5,0,30.75,10,M,CLR,M,M,M,M,M,M,39.22
0CO,9/29/23,6:55:00 AM,42.8,30.2,60.79,260,21,0,30.74,10,26,CLR,M,M,M,M,M,M,33.26
0CO,9/29/23,7:55:00 AM,42.8,30.2,60.79,240,6,0,30.74,10,16,CLR,M,M,M,M,M,M,38.54
0CO,9/29/23,8:55:00 AM,44.6,28.4,52.72,280,12,0,30.72,10,19,CLR,M,M,M,M,M,M,38.04
0CO,9/29/23,9:55:00 AM,44.6,28.4,52.72,290,15,0,30.71,10,M,CLR,M,M,M,M,M,M,37.11
0CO,9/29/23,10:56:00 AM,44.6,28.4,52.72,290,13,0,30.71,10,M,CLR,M,M,M,M,M,M,37.71
0CO,9/29/23,11:55:00 AM,42.8,28.4,56.48,290,15,0,30.71,10,M,CLR,M,M,M,M,M,M,34.78
0CO,9/29/23,12:55:00 PM,42.8,28.4,56.48,290,18,0,30.72,10,M,CLR,M,M,M,M,M,M,33.97
0CO,9/29/23,1:55:00 PM,44.6,28.4,52.72,290,15,0,30.73,10,M,CLR,M,M,M,M,M,M,37.11
0CO,9/29/23,2:55:00 PM,44.6,28.4,52.72,290,14,0,30.74,10,23,CLR,M,M,M,M,M,M,37.4
0CO,9/29/23,3:55:00 PM,46.4,28.4,49.24,290,16,0,30.74,10,23,SCT,SCT,M,M,4600,6000,M,39.19
0CO,9/29/23,4:55:00 PM,50,30.2,46.31,300,13,0,30.74,10,21,SCT,SCT,M,M,6000,7500,M,50
0CO,9/29/23,5:55:00 PM,50,23,34.39,290,19,0,30.74,10,26,BKN,M,M,M,7500,M,M,50
0CO,9/29/23,6:55:00 PM,51.8,23,32.17,310,23,0,30.7,10,33,SCT,M,M,M,6000,M,M,51.8
0CO,9/29/23,7:55:00 PM,53.6,23,30.11,300,13,0,30.69,10,20,CLR,M,M,M,M,M,M,53.6
0CO,9/29/23,8:55:00 PM,53.6,23,30.11,300,17,0,30.66,10,27,SCT,BKN,M,M,7000,8000,M,53.6
0CO,9/29/23,9:55:00 PM,50,23,34.39,340,7,0,30.67,10,M,BKN,M,M,M,9000,M,M,50
0CO,9/29/23,10:55:00 PM,51.8,23,32.17,310,16,0,30.65,10,27,CLR,M,M,M,M,M,M,51.8
0CO,9/29/23,11:55:00 PM,50,24.8,37.08,290,9,0,30.66,10,M,SCT,BKN,OVC,M,5500,8000,10000,50
0CO,9/30/23,12:55:00 AM,48.2,23,36.78,300,12,0,30.65,10,M,OVC,M,M,M,10000,M,M,42.62
0CO,9/30/23,1:55:00 AM,46.4,23,39.36,290,15,0,30.65,10,23,CLR,M,M,M,M,M,M,39.45
0CO,9/30/23,2:55:00 AM,44.6,24.8,45.44,290,20,0,30.65,10,M,CLR,M,M,M,M,M,M,35.87
0CO,9/30/23,3:55:00 AM,44.6,24.8,45.44,290,19,0,30.65,10,25,CLR,M,M,M,M,M,M,36.1
0CO,9/30/23,4:55:00 AM,44.6,24.8,45.44,290,16,0,30.64,10,29,CLR,M,M,M,M,M,M,36.84
0CO,9/30/23,5:55:00 AM,44.6,26.6,48.96,M,M,0,30.63,10,M,CLR,M,M,M,M,M,M,M
0CO,9/30/23,6:55:00 AM,42.8,26.6,52.45,300,18,0,30.63,10,24,CLR,M,M,M,M,M,M,33.97
0CO,9/30/23,7:55:00 AM,42.8,26.6,52.45,M,M,0,30.61,10,M,CLR,M,M,M,M,M,M,M
0CO,9/30/23,8:55:00 AM,42.8,26.6,52.45,290,27,0,30.59,10,38,CLR,M,M,M,M,M,M,32.06
0CO,9/30/23,9:55:00 AM,42.8,26.6,52.45,300,25,0,30.59,10,38,CLR,M,M,M,M,M,M,32.43
0CO,9/30/23,10:55:00 AM,41,26.6,56.22,290,24,0,30.59,10,31,CLR,M,M,M,M,M,M,30.2
0CO,9/30/23,11:55:00 AM,41,26.6,56.22,300,19,0,30.61,10,37,CLR,M,M,M,M,M,M,31.34
0CO,9/30/23,12:55:00 PM,41,24.8,52.17,290,21,0,30.63,10,31,CLR,M,M,M,M,M,M,30.86
0CO,9/30/23,1:55:00 PM,41,24.8,52.17,290,28,0,30.64,10,38,CLR,M,M,M,M,M,M,29.43
0CO,9/30/23,2:55:00 PM,42.8,24.8,48.67,290,20,0,30.66,10,29,CLR,M,M,M,M,M,M,33.48
0CO,9/30/23,3:55:00 PM,44.6,24.8,45.44,310,21,0,30.67,10,32,CLR,M,M,M,M,M,M,35.66
0CO,9/30/23,4:55:00 PM,46.4,23,39.36,290,28,0,30.68,10,34,CLR,M,M,M,M,M,M,36.81
0CO,9/30/23,5:55:00 PM,50,19.4,29.52,310,27,0,30.67,10,37,CLR,M,M,M,M,M,M,50
0CO,9/30/23,6:55:00 PM,50,19.4,29.52,300,23,0,30.68,10,31,CLR,M,M,M,M,M,M,50
0CO,9/30/23,7:55:00 PM,51.8,21.2,29.82,300,21,0,30.68,10,32,SCT,M,M,M,7000,M,M,51.8
0CO,9/30/23,8:55:00 PM,51.8,21.2,29.82,M,M,0,30.68,10,M,BKN,BKN,M,M,7000,9000,M,51.8
0CO,9/30/23,9:55:00 PM,50,19.4,29.52,280,26,0,30.68,10,30,BKN,M,M,M,8000,M,M,50
0CO,9/30/23,10:55:00 PM,46.4,30.2,53,140,4,0,30.7,10,M,BKN,M,M,M,8000,M,M,44.24
0CO,9/30/23,11:55:00 PM,46.4,23,39.36,300,12,0,30.7,10,18,SCT,M,M,M,8000,M,M,40.33
0CO,10/1/23,12:55:00 AM,44.6,21.2,39.06,300,11,0,30.71,10,17,CLR,M,M,M,M,M,M,38.39
0CO,10/1/23,1:55:00 AM,42.8,19.4,38.75,290,16,0,30.71,10,24,CLR,M,M,M,M,M,M,34.5
0CO,10/1/23,2:55:00 AM,41,17.6,38.45,290,11,0,30.74,10,18,CLR,M,M,M,M,M,M,33.84
0CO,10/1/23,3:55:00 AM,41,19.4,41.54,270,5,0,30.75,10,M,CLR,M,M,M,M,M,M,37.08
0CO,10/1/23,4:55:00 AM,41,17.6,38.45,260,5,0,30.75,10,M,CLR,M,M,M,M,M,M,37.08
0CO,10/1/23,5:55:00 AM,41,17.6,38.45,230,5,0,30.76,10,M,CLR,M,M,M,M,M,M,37.08
0CO,10/1/23,6:55:00 AM,39.2,19.4,44.55,260,8,0,30.75,10,15,CLR,M,M,M,M,M,M,32.98
0CO,10/1/23,7:55:00 AM,41,15.8,35.57,290,18,0,30.74,10,23,CLR,M,M,M,M,M,M,31.6
0CO,10/1/23,8:55:00 AM,39.2,15.8,38.15,280,18,0,30.73,10,25,CLR,M,M,M,M,M,M,29.23
0CO,10/1/23,9:55:00 AM,37.4,14,37.84,290,19,0,30.72,10,22,CLR,M,M,M,M,M,M,26.58
0CO,10/1/23,10:55:00 AM,39.2,14,35.26,290,18,0,30.72,10,22,CLR,M,M,M,M,M,M,29.23
0CO,10/1/23,11:55:00 AM,41,15.8,35.57,280,22,0,30.72,10,30,CLR,M,M,M,M,M,M,30.63
0CO,10/1/23,12:55:00 PM,39.2,15.8,38.15,300,16,0,30.72,10,23,CLR,M,M,M,M,M,M,29.8
0CO,10/1/23,1:55:00 PM,41,15.8,35.57,290,19,0,30.73,10,29,CLR,M,M,M,M,M,M,31.34
0CO,10/1/23,2:55:00 PM,37.4,17.6,44.25,300,17,0,30.74,10,26,CLR,M,M,M,M,M,M,27.15
0CO,10/1/23,3:55:00 PM,42.8,17.6,35.87,290,19,0,30.76,10,30,CLR,M,M,M,M,M,M,33.72
0CO,10/1/23,4:55:00 PM,46.4,17.6,31.28,290,20,0,30.76,10,29,CLR,M,M,M,M,M,M,38.26
0CO,10/1/23,5:55:00 PM,46.4,17.6,31.28,320,9,0,30.77,10,16,CLR,M,M,M,M,M,M,41.42
0CO,10/1/23,6:55:00 PM,48.2,19.4,31.57,320,17,0,30.75,10,24,CLR,M,M,M,M,M,M,41.3
0CO,10/1/23,7:55:00 PM,50,12.2,21.59,310,21,0,30.74,10,25,CLR,M,M,M,M,M,M,50
0CO,10/1/23,8:55:00 PM,51.8,14,21.86,290,23,0,30.72,10,31,CLR,M,M,M,M,M,M,51.8
0CO,10/1/23,9:55:00 PM,51.8,14,21.86,290,27,0,30.7,10,34,CLR,M,M,M,M,M,M,51.8
0CO,10/1/23,10:55:00 PM,51.8,12.2,20.2,M,M,0,30.71,10,M,CLR,M,M,M,M,M,M,51.8
0CO,10/1/23,11:55:00 PM,50,12.2,21.59,300,20,0,30.71,10,M,CLR,M,M,M,M,M,M,50
0CO,10/2/23,12:55:00 AM,44.6,12.2,26.45,290,16,0,30.72,10,24,CLR,M,M,M,M,M,M,36.84
0CO,10/2/23,1:55:00 AM,44.6,12.2,26.45,M,M,0,30.7,10,M,CLR,M,M,M,M,M,M,M
0CO,10/2/23,2:55:00 AM,41,12.2,30.38,300,20,0,30.7,10,24,CLR,M,M,M,M,M,M,31.09
0CO,10/2/23,3:55:00 AM,41,12.2,30.38,300,19,0,30.69,10,25,CLR,M,M,M,M,M,M,31.34
0CO,10/2/23,4:55:00 AM,41,12.2,30.38,300,21,0,30.68,10,26,CLR,M,M,M,M,M,M,30.86
0CO,10/2/23,5:55:00 AM,39.2,12.2,32.58,330,21,0,30.67,10,28,CLR,M,M,M,M,M,M,28.46
0CO,10/2/23,6:55:00 AM,39.2,12.2,32.58,310,19,0,30.67,10,27,CLR,M,M,M,M,M,M,28.96
0CO,10/2/23,7:55:00 AM,37.4,10.4,32.27,320,21,0,30.64,10,26,CLR,M,M,M,M,M,M,26.06
0CO,10/2/23,8:55:00 AM,39.2,10.4,30.07,310,15,0,30.63,10,26,CLR,M,M,M,M,M,M,30.11
0CO,10/2/23,9:55:00 AM,37.4,10.4,32.27,320,11,0,30.62,10,27,CLR,M,M,M,M,M,M,29.29
0CO,10/2/23,10:55:00 AM,37.4,10.4,32.27,320,16,0,30.6,10,26,CLR,M,M,M,M,M,M,27.46
0CO,10/2/23,11:55:00 AM,37.4,10.4,32.27,310,22,0,30.59,10,33,CLR,M,M,M,M,M,M,25.81
0CO,10/2/23,12:55:00 PM,37.4,10.4,32.27,310,19,0,30.58,10,29,CLR,M,M,M,M,M,M,26.58
0CO,10/2/23,1:55:00 PM,37.4,12.2,34.96,300,31,0,30.56,10,40,CLR,M,M,M,M,M,M,23.94
0CO,10/2/23,2:55:00 PM,41,8.6,25.87,310,20,0,30.58,10,36,CLR,M,M,M,M,M,M,31.09
0CO,10/2/23,3:55:00 PM,41,10.4,28.04,310,17,0,30.6,10,28,CLR,M,M,M,M,M,M,31.87
0CO,10/2/23,4:55:00 PM,42.8,12.2,28.34,340,8,0,30.6,10,22,CLR,M,M,M,M,M,M,37.42
0CO,10/2/23,5:55:00 PM,44.6,12.2,26.45,330,8,0,30.59,10,21,CLR,M,M,M,M,M,M,39.63
0CO,10/2/23,6:55:00 PM,46.4,12.2,24.71,360,9,0,30.58,10,16,CLR,M,M,M,M,M,M,41.42
0CO,10/2/23,7:55:00 PM,50,12.2,21.59,320,18,0,30.56,10,28,CLR,M,M,M,M,M,M,50
0CO,10/2/23,8:55:00 PM,51.8,12.2,20.2,310,24,0,30.53,10,31,CLR,M,M,M,M,M,M,51.8
0CO,10/2/23,9:55:00 PM,50,12.2,21.59,300,21,0,30.53,10,30,CLR,M,M,M,M,M,M,50
0CO,10/2/23,10:55:00 PM,50,12.2,21.59,290,23,0,30.52,10,29,CLR,M,M,M,M,M,M,50
0CO,10/2/23,11:55:00 PM,48.2,12.2,23.09,300,19,0,30.53,10,28,CLR,M,M,M,M,M,M,40.86
0CO,10/3/23,12:55:00 AM,42.8,12.2,28.34,290,12,0,30.53,10,18,CLR,M,M,M,M,M,M,35.75
0CO,10/3/23,1:55:00 AM,41,14,32.88,300,11,0,30.54,10,16,CLR,M,M,M,M,M,M,33.84
0CO,10/3/23,2:55:00 AM,41,14,32.88,300,13,0,30.55,10,20,CLR,M,M,M,M,M,M,33.1
0CO,10/3/23,3:55:00 AM,41,14,32.88,300,14,0,30.54,10,M,CLR,M,M,M,M,M,M,32.76
0CO,10/3/23,4:55:00 AM,39.2,14,35.26,300,13,0,30.53,10,M,CLR,M,M,M,M,M,M,30.79
0CO,10/3/23,5:55:00 AM,37.4,12.2,34.96,330,11,0,30.52,10,21,CLR,M,M,M,M,M,M,29.29
0CO,10/3/23,6:55:00 AM,37.4,12.2,34.96,330,18,0,30.5,10,24,CLR,M,M,M,M,M,M,26.86
0CO,10/3/23,7:55:00 AM,37.4,12.2,34.96,330,15,0,30.49,10,24,CLR,M,M,M,M,M,M,27.78
0CO,10/3/23,8:55:00 AM,35.6,12.2,37.53,330,19,0,30.49,10,26,CLR,M,M,M,M,M,M,24.2
0CO,10/3/23,9:55:00 AM,35.6,12.2,37.53,330,15,0,30.49,10,25,CLR,M,M,M,M,M,M,25.45
0CO,10/3/23,10:55:00 AM,35.6,12.2,37.53,310,9,0,30.51,10,20,CLR,M,M,M,M,M,M,27.99
0CO,10/3/23,11:55:00 AM,33.8,12.2,40.32,310,9,0,30.51,10,16,CLR,M,M,M,M,M,M,25.75
0CO,10/3/23,12:55:00 PM,33.8,12.2,40.32,330,10,0,30.52,10,17,CLR,M,M,M,M,M,M,25.23
0CO,10/3/23,1:55:00 PM,33.8,12.2,40.32,320,10,0,30.52,10,19,CLR,M,M,M,M,M,M,25.23
0CO,10/3/23,2:55:00 PM,37.4,14,37.84,300,13,0,30.53,10,18,CLR,M,M,M,M,M,M,28.49
0CO,10/3/23,3:55:00 PM,37.4,15.8,40.93,290,8,0,30.55,10,M,CLR,M,M,M,M,M,M,30.76
0CO,10/3/23,4:55:00 PM,39.2,17.6,41.24,280,8,0,30.56,10,17,CLR,M,M,M,M,M,M,32.98
0CO,10/3/23,5:55:00 PM,42.8,17.6,35.87,300,13,0,30.56,10,21,CLR,M,M,M,M,M,M,35.4
0CO,10/3/23,6:55:00 PM,46.4,17.6,31.28,320,10,0,30.55,10,20,CLR,M,M,M,M,M,M,41.03
0CO,10/3/23,7:55:00 PM,46.4,14,26.75,320,18,0,30.55,10,28,CLR,M,M,M,M,M,M,38.7
0CO,10/3/23,8:55:00 PM,48.2,17.6,29.23,60,5,0,30.55,10,M,CLR,M,M,M,M,M,M,45.63
0CO,10/3/23,9:55:00 PM,50,17.6,27.33,340,5,0,30.56,10,M,CLR,M,M,M,M,M,M,50
0CO,10/3/23,10:55:00 PM,46.4,17.6,31.28,320,9,0,30.57,10,19,CLR,M,M,M,M,M,M,41.42
0CO,10/3/23,11:55:00 PM,46.4,17.6,31.28,290,17,0,30.58,10,M,CLR,M,M,M,M,M,M,38.94
0CO,10/4/23,12:55:00 AM,42.8,17.6,35.87,290,15,0,30.58,10,M,CLR,M,M,M,M,M,M,34.78
0CO,10/4/23,1:55:00 AM,41,17.6,38.45,290,11,0,30.6,10,M,CLR,M,M,M,M,M,M,33.84
0CO,10/4/23,2:55:00 AM,41,17.6,38.45,260,4,0,30.63,10,14,CLR,M,M,M,M,M,M,37.93
0CO,10/4/23,3:55:00 AM,41,17.6,38.45,260,8,0,30.63,10,M,CLR,M,M,M,M,M,M,35.2
0CO,10/4/23,4:55:00 AM,39.2,17.6,41.24,250,8,0,30.64,10,16,CLR,M,M,M,M,M,M,32.98
0CO,10/4/23,5:55:00 AM,37.4,19.4,47.8,250,8,0,30.64,10,16,CLR,M,M,M,M,M,M,30.76
0CO,10/4/23,6:55:00 AM,39.2,17.6,41.24,260,15,0,30.64,10,25,CLR,M,M,M,M,M,M,30.11
0CO,10/4/23,7:55:00 AM,41,15.8,35.57,280,20,0,30.64,10,27,CLR,M,M,M,M,M,M,31.09
0CO,10/4/23,8:55:00 AM,41,14,32.88,290,18,0,30.64,10,25,CLR,M,M,M,M,M,M,31.6
0CO,10/4/23,9:55:00 AM,39.2,14,35.26,290,19,0,30.63,10,M,CLR,M,M,M,M,M,M,28.96
0CO,10/4/23,10:55:00 AM,39.2,14,35.26,290,20,0,30.64,10,28,CLR,M,M,M,M,M,M,28.7
0CO,10/4/23,11:55:00 AM,39.2,14,35.26,290,16,0,30.65,10,25,CLR,M,M,M,M,M,M,29.8
0CO,10/4/23,12:55:00 PM,37.4,14,37.84,290,19,0,30.66,10,25,CLR,M,M,M,M,M,M,26.58
0CO,10/4/23,1:55:00 PM,41,14,32.88,290,15,0,30.68,10,25,CLR,M,M,M,M,M,M,32.45
0CO,10/4/23,2:55:00 PM,42.8,14,30.68,300,13,0,30.69,10,24,CLR,M,M,M,M,M,M,35.4
0CO,10/4/23,3:55:00 PM,44.6,14,28.64,290,18,0,30.71,10,26,CLR,M,M,M,M,M,M,36.34
0CO,10/4/23,4:55:00 PM,46.4,12.2,24.71,280,23,0,30.72,10,29,CLR,M,M,M,M,M,M,37.67
0CO,10/4/23,5:55:00 PM,50,14,23.37,290,15,0,30.72,10,23,CLR,M,M,M,M,M,M,50
0CO,10/4/23,6:55:00 PM,50,14,23.37,290,20,0,30.71,10,26,CLR,M,M,M,M,M,M,50
0CO,10/4/23,7:55:00 PM,50,12.2,21.59,300,12,0,30.7,10,25,CLR,M,M,M,M,M,M,50
0CO,10/4/23,8:55:00 PM,51.8,10.4,18.64,280,14,0,30.69,10,30,CLR,M,M,M,M,M,M,51.8
0CO,10/4/23,9:55:00 PM,53.6,12.2,18.9,310,14,0,30.67,10,20,CLR,M,M,M,M,M,M,53.6
0CO,10/4/23,10:55:00 PM,51.8,10.4,18.64,300,14,0,30.67,10,25,CLR,M,M,M,M,M,M,51.8
0CO,10/4/23,11:55:00 PM,50,10.4,19.93,300,10,0,30.67,10,20,CLR,M,M,M,M,M,M,50
0CO,10/5/23,12:55:00 AM,44.6,12.2,26.45,290,15,0,30.67,10,21,CLR,M,M,M,M,M,M,37.11
0CO,10/5/23,1:55:00 AM,44.6,14,28.64,290,19,0,30.66,10,M,CLR,M,M,M,M,M,M,36.1
0CO,10/5/23,2:55:00 AM,42.8,15.8,33.18,260,16,0,30.66,10,24,CLR,M,M,M,M,M,M,34.5
0CO,10/5/23,3:55:00 AM,42.8,12.2,28.34,260,16,0,30.65,10,25,CLR,M,M,M,M,M,M,34.5
0CO,10/5/23,4:55:00 AM,42.8,10.4,26.16,270,20,0,30.64,10,30,CLR,M,M,M,M,M,M,33.48
0CO,10/5/23,5:55:00 AM,42.8,10.4,26.16,270,22,0,30.62,10,37,CLR,M,M,M,M,M,M,33.04
0CO,10/5/23,6:55:00 AM,41,10.4,28.04,270,19,0,30.6,10,25,CLR,M,M,M,M,M,M,31.34
0CO,10/5/23,7:55:00 AM,41,8.6,25.87,270,20,0,30.59,10,36,CLR,M,M,M,M,M,M,31.09
0CO,10/5/23,8:55:00 AM,41,10.4,28.04,280,25,0,30.56,10,43,CLR,M,M,M,M,M,M,30
0CO,10/5/23,9:55:00 AM,41,10.4,28.04,280,36,0,30.53,10,46,CLR,M,M,M,M,M,M,28.12
0CO,10/5/23,10:55:00 AM,41,10.4,28.04,290,32,0,30.53,10,45,CLR,M,M,M,M,M,M,28.74
0CO,10/5/23,11:55:00 AM,39.2,12.2,32.58,300,27,0,30.52,10,38,CLR,M,M,M,M,M,M,27.16
0CO,10/5/23,12:55:00 PM,37.4,12.2,34.96,300,30,0,30.54,10,41,CLR,M,M,M,M,M,M,24.12
0CO,10/5/23,1:55:00 PM,37.4,12.2,34.96,320,28,0,30.51,10,41,CLR,M,M,M,M,M,M,24.5
0CO,10/5/23,2:55:00 PM,37.4,14,37.84,300,25,0,30.53,10,43,CLR,M,M,M,M,M,M,25.12
0CO,10/5/23,3:55:00 PM,41,15.8,35.57,320,23,0,30.57,10,35,CLR,M,M,M,M,M,M,30.41
0CO,10/5/23,4:55:00 PM,41,17.6,38.45,300,22,0,30.59,10,38,CLR,M,M,M,M,M,M,30.63
0CO,10/5/23,5:55:00 PM,42.8,17.6,35.87,300,18,0,30.6,10,36,CLR,M,M,M,M,M,M,33.97
0CO,10/5/23,6:55:00 PM,44.6,17.6,33.49,310,19,0,30.62,10,41,CLR,M,M,M,M,M,M,36.1
0CO,10/5/23,7:55:00 PM,44.6,14,28.64,310,25,0,30.59,10,39,CLR,M,M,M,M,M,M,34.87
0CO,10/5/23,8:55:00 PM,46.4,15.8,28.93,300,25,0,30.6,10,39,CLR,M,M,M,M,M,M,37.31
0CO,10/5/23,9:55:00 PM,46.4,15.8,28.93,330,18,0,30.63,10,27,CLR,M,M,M,M,M,M,38.7
0CO,10/5/23,10:55:00 PM,44.6,15.8,30.98,310,17,0,30.65,10,31,CLR,M,M,M,M,M,M,36.58
0CO,10/5/23,11:55:00 PM,42.8,15.8,33.18,320,16,0,30.67,10,23,CLR,M,M,M,M,M,M,34.5
0CO,10/6/23,12:55:00 AM,37.4,15.8,40.93,320,15,0,30.69,10,23,CLR,M,M,M,M,M,M,27.78
0CO,10/6/23,1:55:00 AM,37.4,15.8,40.93,330,20,0,30.69,10,27,CLR,M,M,M,M,M,M,26.31
0CO,10/6/23,2:55:00 AM,37.4,15.8,40.93,340,21,0,30.7,10,30,CLR,M,M,M,M,M,M,26.06
0CO,10/6/23,3:55:00 AM,35.6,17.6,47.51,330,16,0,30.71,10,21,CLR,M,M,M,M,M,M,25.11
0CO,10/6/23,4:55:00 AM,35.6,17.6,47.51,330,14,0,30.72,10,18,CLR,M,M,M,M,M,M,25.8
0CO,10/6/23,5:55:00 AM,35.6,17.6,47.51,320,11,0,30.71,10,M,CLR,M,M,M,M,M,M,27.02
0CO,10/6/23,6:55:00 AM,35.6,17.6,47.51,320,11,0,30.72,10,20,CLR,M,M,M,M,M,M,27.02
0CO,10/6/23,7:55:00 AM,35.6,17.6,47.51,330,11,0,30.71,10,M,CLR,M,M,M,M,M,M,27.02
0CO,10/6/23,8:55:00 AM,35.6,17.6,47.51,320,14,0,30.71,10,M,CLR,M,M,M,M,M,M,25.8
0CO,10/6/23,9:55:00 AM,35.6,17.6,47.51,320,11,0,30.71,10,M,CLR,M,M,M,M,M,M,27.02
0CO,10/6/23,10:55:00 AM,35.6,17.6,47.51,260,8,0,30.71,10,20,CLR,M,M,M,M,M,M,28.55
0CO,10/6/23,11:55:00 AM,35.6,17.6,47.51,290,8,0,30.72,10,16,CLR,M,M,M,M,M,M,28.55
0CO,10/6/23,12:55:00 PM,35.6,15.8,43.95,270,11,0,30.74,10,M,CLR,M,M,M,M,M,M,27.02
0CO,10/6/23,1:55:00 PM,35.6,15.8,43.95,240,7,0,30.75,10,15,CLR,M,M,M,M,M,M,29.17
0CO,10/6/23,2:35:00 PM,37.4,17.6,44.25,270,11,0,30.75,10,16,CLR,M,M,M,M,M,M,29.29
0CO,10/6/23,3:55:00 PM,41,17.6,38.45,200,7,0,30.77,10,21,CLR,M,M,M,M,M,M,35.75
0CO,10/6/23,4:55:00 PM,44.6,15.8,30.98,250,10,0,30.77,10,18,CLR,M,M,M,M,M,M,38.77
0CO,10/6/23,5:55:00 PM,44.6,19.4,36.18,310,8,0,30.77,10,18,CLR,M,M,M,M,M,M,39.63
0CO,10/6/23,6:55:00 PM,46.4,19.4,33.79,360,6,0,30.75,10,M,CLR,M,M,M,M,M,M,42.87
0CO,10/6/23,7:55:00 PM,46.4,21.2,36.48,340,7,0,30.73,10,M,CLR,M,M,M,M,M,M,42.33
0CO,10/6/23,8:55:00 PM,48.2,19.4,31.57,360,8,0,30.72,10,15,CLR,M,M,M,M,M,M,44.07
0CO,10/6/23,9:55:00 PM,48.2,19.4,31.57,350,9,0,30.71,10,14,CLR,M,M,M,M,M,M,43.66
0CO,10/6/23,10:55:00 PM,46.4,19.4,33.79,330,7,0,30.71,10,19,CLR,M,M,M,M,M,M,42.33
0CO,10/6/23,11:55:00 PM,46.4,17.6,31.28,300,13,0,30.7,10,M,CLR,M,M,M,M,M,M,40.02
0CO,10/7/23,12:55:00 AM,42.8,14,30.68,300,14,0,30.7,10,M,CLR,M,M,M,M,M,M,35.08
0CO,10/7/23,1:55:00 AM,41,19.4,41.54,300,10,0,30.71,10,M,CLR,M,M,M,M,M,M,34.25
0CO,10/7/23,2:55:00 AM,37.4,19.4,47.8,300,9,0,30.71,10,M,CLR,M,M,M,M,M,M,30.23
0CO,10/7/23,3:55:00 AM,37.4,19.4,47.8,320,10,0,30.71,10,M,CLR,M,M,M,M,M,M,29.74
0CO,10/7/23,4:55:00 AM,35.6,19.4,51.33,330,12,0,30.7,10,18,CLR,M,M,M,M,M,M,26.58
0CO,10/7/23,5:55:00 AM,35.6,19.4,51.33,330,9,0,30.69,10,17,CLR,M,M,M,M,M,M,27.99
0CO,10/7/23,6:55:00 AM,35.6,19.4,51.33,280,11,0,30.69,10,M,BKN,M,M,M,8000,M,M,27.02
0CO,10/7/23,7:55:00 AM,35.6,19.4,51.33,280,12,0,30.68,10,M,CLR,M,M,M,M,M,M,26.58
0CO,10/7/23,8:55:00 AM,33.8,19.4,55.14,300,15,0,30.66,10,19,CLR,M,M,M,M,M,M,23.11
0CO,10/7/23,9:55:00 AM,33.8,17.6,51.04,300,18,0,30.64,10,M,CLR,M,M,M,M,M,M,22.12
0CO,10/7/23,10:55:00 AM,33.8,17.6,51.04,300,18,0,30.62,10,23,CLR,M,M,M,M,M,M,22.12
0CO,10/7/23,11:55:00 AM,32,17.6,54.87,300,18,0,30.62,10,23,CLR,M,M,M,M,M,M,19.75
0CO,10/7/23,12:55:00 PM,32,17.6,54.87,310,15,0,30.62,10,19,CLR,M,M,M,M,M,M,20.78
0CO,10/7/23,1:55:00 PM,32,17.6,54.87,320,13,0,30.63,10,20,CLR,M,M,M,M,M,M,21.57
0CO,10/7/23,2:55:00 PM,33.8,17.6,51.04,320,23,0,30.63,10,30,CLR,M,M,M,M,M,M,20.73
0CO,10/7/23,3:55:00 PM,35.6,17.6,47.51,320,19,0,30.64,10,35,CLR,M,M,M,M,M,M,24.2
0CO,10/7/23,4:55:00 PM,37.4,19.4,47.8,320,16,0,30.65,10,26,CLR,M,M,M,M,M,M,27.46
0CO,10/7/23,5:55:00 PM,42.8,17.6,35.87,330,11,0,30.65,10,19,CLR,M,M,M,M,M,M,36.11
0CO,10/7/23,6:55:00 PM,41,6.8,23.85,330,9,0,30.65,10,24,CLR,M,M,M,M,M,M,34.7
0CO,10/7/23,7:55:00 PM,42.8,8.6,24.14,350,12,0,30.63,10,21,CLR,M,M,M,M,M,M,35.75
0CO,10/7/23,8:55:00 PM,42.8,8.6,24.14,310,19,0,30.62,10,26,CLR,M,M,M,M,M,M,33.72
0CO,10/7/23,9:55:00 PM,42.8,8.6,24.14,350,10,0,30.62,10,21,CLR,M,M,M,M,M,M,36.51
0CO,10/7/23,10:55:00 PM,42.8,10.4,26.16,310,15,0,30.62,10,26,CLR,M,M,M,M,M,M,34.78
0CO,10/7/23,11:55:00 PM,41,6.8,23.85,310,12,0,30.62,10,18,CLR,M,M,M,M,M,M,33.46
0CO,10/8/23,12:55:00 AM,35.6,8.6,31.97,320,13,0,30.63,10,18,CLR,M,M,M,M,M,M,26.18
0CO,10/8/23,1:55:00 AM,35.6,8.6,31.97,320,9,0,30.63,10,M,CLR,M,M,M,M,M,M,27.99
0CO,10/8/23,2:55:00 AM,33.8,10.4,37.22,320,10,0,30.63,10,M,CLR,M,M,M,M,M,M,25.23
0CO,10/8/23,3:55:00 AM,33.8,12.2,40.32,320,10,0,30.63,10,M,CLR,M,M,M,M,M,M,25.23
0CO,10/8/23,4:55:00 AM,33.8,12.2,40.32,310,14,0,30.63,10,18,CLR,M,M,M,M,M,M,23.48
0CO,10/8/23,5:55:00 AM,33.8,14,43.65,310,9,0,30.61,10,M,CLR,M,M,M,M,M,M,25.75
0CO,10/8/23,6:55:00 AM,33.8,10.4,37.22,330,9,0,30.6,10,14,CLR,M,M,M,M,M,M,25.75
0CO,10/8/23,7:55:00 AM,32,12.2,43.34,280,9,0,30.6,10,17,CLR,M,M,M,M,M,M,23.51
0CO,10/8/23,8:55:00 AM,33.8,14,43.65,320,9,0,30.58,10,14,CLR,M,M,M,M,M,M,25.75
0CO,10/8/23,9:55:00 AM,32,12.2,43.34,280,9,0,30.58,10,M,CLR,M,M,M,M,M,M,23.51
0CO,10/8/23,10:55:00 AM,32,12.2,43.34,280,13,0,30.58,10,M,CLR,M,M,M,M,M,M,21.57
0CO,10/8/23,11:55:00 AM,33.8,14,43.65,290,15,0,30.58,10,22,CLR,M,M,M,M,M,M,23.11
0CO,10/8/23,12:55:00 PM,33.8,15.8,47.22,290,18,0,30.56,10,23,CLR,M,M,M,M,M,M,22.12
0CO,10/8/23,1:55:00 PM,33.8,15.8,47.22,290,15,0,30.57,10,20,CLR,M,M,M,M,M,M,23.11
0CO,10/8/23,2:55:00 PM,35.6,19.4,51.33,290,9,0,30.58,10,M,CLR,M,M,M,M,M,M,27.99
0CO,10/8/23,3:55:00 PM,37.4,19.4,47.8,310,12,0,30.58,10,21,CLR,M,M,M,M,M,M,28.87
0CO,10/8/23,4:55:00 PM,41,21.2,44.85,290,18,0,30.58,10,24,CLR,M,M,M,M,M,M,31.6
0CO,10/8/23,5:55:00 PM,42.8,21.2,41.84,310,24,0,30.58,10,31,SCT,M,M,M,4800,M,M,32.63
0CO,10/8/23,6:55:00 PM,42.8,19.4,38.75,290,21,0,30.57,10,31,SCT,BKN,M,M,5000,6500,M,33.26
0CO,10/8/23,7:55:00 PM,44.6,19.4,36.18,290,22,0,30.55,10,29,SCT,BKN,M,M,5500,8000,M,35.45
0CO,10/8/23,8:55:00 PM,42.8,19.4,38.75,290,17,0,30.56,10,26,SCT,SCT,M,M,5500,8000,M,34.22
0CO,10/8/23,9:55:00 PM,42.8,21.2,41.84,280,21,0,30.56,10,29,SCT,SCT,SCT,M,4800,5000,10000,33.26
0CO,10/8/23,10:55:00 PM,41,21.2,44.85,290,16,0,30.56,10,23,SCT,M,M,M,12000,M,M,32.15
0CO,10/8/23,11:55:00 PM,39.2,21.2,48.1,300,18,0,30.57,10,21,CLR,M,M,M,M,M,M,29.23
0CO,10/9/23,12:55:00 AM,35.6,21.2,55.41,290,17,0,30.58,10,23,CLR,M,M,M,M,M,M,24.79
0CO,10/9/23,1:55:00 AM,35.6,21.2,55.41,280,18,0,30.58,10,23,CLR,M,M,M,M,M,M,24.49
0CO,10/9/23,2:55:00 AM,35.6,21.2,55.41,290,15,0,30.58,10,24,CLR,M,M,M,M,M,M,25.45
0CO,10/9/23,3:55:00 AM,33.8,21.2,59.53,320,10,0,30.6,10,19,CLR,M,M,M,M,M,M,25.23
0CO,10/9/23,4:55:00 AM,35.6,19.4,51.33,300,15,0,30.59,10,19,CLR,M,M,M,M,M,M,25.45
0CO,10/9/23,5:55:00 AM,35.6,21.2,55.41,290,13,0,30.59,10,21,CLR,M,M,M,M,M,M,26.18
0CO,10/9/23,6:55:00 AM,33.8,21.2,59.53,290,16,0,30.58,10,23,CLR,M,M,M,M,M,M,22.76
0CO,10/9/23,7:55:00 AM,33.8,19.4,55.14,300,14,0,30.59,10,21,CLR,M,M,M,M,M,M,23.48
0CO,10/9/23,8:55:00 AM,33.8,19.4,55.14,300,14,0,30.58,10,20,CLR,M,M,M,M,M,M,23.48
0CO,10/9/23,9:55:00 AM,33.8,19.4,55.14,300,14,0,30.58,10,20,CLR,M,M,M,M,M,M,23.48
0CO,10/9/23,10:55:00 AM,33.8,19.4,55.14,320,9,0,30.58,10,15,CLR,M,M,M,M,M,M,25.75
0CO,10/9/23,11:55:00 AM,32,17.6,54.87,310,9,0,30.6,10,18,CLR,M,M,M,M,M,M,23.51
0CO,10/9/23,12:55:00 PM,33.8,17.6,51.04,290,13,0,30.6,10,M,CLR,M,M,M,M,M,M,23.87
0CO,10/9/23,1:55:00 PM,33.8,17.6,51.04,300,12,0,30.62,10,M,CLR,M,M,M,M,M,M,24.29
0CO,10/9/23,2:55:00 PM,33.8,19.4,55.14,290,13,0,30.63,10,M,CLR,M,M,M,M,M,M,23.87
0CO,10/9/23,3:55:00 PM,39.2,21.2,48.1,280,10,0,30.65,10,20,CLR,M,M,M,M,M,M,32
0CO,10/9/23,4:55:00 PM,39.2,21.2,48.1,310,12,0,30.66,10,15,SCT,SCT,M,M,4200,4900,M,31.17
0CO,10/9/23,5:55:00 PM,39.2,23,51.89,330,7,0,30.66,10,M,BKN,M,M,M,6500,M,M,33.56
0CO,10/9/23,6:55:00 PM,42.8,23,45.14,290,9,0,30.65,10,14,SCT,SCT,M,M,6500,7500,M,36.94
0CO,10/9/23,7:55:00 PM,42.8,19.4,38.75,290,19,0,30.62,10,28,SCT,BKN,M,M,6000,8500,M,33.72
0CO,10/9/23,8:55:00 PM,42.8,19.4,38.75,310,11,0,30.62,10,22,SCT,BKN,OVC,M,4400,6000,7000,36.11
0CO,10/9/23,9:55:00 PM,37.4,23,55.68,270,19,0,30.62,10,40,SCT,BKN,OVC,M,3300,5000,8000,26.58
0CO,10/9/23,10:55:00 PM,42.8,23,45.14,300,10,0,30.63,10,23,SCT,BKN,M,M,4600,6500,M,36.51
0CO,10/9/23,11:55:00 PM,37.4,17.6,44.25,300,10,0,30.63,10,28,SCT,BKN,OVC,M,1500,4000,6500,29.74
0CO,10/10/23,4  12:55:00 AM,37.4,21.2,51.61,300,20,0,30.63,10,25,SCT,BKN,OVC,M,6000,7500,9000,26.31
0CO,10/10/23,4  1:55:00 AM,35.6,21.2,55.41,290,16,0,30.64,10,21,CLR,M,M,M,M,M,M,25.11
0CO,10/10/23,4  2:55:00 AM,35.6,21.2,55.41,280,16,0,30.65,10,23,CLR,M,M,M,M,M,M,25.11
0CO,10/10/23,4  3:55:00 AM,35.6,21.2,55.41,280,14,0,30.65,10,23,CLR,M,M,M,M,M,M,25.8
0CO,10/10/23,4  4:55:00 AM,35.6,21.2,55.41,290,14,0,30.64,10,19,CLR,M,M,M,M,M,M,25.8
0CO,10/10/23,4  5:55:00 AM,33.8,19.4,55.14,290,13,0,30.64,10,18,CLR,M,M,M,M,M,M,23.87
0CO,10/10/23,4  6:55:00 AM,33.8,21.2,59.53,290,13,0,30.64,10,M,CLR,M,M,M,M,M,M,23.87
0CO,10/10/23,4  7:55:00 AM,33.8,21.2,59.53,290,17,0,30.64,10,25,CLR,M,M,M,M,M,M,22.43
0CO,10/10/23,4  8:55:00 AM,33.8,21.2,59.53,290,17,0,30.63,10,26,CLR,M,M,M,M,M,M,22.43
0CO,10/10/23,4  9:55:00 AM,33.8,21.2,59.53,300,19,0,30.62,10,M,CLR,M,M,M,M,M,M,21.82
0CO,10/10/23,4  10:55:00 AM,33.8,21.2,59.53,310,13,0,30.63,10,23,CLR,M,M,M,M,M,M,23.87
0CO,10/10/23,4  11:55:00 AM,33.8,21.2,59.53,310,13,0,30.64,10,21,CLR,M,M,M,M,M,M,23.87
0CO,10/10/23,4  12:55:00 PM,33.8,21.2,59.53,330,14,0,30.65,10,26,CLR,M,M,M,M,M,M,23.48
0CO,10/10/23,4  1:55:00 PM,33.8,21.2,59.53,300,17,0,30.66,10,23,CLR,M,M,M,M,M,M,22.43
0CO,10/10/23,4  2:55:00 PM,35.6,21.2,55.41,320,16,0,30.68,10,24,CLR,M,M,M,M,M,M,25.11
0CO,10/10/23,4  3:55:00 PM,39.2,19.4,44.55,300,18,0,30.69,10,24,CLR,M,M,M,M,M,M,29.23
0CO,10/10/23,4  4:55:00 PM,42.8,19.4,38.75,310,24,0,30.67,10,30,CLR,M,M,M,M,M,M,32.63
0CO,10/10/23,4  5:55:00 PM,44.6,21.2,39.06,320,21,0,30.69,10,30,SCT,M,M,M,5000,M,M,35.66
0CO,10/10/23,4  6:55:00 PM,44.6,19.4,36.18,330,18,0,30.67,10,37,SCT,M,M,M,5000,M,M,36.34
0CO,10/10/23,4  7:55:00 PM,44.6,17.6,33.49,50,8,0,30.67,10,M,SCT,M,M,M,6000,M,M,39.63
0CO,10/10/23,4  8:55:00 PM,44.6,21.2,39.06,310,14,0,30.67,10,25,SCT,M,M,M,6000,M,M,37.4
0CO,10/10/23,4  9:55:00 PM,44.6,21.2,39.06,300,16,0,30.68,10,28,SCT,M,M,M,6000,M,M,36.84
0CO,10/10/23,4  10:55:00 PM,41,19.4,41.54,300,10,0,30.68,10,M,CLR,M,M,M,M,M,M,34.25
0CO,10/10/23,4  11:55:00 PM,41,19.4,41.54,290,10,0,30.69,10,M,SCT,M,M,M,6500,M,M,34.25
0CO,10/11/23,4  12:55:00 AM,41,19.4,41.54,290,10,0,30.71,10,M,SCT,M,M,M,6500,M,M,34.25
0CO,10/11/23,4  1:55:00 AM,41,19.4,41.54,250,9,0,30.71,10,M,CLR,M,M,M,M,M,M,34.7
0CO,10/11/23,4  2:55:00 AM,41,19.4,41.54,260,8,0,30.72,10,M,OVC,M,M,M,7000,M,M,35.2
0CO,10/11/23,4  3:55:00 AM,39.2,17.6,41.24,260,8,0,30.72,10,M,BKN,M,M,M,7000,M,M,32.98
0CO,10/11/23,4  4:55:00 AM,37.4,17.6,44.25,280,12,0,30.71,10,M,CLR,M,M,M,M,M,M,28.87
0CO,10/11/23,4  5:55:00 AM,37.4,17.6,44.25,280,12,0,30.71,10,M,CLR,M,M,M,M,M,M,28.87
0CO,10/11/23,4  6:55:00 AM,37.4,15.8,40.93,270,8,0,30.7,10,M,CLR,M,M,M,M,M,M,30.76
0CO,10/11/23,4  7:55:00 AM,37.4,14,37.84,270,9,0,30.7,10,M,CLR,M,M,M,M,M,M,30.23
0CO,10/11/23,4  8:55:00 AM,37.4,15.8,40.93,280,12,0,30.7,10,16,CLR,M,M,M,M,M,M,28.87
0CO,10/11/23,4  9:55:00 AM,37.4,14,37.84,270,10,0,30.69,10,15,CLR,M,M,M,M,M,M,29.74
0CO,10/11/23,4  10:55:00 AM,37.4,14,37.84,260,6,0,30.7,10,15,CLR,M,M,M,M,M,M,32.03
0CO,10/11/23,4  11:55:00 AM,37.4,14,37.84,260,6,0,30.71,10,19,CLR,M,M,M,M,M,M,32.03
0CO,10/11/23,4  12:55:00 PM,35.6,14,40.63,260,6,0,30.71,10,14,CLR,M,M,M,M,M,M,29.87
0CO,10/11/23,4  1:55:00 PM,37.4,15.8,40.93,260,7,0,30.72,10,20,CLR,M,M,M,M,M,M,31.36
0CO,10/11/23,4  2:55:00 PM,37.4,17.6,44.25,270,6,0,30.74,10,M,CLR,M,M,M,M,M,M,32.03
0CO,10/11/23,4  3:55:00 PM,41,17.6,38.45,270,7,0,30.74,10,M,CLR,M,M,M,M,M,M,35.75
0CO,10/11/23,4  4:55:00 PM,41,15.8,35.57,260,7,0,30.74,10,20,CLR,M,M,M,M,M,M,35.75
0CO,10/11/23,4  5:55:00 PM,42.8,17.6,35.87,280,20,0,30.72,10,29,SCT,M,M,M,6000,M,M,33.48
0CO,10/11/23,4  6:55:00 PM,42.8,17.6,35.87,280,21,0,30.71,10,32,SCT,M,M,M,6000,M,M,33.26
0CO,10/11/23,4  7:55:00 PM,44.6,15.8,30.98,270,13,0,30.7,10,36,SCT,M,M,M,7000,M,M,37.71
0CO,10/11/23,4  8:55:00 PM,46.4,15.8,28.93,280,20,0,30.68,10,31,BKN,BKN,M,M,6500,8500,M,38.26
0CO,10/11/23,4  9:55:00 PM,46.4,14,26.75,280,24,0,30.68,10,29,SCT,M,M,M,6500,M,M,37.49
0CO,10/11/23,4  10:55:00 PM,44.6,14,28.64,280,20,0,30.68,10,34,SCT,M,M,M,6500,M,M,35.87
0CO,10/11/23,4  11:55:00 PM,42.8,14,30.68,280,25,0,30.67,10,30,SCT,M,M,M,5500,M,M,32.43
0CO,10/12/23,4  12:55:00 AM,41,15.8,35.57,250,9,0,30.7,10,25,CLR,M,M,M,M,M,M,34.7
0CO,10/12/23,4  1:55:00 AM,39.2,17.6,41.24,270,12,0,30.7,10,23,CLR,M,M,M,M,M,M,31.17
0CO,10/12/23,4  2:55:00 AM,39.2,17.6,41.24,270,16,0,30.7,10,24,CLR,M,M,M,M,M,M,29.8
0CO,10/12/23,4  3:55:00 AM,37.4,17.6,44.25,280,11,0,30.7,10,20,CLR,M,M,M,M,M,M,29.29
0CO,10/12/23,4  4:55:00 AM,37.4,17.6,44.25,270,21,0,30.69,10,25,SCT,M,M,M,6500,M,M,26.06
0CO,10/12/23,4  5:55:00 AM,37.4,17.6,44.25,270,14,0,30.68,10,24,SCT,M,M,M,6000,M,M,28.12
0CO,10/12/23,4  6:55:00 AM,37.4,15.8,40.93,270,21,0,30.67,10,28,SCT,SCT,M,M,6000,7000,M,26.06
0CO,10/12/23,4  7:55:00 AM,37.4,15.8,40.93,280,19,0,30.65,10,24,CLR,M,M,M,M,M,M,26.58
0CO,10/12/23,4  8:55:00 AM,35.6,17.6,47.51,290,21,0,30.65,10,28,CLR,M,M,M,M,M,M,23.65
0CO,10/12/23,4  9:55:00 AM,35.6,17.6,47.51,290,16,0,30.65,10,26,CLR,M,M,M,M,M,M,25.11
0CO,10/12/23,4  10:55:00 AM,33.8,17.6,51.04,320,10,0,30.64,10,17,CLR,M,M,M,M,M,M,25.23
0CO,10/12/23,4  11:55:00 AM,33.8,17.6,51.04,320,13,0,30.65,10,21,CLR,M,M,M,M,M,M,23.87
0CO,10/12/23,4  12:55:00 PM,33.8,17.6,51.04,300,15,0,30.65,10,21,CLR,M,M,M,M,M,M,23.11
0CO,10/12/23,4  1:55:00 PM,35.6,17.6,47.51,290,16,0,30.66,10,25,CLR,M,M,M,M,M,M,25.11
0CO,10/12/23,4  2:55:00 PM,37.4,17.6,44.25,300,12,0,30.68,10,22,CLR,M,M,M,M,M,M,28.87
0CO,10/12/23,4  3:55:00 PM,39.2,19.4,44.55,310,10,0,30.7,10,16,OVC,M,M,M,6000,M,M,32
0CO,10/12/23,4  4:55:00 PM,41,19.4,41.54,320,12,0,30.7,10,20,SCT,M,M,M,5500,M,M,33.46
0CO,10/12/23,4  5:55:00 PM,41,17.6,38.45,300,18,0,30.7,10,29,SCT,BKN,M,M,6000,7000,M,31.6
0CO,10/12/23,4  6:55:00 PM,41,17.6,38.45,290,23,0,30.68,10,34,SCT,SCT,BKN,M,6000,7000,8000,30.41
0CO,10/12/23,4  7:55:00 PM,42.8,19.4,38.75,310,10,0,30.67,10,17,SCT,SCT,BKN,M,4200,6000,7000,36.51
0CO,10/12/23,4  8:55:00 PM,46.4,19.4,33.79,290,17,0,30.66,10,26,BKN,BKN,BKN,M,6000,7000,8000,38.94
0CO,10/12/23,4  9:55:00 PM,42.8,19.4,38.75,270,20,0,30.66,10,28,SCT,SCT,M,M,6500,7500,M,33.48
0CO,10/12/23,4  10:55:00 PM,42.8,19.4,38.75,290,15,0,30.66,10,22,SCT,SCT,BKN,M,2700,3400,5500,34.78
0CO,10/12/23,4  11:55:00 PM,42.8,19.4,38.75,290,11,0,30.66,10,14,CLR,M,M,M,M,M,M,36.11
0CO,10/13/23,4  12:55:00 AM,39.2,19.4,44.55,280,8,0,30.68,10,M,CLR,M,M,M,M,M,M,32.98
0CO,10/13/23,4  1:55:00 AM,37.4,19.4,47.8,300,9,0,30.68,10,M,CLR,M,M,M,M,M,M,30.23
0CO,10/13/23,4  2:55:00 AM,37.4,19.4,47.8,360,3,0,30.69,10,M,BKN,M,M,M,7000,M,M,34.86
0CO,10/13/23,4  3:55:00 AM,37.4,21.2,51.61,0,0,0,30.69,10,M,BKN,M,M,M,6000,M,M,37.4
0CO,10/13/23,4  4:55:00 AM,37.4,19.4,47.8,230,3,0,30.68,10,M,CLR,M,M,M,M,M,M,34.86
0CO,10/13/23,4  5:55:00 AM,37.4,19.4,47.8,250,5,0,30.68,10,M,CLR,M,M,M,M,M,M,32.81
0CO,10/13/23,4  6:55:00 AM,35.6,19.4,51.33,220,6,0,30.67,10,M,CLR,M,M,M,M,M,M,29.87
0CO,10/13/23,4  7:55:00 AM,35.6,19.4,51.33,270,9,0,30.66,10,16,CLR,M,M,M,M,M,M,27.99
0CO,10/13/23,4  8:55:00 AM,35.6,19.4,51.33,270,12,0,30.65,10,15,CLR,M,M,M,M,M,M,26.58
0CO,10/13/23,4  9:55:00 AM,35.6,19.4,51.33,250,7,0,30.64,10,18,CLR,M,M,M,M,M,M,29.17
0CO,10/13/23,4  10:55:00 AM,35.6,19.4,51.33,250,4,0,30.64,10,M,CLR,M,M,M,M,M,M,31.62
0CO,10/13/23,4  11:55:00 AM,33.8,19.4,55.14,280,10,0,30.64,10,M,CLR,M,M,M,M,M,M,25.23
0CO,10/13/23,4  12:55:00 PM,33.8,19.4,55.14,280,14,0,30.64,10,22,CLR,M,M,M,M,M,M,23.48
0CO,10/13/23,4  1:55:00 PM,33.8,17.6,51.04,270,9,0,30.66,10,22,CLR,M,M,M,M,M,M,25.75
0CO,10/13/23,4  2:55:00 PM,33.8,15.8,47.22,260,6,0,30.68,10,15,CLR,M,M,M,M,M,M,27.7
0CO,10/13/23,4  3:55:00 PM,37.4,17.6,44.25,270,9,0,30.69,10,18,CLR,M,M,M,M,M,M,30.23
0CO,10/13/23,4  4:55:00 PM,41,17.6,38.45,280,8,0,30.7,10,21,CLR,M,M,M,M,M,M,35.2
0CO,10/13/23,4  5:55:00 PM,41,19.4,41.54,300,6,0,30.7,10,M,SCT,M,M,M,5500,M,M,36.37
0CO,10/13/23,4  6:55:00 PM,42.8,19.4,38.75,40,6,0,30.69,10,M,BKN,M,M,M,5500,M,M,38.54
0CO,10/13/23,4  7:55:00 PM,44.6,14,28.64,290,15,0,30.67,10,22,SCT,M,M,M,6500,M,M,37.11
0CO,10/13/23,4  8:55:00 PM,44.6,14,28.64,300,12,0,30.67,10,22,SCT,M,M,M,6500,M,M,38.04
0CO,10/13/23,4  9:55:00 PM,44.6,15.8,30.98,280,14,0,30.67,10,17,SCT,SCT,M,M,6500,12000,M,37.4
0CO,10/13/23,4  10:55:00 PM,42.8,14,30.68,290,15,0,30.67,10,24,SCT,SCT,M,M,7000,8000,M,34.78
0CO,10/13/23,4  11:55:00 PM,41,14,32.88,280,12,0,30.68,10,16,CLR,M,M,M,M,M,M,33.46
0CO,10/14/23,4  12:55:00 AM,37.4,14,37.84,270,8,0,30.69,10,14,CLR,M,M,M,M,M,M,30.76
0CO,10/14/23,4  1:55:00 AM,37.4,17.6,44.25,270,12,0,30.7,10,20,SCT,SCT,M,M,7500,9000,M,28.87
0CO,10/14/23,4  2:55:00 AM,37.4,19.4,47.8,190,9,0,30.7,10,M,SCT,BKN,M,M,5000,6500,M,30.23
0CO,10/14/23,4  3:55:00 AM,37.4,19.4,47.8,260,6,0,30.71,10,20,CLR,M,M,M,M,M,M,32.03
0CO,10/14/23,4  4:55:00 AM,37.4,19.4,47.8,270,14,0,30.7,10,23,CLR,M,M,M,M,M,M,28.12
0CO,10/14/23,4  5:55:00 AM,37.4,21.2,51.61,280,14,0,30.69,10,24,CLR,M,M,M,M,M,M,28.12
0CO,10/14/23,4  6:55:00 AM,35.6,21.2,55.41,280,10,0,30.68,10,M,CLR,M,M,M,M,M,M,27.48
0CO,10/14/23,4  7:55:00 AM,35.6,21.2,55.41,290,17,0,30.66,10,22,CLR,M,M,M,M,M,M,24.79
0CO,10/14/23,4  8:55:00 AM,35.6,21.2,55.41,280,17,0,30.66,10,22,CLR,M,M,M,M,M,M,24.79
0CO,10/14/23,4  9:55:00 AM,35.6,21.2,55.41,290,23,0,30.64,10,M,CLR,M,M,M,M,M,M,23.15
0CO,10/14/23,4  10:55:00 AM,35.6,21.2,55.41,290,19,0,30.65,10,26,CLR,M,M,M,M,M,M,24.2
0CO,10/14/23,4  11:55:00 AM,35.6,21.2,55.41,290,21,0,30.65,10,25,CLR,M,M,M,M,M,M,23.65
0CO,10/14/23,4  12:55:00 PM,35.6,21.2,55.41,290,18,0,30.65,10,26,CLR,M,M,M,M,M,M,24.49
0CO,10/14/23,4  1:55:00 PM,35.6,23,59.79,290,21,0,30.66,10,24,CLR,M,M,M,M,M,M,23.65
0CO,10/14/23,4  2:55:00 PM,35.6,23,59.79,300,16,0,30.67,10,27,SCT,M,M,M,4300,M,M,25.11
0CO,10/14/23,4  3:55:00 PM,37.4,23,55.68,290,21,0,30.68,10,28,SCT,BKN,M,M,4000,4900,M,26.06
0CO,10/14/23,4  4:55:00 PM,41,24.8,52.17,310,14,0,30.68,10,27,SCT,M,M,M,3600,M,M,32.76
0CO,10/14/23,4  5:55:00 PM,39.2,23,51.89,310,18,0,30.67,10,28,SCT,M,M,M,4000,M,M,29.23
0CO,10/14/23,4  6:55:00 PM,42.8,23,45.14,280,17,0,30.66,10,26,SCT,SCT,M,M,4200,4900,M,34.22
0CO,10/14/23,4  7:55:00 PM,42.8,24.8,48.67,300,13,0,30.65,10,25,SCT,SCT,M,M,4200,4900,M,35.4
0CO,10/14/23,4  8:55:00 PM,44.6,23,42.14,310,14,0,30.63,10,23,SCT,SCT,M,M,4800,5500,M,37.4
0CO,10/14/23,4  9:55:00 PM,44.6,23,42.14,290,23,0,30.63,10,32,SCT,M,M,M,7000,M,M,35.25
0CO,10/14/23,4  10:55:00 PM,44.6,24.8,45.44,280,23,0,30.63,10,30,CLR,M,M,M,M,M,M,35.25
0CO,10/14/23,4  11:55:00 PM,39.2,26.6,60.29,290,15,0,30.64,10,24,SCT,SCT,M,M,6000,7500,M,30.11
0CO,10/15/23,4  12:55:00 AM,35.6,26.6,69.46,280,14,0,30.65,10,17,SCT,M,M,M,4600,M,M,25.8
0CO,10/15/23,4  1:55:00 AM,35.6,24.8,64.46,290,20,0,30.65,10,26,CLR,M,M,M,M,M,M,23.92
0CO,10/15/23,4  2:55:00 AM,35.6,24.8,64.46,320,10,0,30.65,10,19,CLR,M,M,M,M,M,M,27.48
0CO,10/15/23,4  3:55:00 AM,33.8,24.8,69.25,310,11,0,30.66,10,19,CLR,M,M,M,M,M,M,24.74
0CO,10/15/23,4  4:55:00 AM,33.8,24.8,69.25,320,11,0,30.65,10,18,CLR,M,M,M,M,M,M,24.74
0CO,10/15/23,4  5:55:00 AM,33.8,24.8,69.25,320,10,0,30.64,10,15,CLR,M,M,M,M,M,M,25.23
0CO,10/15/23,4  6:55:00 AM,33.8,24.8,69.25,320,10,0,30.64,10,M,CLR,M,M,M,M,M,M,25.23
0CO,10/15/23,4  7:55:00 AM,33.8,24.8,69.25,310,11,0,30.64,10,18,CLR,M,M,M,M,M,M,24.74
0CO,10/15/23,4  8:55:00 AM,33.8,24.8,69.25,320,10,0,30.64,10,M,CLR,M,M,M,M,M,M,25.23
0CO,10/15/23,4  9:55:00 AM,32,24.8,74.44,290,8,0,30.64,10,15,CLR,M,M,M,M,M,M,24.11
0CO,10/15/23,4  10:55:00 AM,32,26.6,80.22,300,8,0,30.65,10,15,CLR,M,M,M,M,M,M,24.11
0CO,10/15/23,4  11:55:00 AM,32,26.6,80.22,320,12,0,30.65,10,17,CLR,M,M,M,M,M,M,22
0CO,10/15/23,4  12:55:00 PM,32,26.6,80.22,10,4,0,30.66,10,M,CLR,M,M,M,M,M,M,27.42
0CO,10/15/23,4  1:55:00 PM,33.8,26.6,74.63,10,4,0,30.66,10,M,CLR,M,M,M,M,M,M,29.52
0CO,10/15/23,4  2:55:00 PM,37.4,26.6,64.7,30,4,0,30.68,10,M,CLR,M,M,M,M,M,M,33.73
0CO,10/15/23,4  3:55:00 PM,35.6,24.8,64.46,0,0,0,30.69,10,M,CLR,M,M,M,M,M,M,35.6
0CO,10/15/23,4  4:55:00 PM,41,21.2,44.85,180,11,0,30.69,10,18,SCT,M,M,M,4200,M,M,33.84
0CO,10/15/23,4  5:55:00 PM,42.8,23,45.14,130,7,0,30.69,10,15,SCT,SCT,M,M,4800,7000,M,37.94
0CO,10/15/23,4  6:55:00 PM,44.6,21.2,39.06,100,4,0,30.68,10,M,CLR,M,M,M,M,M,M,42.13
0CO,10/15/23,4  7:55:00 PM,41,28.4,60.54,120,9,0,30.66,4,21,SCT,BKN,OVC,M,3000,3900,4500,34.7
0CO,10/15/23,4  8:55:00 PM,41,26.6,56.22,130,8,0,30.66,10,18,BKN,OVC,M,M,3700,4700,M,35.2
0CO,10/15/23,4  9:55:00 PM,37.4,26.6,64.7,130,7,0,30.66,10,20,SCT,BKN,BKN,M,3900,4900,6500,31.36
0CO,10/15/23,4  10:55:00 PM,37.4,28.4,69.67,140,8,0,30.66,10,17,SCT,SCT,SCT,M,3400,4000,6000,30.76
0CO,10/15/23,4  11:55:00 PM,37.4,28.4,69.67,140,11,0,30.65,10,19,CLR,M,M,M,M,M,M,29.29
0CO,10/16/23,4  12:55:00 AM,35.6,26.6,69.46,160,14,0,30.65,10,20,CLR,M,M,M,M,M,M,25.8
0CO,10/16/23,4  1:55:00 AM,35.6,26.6,69.46,230,7,0,30.64,10,20,CLR,M,M,M,M,M,M,29.17
0CO,10/16/23,4  2:55:00 AM,35.6,26.6,69.46,230,6,0,30.65,10,M,CLR,M,M,M,M,M,M,29.87
0CO,10/16/23,4  3:55:00 AM,33.8,26.6,74.63,260,16,0,30.64,10,M,CLR,M,M,M,M,M,M,22.76
0CO,10/16/23,4  4:55:00 AM,33.8,23,64.23,260,19,0,30.64,10,23,CLR,M,M,M,M,M,M,21.82
0CO,10/16/23,4  5:55:00 AM,33.8,23,64.23,270,15,0,30.63,10,M,CLR,M,M,M,M,M,M,23.11
0CO,10/16/23,4  6:55:00 AM,33.8,23,64.23,270,14,0,30.63,10,M,CLR,M,M,M,M,M,M,23.48
0CO,10/16/23,4  7:55:00 AM,33.8,23,64.23,270,12,0,30.63,10,M,CLR,M,M,M,M,M,M,24.29
0CO,10/16/23,4  8:55:00 AM,33.8,23,64.23,270,11,0,30.62,10,15,CLR,M,M,M,M,M,M,24.74
0CO,10/16/23,4  9:55:00 AM,33.8,23,64.23,270,13,0,30.6,10,M,CLR,M,M,M,M,M,M,23.87
0CO,10/16/23,4  10:55:00 AM,35.6,23,59.79,270,10,0,30.6,10,21,CLR,M,M,M,M,M,M,27.48
0CO,10/16/23,4  11:55:00 AM,32,23,69.04,260,5,0,30.59,10,M,SCT,M,M,M,5000,M,M,26.4
0CO,10/16/23,4  12:55:00 PM,32,23,69.04,300,14,0,30.58,10,M,CLR,M,M,M,M,M,M,21.16
0CO,10/16/23,4  1:55:00 PM,33.8,23,64.23,300,15,0,30.58,10,M,CLR,M,M,M,M,M,M,23.11
0CO,10/16/23,4  2:55:00 PM,33.8,23,64.23,280,7,0,30.59,10,M,CLR,M,M,M,M,M,M,26.97
0CO,10/16/23,4  3:55:00 PM,35.6,24.8,64.46,280,7,0,30.59,10,M,CLR,M,M,M,M,M,M,29.17
0CO,10/16/23,4  4:55:00 PM,41,26.6,56.22,20,4,0,30.58,10,M,SCT,M,M,M,3300,M,M,37.93
0CO,10/16/23,4  5:55:00 PM,41,26.6,56.22,290,7,0,30.56,10,M,SCT,SCT,SCT,M,4000,4800,5500,35.75
0CO,10/16/23,4  6:55:00 PM,39.2,24.8,55.95,270,11,0,30.53,10,20,BKN,BKN,BKN,M,4900,6000,7000,31.57
0CO,10/16/23,4  7:55:00 PM,39.2,19.4,44.55,260,12,0,30.48,10,23,SCT,SCT,SCT,M,800,2600,3500,31.17
0CO,10/16/23,4  8:55:00 PM,39.2,23,51.89,300,15,0,30.45,10,22,SCT,BKN,OVC,M,3400,4800,6000,30.11
0CO,10/16/23,4  9:55:00 PM,41,19.4,41.54,170,22,0,30.43,10,31,SCT,SCT,BKN,M,3700,5500,8000,30.63
0CO,10/16/23,4  10:55:00 PM,35.6,23,59.79,260,12,0,30.43,10,17,SCT,BKN,OVC,M,1500,3000,3500,26.58
0CO,10/16/23,4  11:55:00 PM,33.8,23,64.23,270,11,0,30.39,10,16,SCT,M,M,M,8500,M,M,24.74
0CO,10/17/23,4  12:55:00 AM,32,26.6,80.22,190,7,0,30.39,5,14,SCT,BKN,OVC,M,1500,4000,7500,24.78
0CO,10/17/23,4  1:55:00 AM,30.2,26.6,86.28,240,13,0,30.37,10,22,CLR,M,M,M,M,M,M,19.26
0CO,10/17/23,4  2:55:00 AM,30.2,23,74.26,260,15,0,30.35,10,23,CLR,M,M,M,M,M,M,18.45
0CO,10/17/23,4  3:55:00 AM,30.2,21.2,68.83,290,18,0,30.32,10,28,CLR,M,M,M,M,M,M,17.38
0CO,10/17/23,4  4:55:00 AM,32,21.2,63.99,280,22,0,30.3,10,31,CLR,M,M,M,M,M,M,18.58
0CO,10/17/23,4  5:55:00 AM,32,21.2,63.99,270,27,0,30.28,10,37,CLR,M,M,M,M,M,M,17.34
0CO,10/17/23,4  6:55:00 AM,30.2,21.2,68.83,280,22,0,30.25,10,35,CLR,M,M,M,M,M,M,16.17
0CO,10/17/23,4  7:55:00 AM,32,21.2,63.99,270,33,0,30.21,10,48,CLR,M,M,M,M,M,M,16.1
0CO,10/17/23,4  8:55:00 AM,32,21.2,63.99,290,25,0,30.21,10,48,CLR,M,M,M,M,M,M,17.81
0CO,10/17/23,4  9:55:00 AM,32,21.2,63.99,280,30,0,30.19,10,44,SCT,M,M,M,2800,M,M,16.69
0CO,10/17/23,4  10:55:00 AM,30.2,21.2,68.83,280,22,0,30.2,10,33,CLR,M,M,M,M,M,M,16.17
0CO,10/17/23,4  11:55:00 AM,30.2,21.2,68.83,290,21,0,30.19,10,31,CLR,M,M,M,M,M,M,16.45
0CO,10/17/23,4  12:55:00 PM,30.2,21.2,68.83,280,23,0,30.19,10,34,CLR,M,M,M,M,M,M,15.89
0CO,10/17/23,4  1:55:00 PM,30.2,21.2,68.83,270,22,0,30.19,10,29,SCT,M,M,M,3300,M,M,16.17
0CO,10/17/23,4  2:55:00 PM,30.2,21.2,68.83,310,11,0,30.19,10,20,BKN,BKN,M,M,3000,3700,M,20.19
0CO,10/17/23,4  3:55:00 PM,32,23,69.04,290,17,0,30.2,10,33,BKN,OVC,M,M,2800,3600,M,20.08
0CO,10/17/23,4  4:55:00 PM,32,23,69.04,260,15,0,30.19,10,27,SCT,SCT,BKN,M,2300,3100,4800,20.78
0CO,10/17/23,4  5:55:00 PM,33.8,21.2,59.53,250,20,0,30.19,10,33,SCT,BKN,OVC,M,2700,3300,5000,21.53
0CO,10/17/23,4  6:55:00 PM,37.4,23,55.68,260,19,0,30.15,10,29,SCT,BKN,OVC,M,2700,3500,4300,26.58
0CO,10/17/23,4  7:55:00 PM,33.8,26.6,74.63,260,17,0,30.13,10,23,SCT,SCT,SCT,M,2600,3400,4500,22.43
0CO,10/17/23,4  8:55:00 PM,33.8,21.2,59.53,260,23,0,30.1,10,35,SCT,BKN,BKN,M,2800,3700,4800,20.73
0CO,10/17/23,4  9:55:00 PM,32,23,69.04,250,23,0,30.1,10,31,SCT,BKN,BKN,M,2700,3700,4900,18.31
0CO,10/17/23,4  10:55:00 PM,30.2,19.4,63.75,220,10,0,30.09,10,20,SCT,SCT,M,M,4100,11000,M,20.71
0CO,10/17/23,4  11:55:00 PM,32,19.4,59.27,240,16,0,30.06,10,25,SCT,M,M,M,12000,M,M,20.42
0CO,10/18/23,4  12:55:00 AM,30.2,17.6,59.01,240,14,0,30.06,10,30,CLR,M,M,M,M,M,M,18.84
0CO,10/18/23,4  1:55:00 AM,30.2,17.6,59.01,240,11,0,30.06,10,17,SCT,SCT,M,M,4100,4800,M,20.19
0CO,10/18/23,4  2:55:00 AM,28.4,23,79.92,250,16,0,30.07,10,30,SCT,BKN,OVC,M,1900,2800,5000,15.73
0CO,10/18/23,4  3:55:00 AM,30.2,21.2,68.83,240,11,0,30.06,10,27,SCT,BKN,BKN,M,2900,3500,4400,20.19
0CO,10/18/23,4  4:55:00 AM,30.2,19.4,63.75,250,25,0,30.05,10,33,CLR,M,M,M,M,M,M,15.38
0CO,10/18/23,4  5:55:00 AM,30.2,19.4,63.75,250,22,0,30.06,10,45,SCT,M,M,M,3400,M,M,16.17
0CO,10/18/23,4  6:55:00 AM,30.2,19.4,63.75,260,25,0,30.05,10,38,SCT,M,M,M,4300,M,M,15.38
0CO,10/18/23,4  7:55:00 AM,24.8,23,92.74,340,13,0,30.07,0.25,17,OVC,M,M,M,100,M,M,12.34
0CO,10/18/23,4  8:55:00 AM,23,23,100,350,8,0,30.07,0.25,17,OVC,M,M,M,100,M,M,13.03
0CO,10/18/23,4  9:55:00 AM,23,21.2,92.69,320,7,0,30.07,0.5,15,BKN,BKN,BKN,M,100,1000,1500,13.81
0CO,10/18/23,4  10:55:00 AM,26.6,23,86.07,180,6,0,30.07,10,M,SCT,M,M,M,3900,M,M,19.03
0CO,10/18/23,4  11:55:00 AM,24.8,23,92.74,140,17,0,30.09,0.5,22,BKN,BKN,M,M,100,900,M,10.64
0CO,10/18/23,4  12:55:00 PM,24.8,23,92.74,120,28,0,30.09,10,33,SCT,BKN,BKN,M,300,700,1300,7.28
0CO,10/18/23,4  1:55:00 PM,24.8,23,92.74,120,27,0,30.11,0.25,33,OVC,M,M,M,100,M,M,7.53
0CO,10/18/23,4  2:55:00 PM,24.8,23,92.74,120,19,0,30.14,0.25,31,OVC,M,M,M,100,M,M,9.92
0CO,10/18/23,4  3:55:00 PM,26.6,24.8,92.8,140,28,0,30.17,10,33,SCT,SCT,BKN,M,100,800,11000,9.74
0CO,10/18/23,4  4:55:00 PM,30.2,23,74.26,140,24,0,30.19,10,35,SCT,SCT,BKN,M,900,1200,2400,15.63
0CO,10/18/23,4  5:55:00 PM,30.2,23,74.26,140,26,0,30.2,10,29,SCT,SCT,SCT,M,3700,4500,5500,15.13
0CO,10/18/23,4  6:55:00 PM,26.6,26.6,100,140,21,0,30.22,0.25,31,OVC,M,M,M,100,M,M,11.65
0CO,10/18/23,4  7:55:00 PM,28.4,28.4,100,140,24,0,30.22,0.25,31,OVC,M,M,M,100,M,M,13.2
0CO,10/18/23,4  8:55:00 PM,28.4,28.4,100,170,18,0,30.25,0.25,23,OVC,M,M,M,200,M,M,15.01
0CO,10/18/23,4  9:55:00 PM,26.6,26.6,100,140,20,0,30.27,0.25,23,OVC,M,M,M,200,M,M,11.97
0CO,10/18/23,4  10:55:00 PM,26.6,26.6,100,140,19,0,30.27,0.25,24,OVC,M,M,M,200,M,M,12.3
0CO,10/18/23,4  11:55:00 PM,26.6,24.8,92.8,120,16,0,30.3,0.25,M,OVC,M,M,M,200,M,M,13.38
0CO,10/19/23,4  12:55:00 AM,23,23,100,140,17,0,30.32,0.25,23,OVC,M,M,M,200,M,M,8.28
0CO,10/19/23,4  1:55:00 AM,23,21.2,92.69,130,15,0,30.36,0.25,27,OVC,M,M,M,200,M,M,9.11
0CO,10/19/23,4  2:55:00 AM,24.8,23,92.74,150,20,0,30.39,0.25,M,OVC,M,M,M,200,M,M,9.58
0CO,10/19/23,4  3:55:00 AM,24.8,23,92.74,150,21,0,30.41,0.25,M,OVC,M,M,M,200,M,M,9.25
0CO,10/19/23,4  4:55:00 AM,26.6,24.8,92.8,150,22,0,30.43,0.25,M,OVC,M,M,M,200,M,M,11.35
0CO,10/19/23,4  5:55:00 AM,24.8,23,92.74,140,26,0,30.43,0.25,33,OVC,M,M,M,200,M,M,7.79
0CO,10/19/23,4  6:55:00 AM,26.6,24.8,92.8,150,25,0,30.42,2.5,30,CLR,M,M,M,M,M,M,10.5
0CO,10/19/23,4  7:55:00 AM,26.6,26.6,100,140,27,0,30.43,0.25,33,OVC,M,M,M,200,M,M,9.98
0CO,10/19/23,4  8:55:00 AM,26.6,24.8,92.8,150,22,0,30.44,0.25,M,OVC,M,M,M,200,M,M,11.35
0CO,10/19/23,4  9:55:00 AM,26.6,26.6,100,160,19,0,30.45,10,22,CLR,M,M,M,M,M,M,12.3
0CO,10/19/23,4  10:55:00 AM,26.6,26.6,100,180,8,0,30.46,10,16,BKN,M,M,M,12000,M,M,17.46
0CO,10/19/23,4  11:55:00 AM,26.6,26.6,100,180,9,0,30.48,10,16,CLR,M,M,M,M,M,M,16.8
0CO,10/19/23,4  12:55:00 PM,28.4,24.8,86.18,150,13,0,30.49,10,22,SCT,M,M,M,12000,M,M,16.96
0CO,10/19/23,4  1:55:00 PM,28.4,24.8,86.18,160,15,0,30.51,10,M,BKN,M,M,M,12000,M,M,16.11
0CO,10/19/23,4  2:55:00 PM,30.2,24.8,80.07,170,14,0,30.53,10,M,BKN,M,M,M,12000,M,M,18.84
0CO,10/19/23,4  3:55:00 PM,30.2,26.6,86.28,160,12,0,30.53,10,M,OVC,M,M,M,11000,M,M,19.71
0CO,10/19/23,4  4:55:00 PM,30.2,28.4,92.92,130,17,0,30.52,10,26,BKN,M,M,M,11000,M,M,17.72
0CO,10/19/23,4  5:55:00 PM,32,28.4,86.39,150,19,0,30.52,10,27,SCT,SCT,M,M,9500,12000,M,19.44
0CO,10/19/23,4  6:55:00 PM,32,30.2,92.97,150,16,0,30.53,10,29,CLR,M,M,M,M,M,M,20.42
0CO,10/19/23,4  7:55:00 PM,33.8,28.4,80.36,150,21,0,30.53,10,30,CLR,M,M,M,M,M,M,21.25
0CO,10/19/23,4  8:55:00 PM,35.6,28.4,74.8,150,17,0,30.53,10,26,CLR,M,M,M,M,M,M,24.79
0CO,10/19/23,4  9:55:00 PM,35.6,26.6,69.46,160,14,0,30.53,10,29,CLR,M,M,M,M,M,M,25.8
0CO,10/19/23,4  10:55:00 PM,33.8,28.4,80.36,150,14,0,30.55,10,21,CLR,M,M,M,M,M,M,23.48
0CO,10/19/23,4  11:55:00 PM,33.8,26.6,74.63,190,11,0,30.56,10,17,CLR,M,M,M,M,M,M,24.74
0CO,10/20/23,4  12:55:00 AM,33.8,23,64.23,200,5,0,30.57,10,21,CLR,M,M,M,M,M,M,28.53
0CO,10/20/23,4  1:55:00 AM,33.8,19.4,55.14,250,6,0,30.57,10,M,CLR,M,M,M,M,M,M,27.7
0CO,10/20/23,4  2:55:00 AM,32,21.2,63.99,200,4,0,30.58,10,18,CLR,M,M,M,M,M,M,27.42
0CO,10/20/23,4  3:55:00 AM,33.8,21.2,59.53,170,15,0,30.58,10,20,CLR,M,M,M,M,M,M,23.11
0CO,10/20/23,4  4:55:00 AM,32,23,69.04,170,13,0,30.58,10,20,CLR,M,M,M,M,M,M,21.57
0CO,10/20/23,4  5:55:00 AM,32,23,69.04,170,16,0,30.57,10,M,SCT,M,M,M,12000,M,M,20.42
0CO,10/20/23,4  6:55:00 AM,33.8,21.2,59.53,250,6,0,30.53,10,M,BKN,M,M,M,11000,M,M,27.7
0CO,10/20/23,4  7:55:00 AM,32,23,69.04,170,14,0,30.55,10,21,BKN,M,M,M,12000,M,M,21.16
0CO,10/20/23,4  8:55:00 AM,32,19.4,59.27,250,18,0,30.53,10,23,CLR,M,M,M,M,M,M,19.75
0CO,10/20/23,4  9:55:00 AM,32,17.6,54.87,300,9,0,30.51,10,18,CLR,M,M,M,M,M,M,23.51
0CO,10/20/23,4  10:55:00 AM,32,21.2,63.99,260,20,0,30.52,10,24,SCT,M,M,M,12000,M,M,19.14
0CO,10/20/23,4  11:55:00 AM,32,15.8,50.75,280,17,0,30.52,10,22,BKN,M,M,M,12000,M,M,20.08
0CO,10/20/23,4  12:55:00 PM,33.8,14,43.65,270,14,0,30.52,10,21,OVC,M,M,M,11000,M,M,23.48
0CO,10/20/23,4  1:55:00 PM,32,14,46.92,250,16,0,30.53,10,23,SCT,BKN,OVC,M,6000,7000,9000,20.42
0CO,10/20/23,4  2:55:00 PM,32,14,46.92,230,8,0,30.55,10,24,OVC,M,M,M,10000,M,M,24.11
0CO,10/20/23,4  3:55:00 PM,33.8,15.8,47.22,230,17,0,30.54,10,22,BKN,BKN,M,M,9000,11000,M,22.43
0CO,10/20/23,4  4:55:00 PM,35.6,17.6,47.51,220,7,0,30.55,10,20,OVC,M,M,M,8000,M,M,29.17
0CO,10/20/23,4  5:55:00 PM,37.4,14,37.84,250,15,0,30.54,10,20,CLR,M,M,M,M,M,M,27.78
0CO,10/20/23,4  6:55:00 PM,37.4,14,37.84,230,8,0,30.51,10,23,CLR,M,M,M,M,M,M,30.76
0CO,10/20/23,4  7:55:00 PM,39.2,14,35.26,210,6,0,30.48,10,20,CLR,M,M,M,M,M,M,34.2
0CO,10/20/23,4  8:55:00 PM,42.8,17.6,35.87,190,9,0,30.47,10,18,CLR,M,M,M,M,M,M,36.94
0CO,10/20/23,4  9:55:00 PM,37.4,17.6,44.25,170,15,0,30.46,10,28,CLR,M,M,M,M,M,M,27.78
0CO,10/20/23,4  10:55:00 PM,33.8,12.2,40.32,150,26,0,30.43,10,44,CLR,M,M,M,M,M,M,20.02
0CO,10/20/23,4  11:55:00 PM,32,14,46.92,170,11,0,30.43,10,20,BKN,M,M,M,11000,M,M,22.47
0CO,10/21/23,4  12:55:00 AM,32,15.8,50.75,170,14,0,30.41,10,26,BKN,M,M,M,10000,M,M,21.16
0CO,10/21/23,4  1:55:00 AM,32,17.6,54.87,180,16,0,30.41,10,25,SCT,OVC,M,M,6500,10000,M,20.42
0CO,10/21/23,4  2:55:00 AM,32,19.4,59.27,130,15,0,30.36,10,20,SCT,BKN,BKN,M,7500,10000,12000,20.78
0CO,10/21/23,4  3:55:00 AM,30.2,21.2,68.83,140,19,0,30.37,10,M,SCT,SCT,M,M,5000,11000,M,17.06
0CO,10/21/23,4  4:55:00 AM,28.4,21.2,74.08,340,5,0,30.34,10,M,OVC,M,M,M,2400,M,M,22.12
0CO,10/21/23,4  5:55:00 AM,26.6,26.6,100,10,6,0,30.3,0.25,16,OVC,M,M,M,200,M,M,19.03
0CO,10/21/23,4  6:55:00 AM,26.6,26.6,100,10,5,0,30.27,0.25,M,OVC,M,M,M,200,M,M,19.98
0CO,10/21/23,4  7:55:00 AM,23,21.2,92.69,360,10,0.05,30.23,0.25,20,OVC,M,M,M,200,M,M,11.68
0CO,10/21/23,4  8:55:00 AM,21.2,19.4,92.63,M,M,0.05,30.22,0.25,M,OVC,M,M,M,200,M,M,M
0CO,10/21/23,4  9:55:00 AM,21.2,19.4,92.63,M,M,0.08,30.2,0.25,M,OVC,M,M,M,200,M,M,M
0CO,10/21/23,4  10:55:00 AM,21.2,19.4,92.63,M,M,0.04,30.2,0.25,M,OVC,M,M,M,200,M,M,M
0CO,10/21/23,4  11:55:00 AM,21.2,19.4,92.63,M,M,0.02,30.23,0.25,M,OVC,M,M,M,200,M,M,M
0CO,10/21/23,4  12:55:00 PM,21.2,19.4,92.63,M,M,0.03,30.23,0.25,M,OVC,M,M,M,200,M,M,M
0CO,10/21/23,4  1:55:00 PM,21.2,19.4,92.63,M,M,0.01,30.23,0.25,M,OVC,M,M,M,200,M,M,M
0CO,10/21/23,4  2:55:00 PM,21.2,21.2,100,M,M,0,30.29,0.25,M,OVC,M,M,M,200,M,M,M
0CO,10/21/23,4  3:55:00 PM,23,21.2,92.69,M,M,0,30.3,0.25,M,OVC,M,M,M,200,M,M,M
0CO,10/21/23,4  4:55:00 PM,23,23,100,320,33,0.03,30.3,0.25,39,OVC,M,M,M,200,M,M,3.61
0CO,10/21/23,4  5:55:00 PM,23,23,100,M,M,0.02,30.3,0.25,M,OVC,M,M,M,200,M,M,M
0CO,10/21/23,4  6:55:00 PM,24.8,23,92.74,320,29,0.01,30.31,0.25,45,OVC,M,M,M,200,M,M,7.03
0CO,10/21/23,4  7:55:00 PM,24.8,23,92.74,320,35,0.01,30.28,0.25,42,OVC,M,M,M,200,M,M,5.68
0CO,10/21/23,4  8:55:00 PM,26.6,24.8,92.8,310,38,0.01,30.26,0.25,46,OVC,M,M,M,200,M,M,7.61
0CO,10/21/23,4  9:55:00 PM,26.6,24.8,92.8,320,29,0.01,30.33,0.25,40,OVC,M,M,M,200,M,M,9.5
0CO,10/21/23,4  10:55:00 PM,26.6,24.8,92.8,310,29,0,30.35,0.25,40,OVC,M,M,M,200,M,M,9.5
0CO,10/21/23,4  11:55:00 PM,26.6,24.8,92.8,330,28,0,30.38,0.25,37,OVC,M,M,M,200,M,M,9.74
0CO,10/22/23,4  12:55:00 AM,24.8,23,92.74,330,28,0,30.4,0.25,37,OVC,M,M,M,200,M,M,7.28
0CO,10/22/23,4  1:55:00 AM,24.8,23,92.74,330,29,0,30.41,0.25,37,OVC,M,M,M,200,M,M,7.03
0CO,10/22/23,4  2:55:00 AM,24.8,23,92.74,M,M,0,30.44,0.25,M,OVC,M,M,M,200,M,M,M
0CO,10/22/23,4  3:55:00 AM,24.8,23,92.74,M,M,0,30.45,0.25,M,OVC,M,M,M,200,M,M,M
0CO,10/22/23,4  4:55:00 AM,24.8,23,92.74,320,28,0,30.43,0.75,38,BKN,M,M,M,200,M,M,7.28
0CO,10/22/23,4  5:55:00 AM,23,23,100,320,32,0,30.41,7,36,CLR,M,M,M,M,M,M,3.84
0CO,10/22/23,4  6:55:00 AM,24.8,23,92.74,320,30,0,30.41,7,37,CLR,M,M,M,M,M,M,6.79
0CO,10/22/23,4  7:55:00 AM,24.8,23,92.74,320,32,0,30.39,5,39,CLR,M,M,M,M,M,M,6.33
0CO,10/22/23,4  8:55:00 AM,24.8,23,92.74,310,29,0,30.4,7,38,CLR,M,M,M,M,M,M,7.03
0CO,10/22/23,4  9:55:00 AM,23,23,100,320,30,0,30.41,7,37,CLR,M,M,M,M,M,M,4.31
0CO,10/22/23,4  10:55:00 AM,23,23,100,320,29,0,30.42,7,34,CLR,M,M,M,M,M,M,4.56
0CO,10/22/23,4  11:55:00 AM,23,23,100,320,28,0,30.44,10,33,CLR,M,M,M,M,M,M,4.82
0CO,10/22/23,4  12:55:00 PM,23,23,100,320,27,0,30.45,10,33,CLR,M,M,M,M,M,M,5.08
0CO,10/22/23,4  1:55:00 PM,24.8,21.2,85.96,320,26,0,30.48,10,33,CLR,M,M,M,M,M,M,7.79
0CO,10/22/23,4  2:55:00 PM,26.6,19.4,73.89,320,25,0,30.51,10,32,CLR,M,M,M,M,M,M,10.5
0CO,10/22/23,4  3:55:00 PM,28.4,19.4,68.61,300,19,0,30.54,10,27,CLR,M,M,M,M,M,M,14.68
0CO,10/22/23,4  4:55:00 PM,28.4,19.4,68.61,300,22,0,30.55,10,34,CLR,M,M,M,M,M,M,13.76
0CO,10/22/23,4  5:55:00 PM,30.2,21.2,68.83,300,15,0,30.55,10,23,CLR,M,M,M,M,M,M,18.45
0CO,10/22/23,4  6:55:00 PM,32,23,69.04,300,9,0,30.55,10,27,CLR,M,M,M,M,M,M,23.51
0CO,10/22/23,4  7:55:00 PM,32,23,69.04,280,21,0,30.54,10,27,CLR,M,M,M,M,M,M,18.85
0CO,10/22/23,4  8:55:00 PM,32,28.4,86.39,290,12,0,30.55,0.5,23,SCT,M,M,M,100,M,M,22
0CO,10/22/23,4  9:55:00 PM,32,30.2,92.97,300,10,0,30.57,0.25,M,BKN,M,M,M,100,M,M,22.97
0CO,10/22/23,4  10:55:00 PM,32,24.8,74.44,310,11,0.01,30.57,10,25,CLR,M,M,M,M,M,M,22.47
0CO,10/22/23,4  11:55:00 PM,32,23,69.04,300,16,0.02,30.56,10,22,CLR,M,M,M,M,M,M,20.42
0CO,10/23/23,4  12:55:00 AM,32,19.4,59.27,320,14,0.01,30.56,10,26,CLR,M,M,M,M,M,M,21.16
0CO,10/23/23,4  1:55:00 AM,32,19.4,59.27,300,17,0,30.56,10,M,CLR,M,M,M,M,M,M,20.08
0CO,10/23/23,4  2:55:00 AM,32,19.4,59.27,290,20,0,30.55,10,29,CLR,M,M,M,M,M,M,19.14
0CO,10/23/23,4  3:55:00 AM,32,19.4,59.27,310,19,0,30.55,10,30,CLR,M,M,M,M,M,M,19.44
0CO,10/23/23,4  4:55:00 AM,30.2,19.4,63.75,320,24,0,30.55,10,31,CLR,M,M,M,M,M,M,15.63
0CO,10/23/23,4  5:55:00 AM,30.2,17.6,59.01,310,28,0,30.55,10,33,CLR,M,M,M,M,M,M,14.66
0CO,10/23/23,4  6:55:00 AM,30.2,14,50.47,310,28,0,30.54,10,34,CLR,M,M,M,M,M,M,14.66
0CO,10/23/23,4  7:55:00 AM,30.2,12.2,46.62,310,31,0,30.52,10,37,CLR,M,M,M,M,M,M,14.01
0CO,10/23/23,4  8:55:00 AM,30.2,12.2,46.62,320,28,0,30.54,10,33,CLR,M,M,M,M,M,M,14.66
0CO,10/23/23,4  9:55:00 AM,30.2,14,50.47,300,27,0,30.54,10,36,CLR,M,M,M,M,M,M,14.89
0CO,10/23/23,4  10:55:00 AM,30.2,12.2,46.62,300,30,0,30.54,10,35,CLR,M,M,M,M,M,M,14.22
0CO,10/23/23,4  11:55:00 AM,30.2,12.2,46.62,300,28,0,30.55,10,36,CLR,M,M,M,M,M,M,14.66
0CO,10/23/23,4  12:55:00 PM,30.2,14,50.47,300,23,0,30.57,10,31,CLR,M,M,M,M,M,M,15.89
0CO,10/23/23,4  1:55:00 PM,30.2,14,50.47,290,16,0,30.6,10,25,CLR,M,M,M,M,M,M,18.07
0CO,10/23/23,4  2:55:00 PM,32,14,46.92,290,18,0,30.63,10,28,CLR,M,M,M,M,M,M,19.75
0CO,10/23/23,4  3:55:00 PM,32,14,46.92,300,15,0,30.65,10,22,CLR,M,M,M,M,M,M,20.78
0CO,10/23/23,4  4:55:00 PM,35.6,14,40.63,270,13,0,30.66,10,22,CLR,M,M,M,M,M,M,26.18
0CO,10/23/23,4  5:55:00 PM,37.4,17.6,44.25,260,13,0,30.65,10,24,CLR,M,M,M,M,M,M,28.49
0CO,10/23/23,4  6:55:00 PM,37.4,19.4,47.8,280,8,0,30.64,10,20,CLR,M,M,M,M,M,M,30.76
0CO,10/23/23,4  7:55:00 PM,41,17.6,38.45,270,19,0,30.61,10,25,CLR,M,M,M,M,M,M,31.34
0CO,10/23/23,4  8:55:00 PM,39.2,19.4,44.55,270,7,0,30.6,10,16,CLR,M,M,M,M,M,M,33.56
0CO,10/23/23,4  9:55:00 PM,41,21.2,44.85,270,8,0,30.58,10,M,CLR,M,M,M,M,M,M,35.2
0CO,10/23/23,4  10:55:00 PM,41,21.2,44.85,300,11,0,30.56,10,15,CLR,M,M,M,M,M,M,33.84
0CO,10/23/23,4  11:55:00 PM,39.2,17.6,41.24,270,13,0,30.54,10,22,CLR,M,M,M,M,M,M,30.79
0CO,10/24/23,4  12:55:00 AM,37.4,17.6,44.25,270,12,0,30.53,10,17,CLR,M,M,M,M,M,M,28.87
0CO,10/24/23,4  1:55:00 AM,35.6,14,40.63,270,13,0,30.51,10,22,CLR,M,M,M,M,M,M,26.18
0CO,10/24/23,4  2:55:00 AM,35.6,10.4,34.65,260,25,0,30.48,10,32,CLR,M,M,M,M,M,M,22.69
0CO,10/24/23,4  3:55:00 AM,33.8,8.6,34.34,270,19,0,30.47,10,31,CLR,M,M,M,M,M,M,21.82
0CO,10/24/23,4  4:55:00 AM,33.8,5,29.16,280,31,0,30.42,10,46,CLR,M,M,M,M,M,M,18.97
0CO,10/24/23,4  5:55:00 AM,33.8,5,29.16,280,30,0,30.4,10,40,CLR,M,M,M,M,M,M,19.17
0CO,10/24/23,4  6:55:00 AM,33.8,5,29.16,270,27,0,30.36,10,37,CLR,M,M,M,M,M,M,19.8
0CO,10/24/23,4  7:55:00 AM,33.8,5,29.16,280,24,0,30.35,10,35,CLR,M,M,M,M,M,M,20.49
0CO,10/24/23,4  8:55:00 AM,33.8,5,29.16,270,25,0,30.32,10,36,CLR,M,M,M,M,M,M,20.25
0CO,10/24/23,4  9:55:00 AM,33.8,3.2,26.85,290,29,0,30.27,10,45,CLR,M,M,M,M,M,M,19.37
0CO,10/24/23,4  10:55:00 AM,32,5,31.35,270,34,0,30.23,10,49,CLR,M,M,M,M,M,M,15.91
0CO,10/24/23,4  11:55:00 AM,32,8.6,36.91,290,32,0,30.22,10,46,CLR,M,M,M,M,M,M,16.29
0CO,10/24/23,4  12:55:00 PM,32,10.4,40.01,290,27,0,30.2,10,61,CLR,M,M,M,M,M,M,17.34
0CO,10/24/23,4  1:55:00 PM,32,12.2,43.34,M,M,0,30.21,10,M,CLR,M,M,M,M,M,M,M
0CO,10/24/23,4  2:55:00 PM,32,14,46.92,290,35,0,30.2,10,47,CLR,M,M,M,M,M,M,15.72
0CO,10/24/23,4  3:55:00 PM,32,15.8,50.75,310,33,0,30.23,10,48,CLR,M,M,M,M,M,M,16.1
0CO,10/24/23,4  4:55:00 PM,30.2,17.6,59.01,310,32,0,30.23,10,45,SCT,SCT,M,M,4400,5000,M,13.8
0CO,10/24/23,4  5:55:00 PM,32,21.2,63.99,310,30,0,30.26,10,39,SCT,BKN,BKN,M,2600,3500,4200,16.69
0CO,10/24/23,4  6:55:00 PM,32,24.8,74.44,310,29,0,30.26,10,40,SCT,SCT,SCT,M,1600,2100,2700,16.9
0CO,10/24/23,4  7:55:00 PM,28.4,26.6,92.86,350,19,0,30.29,0.25,34,OVC,M,M,M,100,M,M,14.68
0CO,10/24/23,4  8:55:00 PM,28.4,26.6,92.86,340,24,0,30.31,0.25,36,OVC,M,M,M,100,M,M,13.2
0CO,10/24/23,4  9:55:00 PM,28.4,24.8,86.18,320,21,0,30.34,10,33,SCT,SCT,M,M,300,1400,M,14.05
0CO,10/24/23,4  10:55:00 PM,28.4,23,79.92,30,7,0,30.38,10,M,SCT,SCT,M,M,1200,1800,M,20.39
0CO,10/24/23,4  11:55:00 PM,24.8,21.2,85.96,350,15,0,30.4,10,26,CLR,M,M,M,M,M,M,11.45
0CO,10/25/23,4  12:55:00 AM,24.8,21.2,85.96,330,11,0,30.44,10,M,CLR,M,M,M,M,M,M,13.37
0CO,10/25/23,4  1:55:00 AM,28.4,21.2,74.08,230,3,0,30.47,10,M,CLR,M,M,M,M,M,M,24.57
0CO,10/25/23,4  2:55:00 AM,28.4,21.2,74.08,250,12,0,30.47,10,17,CLR,M,M,M,M,M,M,17.42
0CO,10/25/23,4  3:55:00 AM,28.4,21.2,74.08,240,11,0,30.47,10,M,CLR,M,M,M,M,M,M,17.92
0CO,10/25/23,4  4:55:00 AM,26.6,23,86.07,200,9,0,30.48,10,15,CLR,M,M,M,M,M,M,16.8
0CO,10/25/23,4  5:55:00 AM,28.4,21.2,74.08,220,11,0,30.48,10,15,CLR,M,M,M,M,M,M,17.92
0CO,10/25/23,4  6:55:00 AM,28.4,21.2,74.08,240,10,0,30.47,10,19,CLR,M,M,M,M,M,M,18.45
0CO,10/25/23,4  7:55:00 AM,28.4,17.6,63.51,250,14,0,30.45,10,20,CLR,M,M,M,M,M,M,16.52
0CO,10/25/23,4  8:55:00 AM,28.4,12.2,50.17,300,10,0,30.46,10,20,CLR,M,M,M,M,M,M,18.45
0CO,10/25/23,4  9:55:00 AM,28.4,10.4,46.32,320,9,0,30.45,10,17,CLR,M,M,M,M,M,M,19.04
0CO,10/25/23,4  10:55:00 AM,28.4,10.4,46.32,330,14,0,30.45,10,21,CLR,M,M,M,M,M,M,16.52
0CO,10/25/23,4  11:55:00 AM,26.6,14,58.49,320,11,0,30.46,10,16,CLR,M,M,M,M,M,M,15.64
0CO,10/25/23,4  12:55:00 PM,26.6,12.2,54.03,320,15,0,30.46,10,20,CLR,M,M,M,M,M,M,13.78
0CO,10/25/23,4  1:55:00 PM,28.4,8.6,42.73,320,18,0,30.46,10,26,CLR,M,M,M,M,M,M,15.01
0CO,10/25/23,4  2:55:00 PM,28.4,8.6,42.73,310,18,0,30.49,10,23,CLR,M,M,M,M,M,M,15.01
0CO,10/25/23,4  3:55:00 PM,30.2,10.4,43.04,310,15,0,30.51,10,25,CLR,M,M,M,M,M,M,18.45
0CO,10/25/23,4  4:55:00 PM,32,12.2,43.34,300,15,0,30.52,10,24,CLR,M,M,M,M,M,M,20.78
0CO,10/25/23,4  5:55:00 PM,32,14,46.92,290,21,0,30.55,10,30,CLR,M,M,M,M,M,M,18.85
0CO,10/25/23,4  6:55:00 PM,35.6,12.2,37.53,300,20,0,30.55,10,31,CLR,M,M,M,M,M,M,23.92
0CO,10/25/23,4  7:55:00 PM,35.6,12.2,37.53,300,20,0,30.55,10,29,CLR,M,M,M,M,M,M,23.92
0CO,10/25/23,4  8:55:00 PM,37.4,12.2,34.96,300,18,0,30.55,10,26,CLR,M,M,M,M,M,M,26.86
0CO,10/25/23,4  9:55:00 PM,37.4,14,37.84,310,14,0,30.58,10,23,CLR,M,M,M,M,M,M,28.12
0CO,10/25/23,4  10:55:00 PM,35.6,14,40.63,300,17,0,30.58,10,25,CLR,M,M,M,M,M,M,24.79
0CO,10/25/23,4  11:55:00 PM,33.8,15.8,47.22,300,13,0,30.6,10,21,CLR,M,M,M,M,M,M,23.87
0CO,10/26/23,4  12:55:00 AM,32,14,46.92,300,17,0,30.62,10,22,CLR,M,M,M,M,M,M,20.08
0CO,10/26/23,4  1:55:00 AM,32,10.4,40.01,280,25,0,30.61,10,30,CLR,M,M,M,M,M,M,17.81
0CO,10/26/23,4  2:55:00 AM,32,8.6,36.91,300,19,0,30.63,10,23,CLR,M,M,M,M,M,M,19.44
0CO,10/26/23,4  3:55:00 AM,32,12.2,43.34,270,16,0,30.65,10,23,CLR,M,M,M,M,M,M,20.42
0CO,10/26/23,4  4:55:00 AM,32,12.2,43.34,270,19,0,30.65,10,25,CLR,M,M,M,M,M,M,19.44
0CO,10/26/23,4  5:55:00 AM,32,12.2,43.34,280,10,0,30.66,10,M,CLR,M,M,M,M,M,M,22.97
0CO,10/26/23,4  6:55:00 AM,32,10.4,40.01,270,9,0,30.66,10,M,CLR,M,M,M,M,M,M,23.51
0CO,10/26/23,4  7:55:00 AM,32,8.6,36.91,300,14,0,30.67,10,18,CLR,M,M,M,M,M,M,21.16
0CO,10/26/23,4  8:55:00 AM,32,5,31.35,290,11,0,30.67,10,16,CLR,M,M,M,M,M,M,22.47
0CO,10/26/23,4  9:55:00 AM,32,10.4,40.01,310,12,0,30.66,10,21,CLR,M,M,M,M,M,M,22
0CO,10/26/23,4  10:55:00 AM,30.2,10.4,43.04,330,13,0,30.65,10,20,CLR,M,M,M,M,M,M,19.26
0CO,10/26/23,4  11:55:00 AM,30.2,8.6,39.7,330,13,0,30.66,10,18,CLR,M,M,M,M,M,M,19.26
0CO,10/26/23,4  12:55:00 PM,32,6.8,34.03,310,12,0,30.66,10,20,CLR,M,M,M,M,M,M,22
0CO,10/26/23,4  1:55:00 PM,30.2,8.6,39.7,320,9,0,30.67,10,17,CLR,M,M,M,M,M,M,21.28
0CO,10/26/23,4  2:55:00 PM,32,1.4,26.55,280,23,0,30.67,10,M,CLR,M,M,M,M,M,M,18.31
0CO,10/26/23,4  3:55:00 PM,35.6,3.2,24.99,270,18,0,30.67,10,25,SCT,M,M,M,10000,M,M,24.49
0CO,10/26/23,4  4:55:00 PM,33.8,10.4,37.22,300,12,0,30.66,10,19,CLR,M,M,M,M,M,M,24.29
0CO,10/26/23,4  5:55:00 PM,33.8,12.2,40.32,300,12,0,30.67,10,30,CLR,M,M,M,M,M,M,24.29
0CO,10/26/23,4  6:55:00 PM,37.4,8.6,29.77,290,20,0,30.66,10,26,CLR,M,M,M,M,M,M,26.31
0CO,10/26/23,4  7:55:00 PM,39.2,10.4,30.07,290,18,0,30.64,10,25,CLR,M,M,M,M,M,M,29.23
0CO,10/26/23,4  8:55:00 PM,41,10.4,28.04,300,16,0,30.65,10,24,CLR,M,M,M,M,M,M,32.15
0CO,10/26/23,4  9:55:00 PM,41,10.4,28.04,280,21,0,30.64,10,29,CLR,M,M,M,M,M,M,30.86
0CO,10/26/23,4  10:55:00 PM,41,8.6,25.87,290,18,0,30.66,10,33,CLR,M,M,M,M,M,M,31.6
0CO,10/26/23,4  11:55:00 PM,37.4,10.4,32.27,280,20,0,30.65,10,30,CLR,M,M,M,M,M,M,26.31
0CO,10/27/23,4  12:55:00 AM,35.6,10.4,34.65,280,23,0,30.65,10,35,CLR,M,M,M,M,M,M,23.15
0CO,10/27/23,4  1:55:00 AM,33.8,12.2,40.32,290,18,0,30.67,10,24,CLR,M,M,M,M,M,M,22.12
0CO,10/27/23,4  2:55:00 AM,33.8,14,43.65,290,20,0,30.66,10,M,CLR,M,M,M,M,M,M,21.53
0CO,10/27/23,4  3:55:00 AM,32,10.4,40.01,290,25,0,30.65,10,31,CLR,M,M,M,M,M,M,17.81
0CO,10/27/23,4  4:55:00 AM,33.8,10.4,37.22,290,21,0,30.65,10,36,CLR,M,M,M,M,M,M,21.25
0CO,10/27/23,4  5:55:00 AM,32,12.2,43.34,300,16,0,30.65,10,25,CLR,M,M,M,M,M,M,20.42
0CO,10/27/23,4  6:55:00 AM,32,12.2,43.34,310,16,0,30.64,10,19,CLR,M,M,M,M,M,M,20.42
0CO,10/27/23,4  7:55:00 AM,32,10.4,40.01,310,15,0,30.64,10,24,CLR,M,M,M,M,M,M,20.78
0CO,10/27/23,4  8:55:00 AM,30.2,10.4,43.04,310,11,0,30.63,10,16,CLR,M,M,M,M,M,M,20.19
0CO,10/27/23,4  9:55:00 AM,32,10.4,40.01,310,12,0,30.62,10,20,CLR,M,M,M,M,M,M,22
0CO,10/27/23,4  10:55:00 AM,32,8.6,36.91,330,12,0,30.62,10,21,CLR,M,M,M,M,M,M,22
0CO,10/27/23,4  11:55:00 AM,32,5,31.35,300,11,0,30.62,10,17,CLR,M,M,M,M,M,M,22.47
0CO,10/27/23,4  12:55:00 PM,32,1.4,26.55,310,13,0,30.6,10,19,CLR,M,M,M,M,M,M,21.57
0CO,10/27/23,4  1:55:00 PM,32,3.2,28.86,330,10,0,30.6,10,17,CLR,M,M,M,M,M,M,22.97
0CO,10/27/23,4  2:55:00 PM,32,8.6,36.91,320,11,0,30.6,10,M,CLR,M,M,M,M,M,M,22.47
0CO,10/27/23,4  3:55:00 PM,35.6,3.2,24.99,290,15,0,30.59,10,22,CLR,M,M,M,M,M,M,25.45
0CO,10/27/23,4  4:55:00 PM,41,1.4,18.6,270,11,0,30.59,10,22,CLR,M,M,M,M,M,M,33.84
0CO,10/27/23,4  5:55:00 PM,41,3.2,20.22,300,16,0,30.57,10,23,CLR,M,M,M,M,M,M,32.15
0CO,10/27/23,4  6:55:00 PM,41,8.6,25.87,290,18,0,30.55,10,26,CLR,M,M,M,M,M,M,31.6
0CO,10/27/23,4  7:55:00 PM,44.6,5,19.13,270,23,0,30.5,10,33,CLR,M,M,M,M,M,M,35.25
0CO,10/27/23,4  8:55:00 PM,44.6,3.2,17.61,M,M,0,30.49,10,M,CLR,M,M,M,M,M,M,M
0CO,10/27/23,4  9:55:00 PM,44.6,6.8,20.77,290,18,0,30.47,10,28,CLR,M,M,M,M,M,M,36.34
0CO,10/27/23,4  10:55:00 PM,41,10.4,28.04,320,8,0,30.47,10,15,CLR,M,M,M,M,M,M,35.2
0CO,10/27/23,4  11:55:00 PM,41,5,21.97,280,27,0,30.45,10,36,CLR,M,M,M,M,M,M,29.61
0CO,10/28/23,4  12:55:00 AM,39.2,3.2,21.69,280,20,0,30.44,10,32,CLR,M,M,M,M,M,M,28.7
0CO,10/28/23,4  1:55:00 AM,37.4,1.4,21.41,280,25,0,30.42,10,37,CLR,M,M,M,M,M,M,25.12
0CO,10/28/23,4  2:55:00 AM,35.6,3.2,24.99,290,21,0,30.41,10,30,CLR,M,M,M,M,M,M,23.65
0CO,10/28/23,4  3:55:00 AM,35.6,3.2,24.99,290,16,0,30.39,10,33,CLR,M,M,M,M,M,M,25.11
0CO,10/28/23,4  4:55:00 AM,35.6,3.2,24.99,280,27,0,30.36,10,40,CLR,M,M,M,M,M,M,22.25
0CO,10/28/23,4  5:55:00 AM,33.8,5,29.16,300,21,0,30.34,10,32,CLR,M,M,M,M,M,M,21.25
0CO,10/28/23,4  6:55:00 AM,35.6,10.4,34.65,290,31,0,30.28,10,40,CLR,M,M,M,M,M,M,21.46
0CO,10/28/23,4  7:55:00 AM,33.8,12.2,40.32,310,21,0,30.29,10,36,CLR,M,M,M,M,M,M,21.25
0CO,10/28/23,4  8:55:00 AM,35.6,8.6,31.97,280,26,0,30.26,10,37,CLR,M,M,M,M,M,M,22.47
0CO,10/28/23,4  9:55:00 AM,32,8.6,36.91,280,24,0,30.27,10,32,CLR,M,M,M,M,M,M,18.06
0CO,10/28/23,4  10:55:00 AM,32,8.6,36.91,290,18,0,30.26,10,34,CLR,M,M,M,M,M,M,19.75
0CO,10/28/23,4  11:55:00 AM,33.8,10.4,37.22,270,11,0,30.27,10,25,SCT,M,M,M,6000,M,M,24.74
0CO,10/28/23,4  12:55:00 PM,32,10.4,40.01,280,9,0,30.27,10,20,CLR,M,M,M,M,M,M,23.51
0CO,10/28/23,4  1:55:00 PM,32,10.4,40.01,270,21,0,30.25,10,29,CLR,M,M,M,M,M,M,18.85
0CO,10/28/23,4  2:55:00 PM,33.8,12.2,40.32,250,16,0,30.26,10,23,CLR,M,M,M,M,M,M,22.76
0CO,10/28/23,4  3:55:00 PM,33.8,12.2,40.32,250,19,0,30.25,10,24,CLR,M,M,M,M,M,M,21.82
0CO,10/28/23,4  4:55:00 PM,37.4,8.6,29.77,260,16,0,30.23,10,25,CLR,M,M,M,M,M,M,27.46
0CO,10/28/23,4  5:55:00 PM,39.2,8.6,27.74,260,16,0,30.22,10,29,CLR,M,M,M,M,M,M,29.8
0CO,10/28/23,4  6:55:00 PM,41,8.6,25.87,260,24,0,30.18,10,36,BKN,M,M,M,7500,M,M,30.2
0CO,10/28/23,4  7:55:00 PM,41,8.6,25.87,260,13,0,30.16,10,30,SCT,SCT,BKN,M,7500,8500,11000,33.1
0CO,10/28/23,4  8:55:00 PM,35.6,14,40.63,350,7,0,30.14,10,16,OVC,M,M,M,7000,M,M,29.17
0CO,10/28/23,4  9:55:00 PM,33.8,17.6,51.04,300,10,0,30.15,10,M,OVC,M,M,M,6000,M,M,25.23
0CO,10/28/23,4  10:55:00 PM,33.8,17.6,51.04,260,14,0,30.13,10,21,OVC,M,M,M,4900,M,M,23.48
0CO,10/28/23,4  11:55:00 PM,32,21.2,63.99,240,20,0,30.11,10,35,SCT,M,M,M,9500,M,M,19.14
0CO,10/29/23,4  12:55:00 AM,32,21.2,63.99,230,11,0,30.12,10,21,SCT,SCT,M,M,2800,3500,M,22.47
0CO,10/29/23,4  1:55:00 AM,32,21.2,63.99,240,17,0,30.11,10,28,CLR,M,M,M,M,M,M,20.08
0CO,10/29/23,4  2:55:00 AM,30.2,21.2,68.83,250,20,0,30.07,10,32,CLR,M,M,M,M,M,M,16.75
0CO,10/29/23,4  3:55:00 AM,30.2,21.2,68.83,250,16,0,30.07,10,27,SCT,M,M,M,3000,M,M,18.07
0CO,10/29/23,4  4:55:00 AM,30.2,21.2,68.83,270,15,0,30.05,10,31,CLR,M,M,M,M,M,M,18.45
0CO,10/29/23,4  5:55:00 AM,30.2,23,74.26,250,15,0,30.03,10,20,CLR,M,M,M,M,M,M,18.45
0CO,10/29/23,4  6:55:00 AM,30.2,21.2,68.83,250,20,0,30,10,33,CLR,M,M,M,M,M,M,16.75
0CO,10/29/23,4  7:55:00 AM,26.6,26.6,100,250,21,0,29.98,10,29,SCT,SCT,BKN,M,1400,5000,9000,11.65
0CO,10/29/23,4  8:55:00 AM,28.4,26.6,92.86,250,19,0,29.98,10,35,SCT,BKN,M,M,6500,7000,M,14.68
0CO,10/29/23,4  9:55:00 AM,28.4,26.6,92.86,250,17,0,29.95,10,24,BKN,BKN,OVC,M,100,800,5500,15.36
0CO,10/29/23,4  10:55:00 AM,28.4,24.8,86.18,250,17,0,29.93,10,26,BKN,M,M,M,11000,M,M,15.36
0CO,10/29/23,4  11:55:00 AM,28.4,23,79.92,240,11,0,29.92,10,17,SCT,SCT,BKN,M,5500,7000,8500,17.92
0CO,10/29/23,4  12:55:00 PM,30.2,23,74.26,150,36,0,29.86,10,42,SCT,SCT,SCT,M,3600,4500,6500,13.03
0CO,10/29/23,4  1:55:00 PM,30.2,24.8,80.07,180,18,0,29.86,10,28,CLR,M,M,M,M,M,M,17.38
0CO,10/29/23,4  2:55:00 PM,32,21.2,63.99,180,26,0,29.85,10,36,CLR,M,M,M,M,M,M,17.58
0CO,10/29/23,4  3:55:00 PM,32,21.2,63.99,200,21,0,29.82,10,37,SCT,SCT,M,M,2800,3600,M,18.85
0CO,10/29/23,4  4:55:00 PM,32,23,69.04,200,20,0,29.8,10,42,BKN,BKN,BKN,M,2500,3200,4000,19.14
0CO,10/29/23,4  5:55:00 PM,32,24.8,74.44,250,9,0,29.82,5,30,SCT,BKN,OVC,M,2200,3300,4000,23.51
0CO,10/29/23,4  6:55:00 PM,23,23,100,310,6,0.05,29.79,0.25,14,OVC,M,M,M,200,M,M,14.69
0CO,10/29/23,4  7:55:00 PM,23,21.2,92.69,310,8,0.02,29.78,0.25,M,OVC,M,M,M,200,M,M,13.03
0CO,10/29/23,4  8:55:00 PM,26.6,17.6,68.4,200,19,0.04,29.78,0.25,43,BKN,OVC,M,M,2900,3900,M,12.3
0CO,10/29/23,4  9:55:00 PM,21.2,19.4,92.63,240,21,0.01,29.84,1,34,BKN,BKN,OVC,M,200,700,1600,4.45
0CO,10/29/23,4  10:55:00 PM,21.2,12.2,67.73,230,18,0.01,29.84,2.5,31,CLR,M,M,M,M,M,M,5.53
0CO,10/29/23,4  11:55:00 PM,19.4,8.6,62.28,240,16,0,29.86,10,27,SCT,SCT,SCT,M,3300,4400,5500,4
0CO,10/30/23,4  12:55:00 AM,19.4,5,52.89,250,17,0,29.9,10,25,CLR,M,M,M,M,M,M,3.57
0CO,10/30/23,4  1:55:00 AM,17.6,-0.4,44.48,250,22,0,29.91,10,33,CLR,M,M,M,M,M,M,-0.7
0CO,10/30/23,4  2:55:00 AM,15.8,1.4,52.31,240,23,0,29.92,10,M,CLR,M,M,M,M,M,M,-3.46
0CO,10/30/23,4  3:55:00 AM,15.8,1.4,52.31,220,17,0,29.92,10,27,CLR,M,M,M,M,M,M,-1.15
0CO,10/30/23,4  4:55:00 AM,14,3.2,61.51,250,18,0,29.93,10,27,CLR,M,M,M,M,M,M,-3.95
0CO,10/30/23,4  5:55:00 AM,14,3.2,61.51,250,23,0,29.92,10,30,CLR,M,M,M,M,M,M,-5.88
0CO,10/30/23,4  6:55:00 AM,14,3.2,61.51,280,18,0,29.91,10,33,CLR,M,M,M,M,M,M,-3.95
0CO,10/30/23,4  7:55:00 AM,12.2,10.4,92.32,330,7,0,29.93,0.5,16,OVC,M,M,M,100,M,M,0.64
0CO,10/30/23,4  8:55:00 AM,12.2,10.4,92.32,300,8,0,29.93,0.5,M,BKN,M,M,M,100,M,M,-0.28
0CO,10/30/23,4  9:55:00 AM,12.2,5,72.33,220,7,0,29.93,10,M,CLR,M,M,M,M,M,M,0.64
0CO,10/30/23,4  10:55:00 AM,14,3.2,61.51,220,5,0,29.94,10,16,CLR,M,M,M,M,M,M,5.02
0CO,10/30/23,4  11:55:00 AM,12.2,1.4,61.25,150,13,0,29.95,10,M,CLR,M,M,M,M,M,M,-3.8
0CO,10/30/23,4  12:55:00 PM,12.2,1.4,61.25,170,18,0,29.95,10,M,SCT,SCT,M,M,4100,6000,M,-6.32
0CO,10/30/23,4  1:55:00 PM,12.2,3.2,66.58,170,17,0,29.95,10,20,CLR,M,M,M,M,M,M,-5.86
0CO,10/30/23,4  2:55:00 PM,12.2,5,72.33,170,10,0,29.97,10,M,SCT,M,M,M,7000,M,M,-1.86
0CO,10/30/23,4  3:55:00 PM,12.2,10.4,92.32,170,11,0,29.98,0.5,17,BKN,OVC,M,M,100,5000,M,-2.56
0CO,10/30/23,4  4:55:00 PM,14,10.4,85.28,190,8,0,30,7,14,BKN,BKN,OVC,M,300,6000,7500,1.94
0CO,10/30/23,4  5:55:00 PM,17.6,6.8,62.02,250,16,0,30,10,21,SCT,SCT,M,M,3000,3500,M,1.65
0CO,10/30/23,4  6:55:00 PM,14,10.4,85.28,280,7,0,29.98,7,M,SCT,BKN,OVC,M,800,2100,3800,2.84
0CO,10/30/23,4  7:55:00 PM,14,12.2,92.38,320,8,0.01,29.97,0.25,15,OVC,M,M,M,200,M,M,1.94
0CO,10/30/23,4  8:55:00 PM,14,12.2,92.38,300,17,0,29.99,0.25,M,OVC,M,M,M,200,M,M,-3.51
0CO,10/30/23,4  9:55:00 PM,14,12.2,92.38,320,22,0,30,0.25,32,OVC,M,M,M,200,M,M,-5.52
0CO,10/30/23,4  10:55:00 PM,14,10.4,85.28,340,18,0,30.01,0.25,29,OVC,M,M,M,200,M,M,-3.95
0CO,10/30/23,4  11:55:00 PM,12.2,10.4,92.32,330,19,0,30.03,0.25,31,OVC,M,M,M,200,M,M,-6.75
0CO,10/31/23,4  12:55:00 AM,10.4,8.6,92.25,330,19,0,30.05,M,26,OVC,M,M,M,200,M,M,-9.13
0CO,10/31/23,4  1:55:00 AM,10.4,8.6,92.25,320,19,0,30.06,M,22,OVC,M,M,M,200,M,M,-9.13
0CO,10/31/23,4  2:55:00 AM,10.4,8.6,92.25,M,M,0,30.06,M,M,OVC,M,M,M,200,M,M,M
0CO,10/31/23,4  3:55:00 AM,8.6,5,84.93,M,M,0,30.06,2.5,M,BKN,OVC,M,M,500,1200,M,M
0CO,10/31/23,4  4:55:00 AM,8.6,5,84.93,M,M,0,30.05,2,M,BKN,OVC,M,M,600,1200,M,M
0CO,10/31/23,4  5:55:00 AM,8.6,5,84.93,M,M,0,30.05,1.5,M,BKN,OVC,M,M,400,800,M,M
0CO,10/31/23,4  6:55:00 AM,8.6,5,84.93,310,26,0,30.04,0.75,M,OVC,M,M,M,300,M,M,-14.21
0CO,10/31/23,4  7:55:00 AM,8.6,5,84.93,330,19,0,30.07,0.25,25,OVC,M,M,M,100,M,M,-11.51
0CO,10/31/23,4  8:55:00 AM,8.6,5,84.93,310,22,0,30.03,1.25,M,SCT,BKN,OVC,M,600,1100,1900,-12.76
0CO,10/31/23,4  9:55:00 AM,8.6,5,84.93,310,30,0,30.01,0.75,39,OVC,M,M,M,300,M,M,-15.49
0CO,10/31/23,4  10:55:00 AM,8.6,3.2,78.18,320,30,0,29.99,0.75,39,OVC,M,M,M,300,M,M,-15.49
0CO,10/31/23,4  11:55:00 AM,6.8,3.2,84.8,320,31,0,30.01,0.25,41,OVC,M,M,M,100,M,M,-18.27
0CO,10/31/23,4  12:55:00 PM,6.8,3.2,84.8,310,34,0,30.01,1.25,41,SCT,SCT,M,M,100,7500,M,-19.14
0CO,10/31/23,4  1:55:00 PM,6.8,3.2,84.8,310,28,0,30.03,1,42,VV ,M,M,M,700,M,M,-17.33
0CO,10/31/23,4  2:55:00 PM,8.6,5,84.93,320,30,0,30.05,0.5,42,VV ,M,M,M,500,M,M,-15.49
0CO,10/31/23,4  3:55:00 PM,10.4,6.8,85.05,310,23,0,30.09,10,34,CLR,M,M,M,M,M,M,-10.72
0CO,10/31/23,4  4:55:00 PM,14,5,66.82,300,26,0,30.09,10,30,CLR,M,M,M,M,M,M,-6.88
0CO,10/31/23,4  5:55:00 PM,19.4,1.4,44.79,310,21,0,30.1,10,30,CLR,M,M,M,M,M,M,2.05
0CO,10/31/23,4  6:55:00 PM,17.6,8.6,67.28,320,15,0,30.11,10,26,CLR,M,M,M,M,M,M,2.11
0CO,10/31/23,4  7:55:00 PM,21.2,6.8,53.18,280,25,0,30.09,5,38,CLR,M,M,M,M,M,M,3.19
0CO,10/31/23,4  8:55:00 PM,23,8.6,53.47,270,19,0,30.1,10,37,CLR,M,M,M,M,M,M,7.54
0CO,10/31/23,4  9:55:00 PM,23,10.4,57.96,300,18,0,30.1,10,32,CLR,M,M,M,M,M,M,7.9
0CO,10/31/23,4  10:55:00 PM,23,8.6,53.47,280,13,0,30.1,10,18,CLR,M,M,M,M,M,M,10.04
0CO,10/31/23,4  11:55:00 PM,23,8.6,53.47,250,23,0,30.12,10,32,BKN,M,M,M,5000,M,M,6.22
0CO,11/1/23,12:55:00 AM,23,6.8,49.29,260,24,0,30.11,10,33,SCT,BKN,M,M,4200,4800,M,5.92
0CO,11/1/23,1:55:00 AM,21.2,5,48.99,270,25,0,30.1,10,39,CLR,M,M,M,M,M,M,3.19
0CO,11/1/23,2:55:00 AM,21.2,5,48.99,280,27,0,30.08,5,52,CLR,M,M,M,M,M,M,2.62
0CO,11/1/23,3:55:00 AM,19.4,5,52.89,280,39,0,30.07,5,47,CLR,M,M,M,M,M,M,-2.71
0CO,11/1/23,4:55:00 AM,17.6,3.2,52.6,280,31,0,30.07,7,45,CLR,M,M,M,M,M,M,-3.38
0CO,11/1/23,5:55:00 AM,17.6,3.2,52.6,290,21,0,30.1,10,36,CLR,M,M,M,M,M,M,-0.35
0CO,11/1/23,6:55:00 AM,17.6,3.2,52.6,270,40,0,30.05,7,48,CLR,M,M,M,M,M,M,-5.46
0CO,11/1/23,7:55:00 AM,17.6,3.2,52.6,290,26,0,30.1,10,46,CLR,M,M,M,M,M,M,-1.99
0CO,11/1/23,8:55:00 AM,17.6,3.2,52.6,290,24,0,30.09,10,44,CLR,M,M,M,M,M,M,-1.37
0CO,11/1/23,9:55:00 AM,17.6,3.2,52.6,300,32,0,30.08,10,43,CLR,M,M,M,M,M,M,-3.63
0CO,11/1/23,10:55:00 AM,15.8,3.2,56.86,300,22,0,30.12,10,33,CLR,M,M,M,M,M,M,-3.11
0CO,11/1/23,11:55:00 AM,12.2,5,72.33,330,21,0,30.13,10,33,CLR,M,M,M,M,M,M,-7.55
0CO,11/1/23,12:55:00 PM,15.8,3.2,56.86,300,24,0,30.13,10,33,CLR,M,M,M,M,M,M,-3.8
0CO,11/1/23,1:55:00 PM,15.8,3.2,56.86,300,16,0,30.16,10,23,CLR,M,M,M,M,M,M,-0.7
0CO,11/1/23,2:55:00 PM,19.4,1.4,44.79,250,10,0,30.2,10,24,CLR,M,M,M,M,M,M,7.17
0CO,11/1/23,3:55:00 PM,21.2,1.4,41.49,240,20,0,30.22,10,M,CLR,M,M,M,M,M,M,4.79
0CO,11/1/23,4:55:00 PM,23,1.4,38.45,240,21,0,30.22,10,26,CLR,M,M,M,M,M,M,6.85
0CO,11/1/23,5:55:00 PM,24.8,1.4,35.66,260,23,0,30.22,10,35,CLR,M,M,M,M,M,M,8.64
0CO,11/1/23,6:55:00 PM,26.6,3.2,35.98,250,8,0,30.22,10,24,CLR,M,M,M,M,M,M,17.46
0CO,11/1/23,7:55:00 PM,28.4,3.2,33.41,240,9,0,30.22,10,17,CLR,M,M,M,M,M,M,19.04
0CO,11/1/23,8:55:00 PM,30.2,5,33.72,260,13,0,30.22,10,25,CLR,M,M,M,M,M,M,19.26
0CO,11/1/23,9:55:00 PM,30.2,3.2,31.04,240,13,0,30.22,10,22,CLR,M,M,M,M,M,M,19.26
0CO,11/1/23,10:55:00 PM,28.4,3.2,33.41,260,14,0,30.22,10,19,CLR,M,M,M,M,M,M,16.52
0CO,11/1/23,11:55:00 PM,26.6,5,39.08,250,11,0,30.24,10,M,CLR,M,M,M,M,M,M,15.64
0CO,11/2/23,12:55:00 AM,24.8,5,42.11,240,13,0,30.24,10,18,CLR,M,M,M,M,M,M,12.34
0CO,11/2/23,1:55:00 AM,24.8,3.2,38.77,240,13,0,30.24,10,27,CLR,M,M,M,M,M,M,12.34
0CO,11/2/23,2:55:00 AM,24.8,3.2,38.77,230,6,0,30.24,10,M,CLR,M,M,M,M,M,M,16.86
0CO,11/2/23,3:55:00 AM,24.8,3.2,38.77,240,11,0,30.24,10,17,CLR,M,M,M,M,M,M,13.37
0CO,11/2/23,4:55:00 AM,23,3.2,41.8,230,16,0,30.22,10,M,CLR,M,M,M,M,M,M,8.69
0CO,11/2/23,5:55:00 AM,23,3.2,41.8,280,11,0,30.22,10,16,CLR,M,M,M,M,M,M,11.09
0CO,11/2/23,6:55:00 AM,23,3.2,41.8,250,11,0,30.22,10,25,CLR,M,M,M,M,M,M,11.09
0CO,11/2/23,7:55:00 AM,23,5,45.41,260,16,0,30.19,10,23,CLR,M,M,M,M,M,M,8.69
0CO,11/2/23,8:55:00 AM,23,3.2,41.8,280,19,0,30.18,10,30,CLR,M,M,M,M,M,M,7.54
0CO,11/2/23,9:55:00 AM,23,3.2,41.8,280,20,0,30.16,10,30,CLR,M,M,M,M,M,M,7.19
0CO,11/2/23,10:55:00 AM,23,3.2,41.8,280,18,0,30.15,10,27,CLR,M,M,M,M,M,M,7.9
0CO,11/2/23,11:55:00 AM,24.8,3.2,38.77,280,22,0,30.15,10,30,CLR,M,M,M,M,M,M,8.94
0CO,11/2/23,12:55:00 PM,24.8,3.2,38.77,280,21,0,30.14,10,31,CLR,M,M,M,M,M,M,9.25
0CO,11/2/23,1:55:00 PM,24.8,5,42.11,270,20,0,30.14,10,31,CLR,M,M,M,M,M,M,9.58
0CO,11/2/23,2:55:00 PM,26.6,5,39.08,250,9,0,30.16,10,14,CLR,M,M,M,M,M,M,16.8
0CO,11/2/23,3:55:00 PM,28.4,5,36.29,220,11,0,30.15,10,16,CLR,M,M,M,M,M,M,17.92
0CO,11/2/23,4:55:00 PM,30.2,5,33.72,200,12,0,30.15,10,27,CLR,M,M,M,M,M,M,19.71
0CO,11/2/23,5:55:00 PM,30.2,6.8,36.6,150,9,0,30.14,10,25,CLR,M,M,M,M,M,M,21.28
0CO,11/2/23,6:55:00 PM,30.2,3.2,31.04,250,17,0,30.11,10,25,CLR,M,M,M,M,M,M,17.72
0CO,11/2/23,7:55:00 PM,32,5,31.35,220,12,0,30.08,10,18,CLR,M,M,M,M,M,M,22
0CO,11/2/23,8:35:00 PM,32,8.6,36.91,230,10,0,30.06,10,16,CLR,M,M,M,M,M,M,22.97
0CO,11/2/23,9:55:00 PM,32,8.6,36.91,230,13,0,30.03,10,18,BKN,M,M,M,7000,M,M,21.57
0CO,11/2/23,10:55:00 PM,32,5,31.35,230,10,0,30.03,10,18,SCT,SCT,M,M,6500,8000,M,22.97
0CO,11/2/23,11:55:00 PM,30.2,8.6,39.7,190,9,0,30.03,10,16,BKN,OVC,M,M,6500,8000,M,21.28
0CO,11/3/23,12:55:00 AM,28.4,6.8,39.39,200,9,0,30.02,10,21,SCT,M,M,M,6500,M,M,19.04
0CO,11/3/23,1:55:00 AM,26.6,8.6,46.02,250,11,0,30,10,16,CLR,M,M,M,M,M,M,15.64
0CO,11/3/23,2:55:00 AM,26.6,6.8,42.42,240,6,0,29.99,10,15,CLR,M,M,M,M,M,M,19.03
0CO,11/3/23,3:55:00 AM,26.6,5,39.08,260,7,0,29.97,10,17,SCT,SCT,M,M,9000,11000,M,18.2
0CO,11/3/23,4:55:00 AM,21.2,8.6,57.69,70,3,0,29.95,10,M,CLR,M,M,M,M,M,M,16.34
0CO,11/3/23,5:55:00 AM,19.4,8.6,62.28,10,6,0,29.93,10,M,CLR,M,M,M,M,M,M,10.36
0CO,11/3/23,6:55:00 AM,19.4,10.4,67.51,340,7,0,29.91,10,16,CLR,M,M,M,M,M,M,9.42
0CO,11/3/23,7:55:00 AM,17.6,8.6,67.28,350,9,0,29.88,10,14,CLR,M,M,M,M,M,M,5.61
0CO,11/3/23,8:55:00 AM,17.6,8.6,67.28,330,4,0,29.86,10,M,CLR,M,M,M,M,M,M,10.6
0CO,11/3/23,9:55:00 AM,17.6,8.6,67.28,10,6,0,29.84,10,M,CLR,M,M,M,M,M,M,8.19
0CO,11/3/23,10:55:00 AM,14,8.6,78.68,50,6,0,29.82,10,M,SCT,M,M,M,4800,M,M,3.85
0CO,11/3/23,11:55:00 AM,14,10.4,85.28,80,10,0,29.81,10,14,SCT,OVC,M,M,3000,4200,M,0.4
0CO,11/3/23,12:55:00 PM,14,12.2,92.38,360,8,0,29.81,10,M,SCT,SCT,OVC,M,1900,2800,4600,1.94
0CO,11/3/23,1:55:00 PM,17.6,8.6,67.28,250,5,0,29.81,10,M,BKN,M,M,M,4000,M,M,9.29
0CO,11/3/23,2:55:00 PM,17.6,8.6,67.28,230,6,0,29.82,10,M,SCT,M,M,M,4400,M,M,8.19
0CO,11/3/23,3:55:00 PM,19.4,8.6,62.28,170,13,0,29.81,10,19,SCT,M,M,M,3900,M,M,5.43
0CO,11/3/23,4:55:00 PM,19.4,8.6,62.28,170,12,0,29.81,10,20,SCT,BKN,M,M,3300,3900,M,5.97
0CO,11/3/23,5:55:00 PM,21.2,10.4,62.53,220,5,0,29.79,10,16,SCT,BKN,OVC,M,1900,2500,4200,13.57
0CO,11/3/23,6:55:00 PM,19.4,15.8,85.63,140,4,0,29.78,10,M,SCT,BKN,OVC,M,700,1100,4400,12.71
0CO,11/3/23,7:55:00 PM,17.6,17.6,100,150,4,0,29.77,0.25,M,OVC,M,M,M,100,M,M,10.6
0CO,11/3/23,8:55:00 PM,17.6,15.8,92.5,130,14,0,29.76,0.25,21,OVC,M,M,M,100,M,M,2.6
0CO,11/3/23,9:55:00 PM,17.6,15.8,92.5,120,16,0,29.77,0.25,21,OVC,M,M,M,100,M,M,1.65
0CO,11/3/23,10:55:00 PM,17.6,14,85.51,130,16,0,29.78,0.25,23,OVC,M,M,M,100,M,M,1.65
0CO,11/3/23,11:55:00 PM,17.6,14,85.51,120,18,0,29.8,0.25,22,OVC,M,M,M,100,M,M,0.79
0CO,11/4/23,12:55:00 AM,17.6,14,85.51,120,19,0,29.81,0.25,M,OVC,M,M,M,100,M,M,0.39
0CO,11/4/23,1:55:00 AM,17.6,14,85.51,120,21,0,29.82,0.25,27,OVC,M,M,M,100,M,M,-0.35
0CO,11/4/23,2:55:00 AM,17.6,15.8,92.5,120,20,0,29.84,0.25,27,OVC,M,M,M,100,M,M,0.01
0CO,11/4/23,3:55:00 AM,15.8,14,92.44,110,18,0,29.84,0.25,33,OVC,M,M,M,100,M,M,-1.58
0CO,11/4/23,4:55:00 AM,14,12.2,92.38,120,16,0,29.86,0.25,28,OVC,M,M,M,100,M,M,-3.04
0CO,11/4/23,5:55:00 AM,14,10.4,85.28,120,16,0,29.86,0.5,22,OVC,M,M,M,300,M,M,-3.04
0CO,11/4/23,6:55:00 AM,12.2,10.4,92.32,110,26,0,29.86,0.5,33,OVC,M,M,M,100,M,M,-9.32
0CO,11/4/23,7:55:00 AM,12.2,10.4,92.32,120,20,0,29.88,0.5,32,OVC,M,M,M,300,M,M,-7.16
0CO,11/4/23,8:55:00 AM,12.2,10.4,92.32,120,16,0,29.9,0.5,30,OVC,M,M,M,300,M,M,-5.39
0CO,11/4/23,9:55:00 AM,12.2,10.4,92.32,130,17,0,29.9,0.25,M,OVC,M,M,M,100,M,M,-5.86
0CO,11/4/23,10:55:00 AM,12.2,8.6,85.17,130,18,0,29.91,0.25,M,OVC,M,M,M,100,M,M,-6.32
0CO,11/4/23,11:55:00 AM,12.2,8.6,85.17,130,13,0,29.92,0.25,22,OVC,M,M,M,100,M,M,-3.8
0CO,11/4/23,12:55:00 PM,12.2,8.6,85.17,130,17,0,29.94,0.25,21,OVC,M,M,M,100,M,M,-5.86
0CO,11/4/23,1:55:00 PM,12.2,8.6,85.17,130,18,0,29.95,0.25,M,OVC,M,M,M,100,M,M,-6.32
0CO,11/4/23,2:57:00 PM,12.2,8.6,85.17,120,19,0,29.97,0.25,M,OVC,M,M,M,100,M,M,-6.75
0CO,11/4/23,3:55:00 PM,12.2,10.4,92.32,130,20,0,29.98,0.25,M,OVC,M,M,M,100,M,M,-7.16
0CO,11/4/23,4:55:00 PM,12.2,10.4,92.32,130,15,0,29.99,0.25,20,OVC,M,M,M,100,M,M,-4.89
0CO,11/4/23,5:55:00 PM,12.2,10.4,92.32,140,15,0,30,0.25,18,OVC,M,M,M,100,M,M,-4.89
0CO,11/4/23,6:55:00 PM,14,12.2,92.38,250,9,0,29.99,0.75,M,OVC,M,M,M,100,M,M,1.13
0CO,11/4/23,7:55:00 PM,14,12.2,92.38,280,10,0,29.97,0.25,M,OVC,M,M,M,200,M,M,0.4
0CO,11/4/23,8:55:00 PM,14,12.2,92.38,350,9,0,29.96,0.25,21,OVC,M,M,M,200,M,M,1.13
0CO,11/4/23,9:55:00 PM,14,12.2,92.38,350,13,0,29.95,0.25,28,OVC,M,M,M,200,M,M,-1.49
0CO,11/4/23,10:55:00 PM,14,12.2,92.38,350,15,0.03,29.94,0.25,24,OVC,M,M,M,200,M,M,-2.56
0CO,11/4/23,11:55:00 PM,14,12.2,92.38,350,16,0.01,29.93,0.25,21,OVC,M,M,M,200,M,M,-3.04
0CO,11/5/23,12:55:00 AM,12.2,10.4,92.32,340,19,0,29.92,0.25,31,OVC,M,M,M,200,M,M,-6.75
0CO,11/5/23,1:55:00 AM,12.2,10.4,92.32,350,15,0,29.92,M,31,OVC,M,M,M,200,M,M,-4.89
0CO,11/5/23,2:55:00 AM,10.4,8.6,92.25,340,22,0,29.91,M,38,OVC,M,M,M,200,M,M,-10.35
0CO,11/5/23,3:55:00 AM,10.4,6.8,85.05,340,25,0,29.9,M,M,OVC,M,M,M,200,M,M,-11.43
0CO,11/5/23,4:55:00 AM,8.6,5,84.93,340,25,0,29.88,M,M,OVC,M,M,M,200,M,M,-13.87
0CO,11/5/23,5:55:00 AM,8.6,3.2,78.18,340,26,0,29.86,M,35,OVC,M,M,M,200,M,M,-14.21
0CO,11/5/23,6:55:00 AM,5,3.2,92.06,350,26,0,29.82,M,41,OVC,M,M,M,200,M,M,-19.1
0CO,11/5/23,7:55:00 AM,5,3.2,92.06,330,28,0,29.82,M,38,OVC,M,M,M,200,M,M,-19.8
0CO,11/5/23,8:55:00 AM,8.6,5,84.93,310,30,0,29.84,M,40,BKN,BKN,OVC,M,200,600,1100,-15.49
0CO,11/5/23,9:55:00 AM,12.2,8.6,85.17,320,30,0,29.84,M,44,M,M,M,M,M,M,M,-10.54
0CO,11/5/23,10:55:00 AM,12.2,8.6,85.17,310,38,0,29.79,M,M,OVC,M,M,M,200,M,M,-12.62
0CO,11/5/23,11:55:00 AM,12.2,8.6,85.17,M,M,0,29.75,M,M,BKN,OVC,M,M,200,600,M,M
0CO,11/5/23,12:55:00 PM,10.4,6.8,85.05,M,M,0,29.74,0.5,M,OVC,M,M,M,300,M,M,M
0CO,11/5/23,1:55:00 PM,10.4,8.6,92.25,310,36,0,29.74,0.5,46,OVC,M,M,M,500,M,M,-14.65
0CO,11/5/23,2:55:00 PM,12.2,8.6,85.17,310,25,0,29.78,0.5,32,OVC,M,M,M,100,M,M,-8.99
0CO,11/5/23,3:55:00 PM,12.2,8.6,85.17,310,35,0,29.76,0.5,44,OVC,M,M,M,800,M,M,-11.89
0CO,11/5/23,4:55:00 PM,12.2,10.4,92.32,290,32,0,29.79,1,44,BKN,OVC,M,M,600,1300,M,-11.1
0CO,11/5/23,5:55:00 PM,12.2,10.4,92.32,290,29,0,29.78,0.5,40,BKN,OVC,M,M,700,1100,M,-10.25
0CO,11/5/23,6:55:00 PM,12.2,10.4,92.32,280,31,0,29.78,1,42,BKN,OVC,M,M,900,1300,M,-10.83
0CO,11/5/23,7:55:00 PM,12.2,10.4,92.32,290,25,0,29.74,1,32,BKN,OVC,M,M,300,800,M,-8.99
0CO,11/5/23,8:55:00 PM,12.2,10.4,92.32,280,17,0,29.75,0.75,34,OVC,M,M,M,600,M,M,-5.86
0CO,11/5/23,9:55:00 PM,12.2,10.4,92.32,330,19,0.01,29.76,0.25,29,OVC,M,M,M,500,M,M,-6.75
0CO,11/5/23,10:55:00 PM,10.4,8.6,92.25,250,15,0,29.76,0.25,M,OVC,M,M,M,200,M,M,-7.22
0CO,11/5/23,11:55:00 PM,10.4,8.6,92.25,250,19,0.01,29.75,7,M,SCT,BKN,OVC,M,1900,3800,8000,-9.13
0CO,11/6/23,12:55:00 AM,8.6,5,84.93,50,4,0,29.77,0.25,15,OVC,M,M,M,200,M,M,0.09
0CO,11/6/23,1:55:00 AM,5,1.4,84.68,20,7,0.02,29.77,0.25,M,OVC,M,M,M,200,M,M,-8.13
0CO,11/6/23,2:55:00 AM,5,1.4,84.68,360,8,0.02,29.78,0.5,M,OVC,M,M,M,400,M,M,-9.15
0CO,11/6/23,3:55:00 AM,5,1.4,84.68,20,7,0.01,29.79,0.5,15,OVC,M,M,M,400,M,M,-8.13
0CO,11/6/23,4:55:00 AM,5,1.4,84.68,10,6,0.02,29.8,0.75,M,OVC,M,M,M,600,M,M,-6.99
0CO,11/6/23,5:55:00 AM,3.2,1.4,91.99,100,6,0,29.81,7,M,SCT,SCT,OVC,M,100,900,1500,-9.16
0CO,11/6/23,6:55:00 AM,5,1.4,84.68,100,6,0,29.79,1,M,OVC,M,M,M,400,M,M,-6.99
0CO,11/6/23,7:55:00 AM,5,1.4,84.68,160,5,0,29.81,0.75,M,OVC,M,M,M,200,M,M,-5.67
0CO,11/6/23,8:55:00 AM,3.2,-0.4,84.56,110,10,0,29.82,1.75,19,OVC,M,M,M,500,M,M,-13.15
0CO,11/6/23,9:55:00 AM,3.2,-0.4,84.56,100,25,0,29.81,1.75,31,BKN,OVC,M,M,700,1300,M,-21.18
0CO,11/6/23,10:55:00 AM,3.2,-0.4,84.56,140,10,0,29.84,1.25,28,OVC,M,M,M,500,M,M,-13.15
0CO,11/6/23,11:55:00 AM,3.2,-0.4,84.56,110,15,0,29.84,0.75,23,OVC,M,M,M,500,M,M,-16.56
0CO,11/6/23,12:55:00 PM,3.2,-0.4,84.56,120,16,0,29.88,0.5,32,OVC,M,M,M,300,M,M,-17.12
0CO,11/6/23,1:55:00 PM,3.2,-0.4,84.56,110,18,0,29.9,0.25,32,OVC,M,M,M,300,M,M,-18.16
0CO,11/6/23,2:55:00 PM,3.2,-0.4,84.56,120,21,0,29.92,0.5,34,OVC,M,M,M,500,M,M,-19.56
0CO,11/6/23,3:55:00 PM,3.2,-0.4,84.56,120,21,0,29.94,0.25,31,OVC,M,M,M,300,M,M,-19.56
0CO,11/6/23,4:55:00 PM,3.2,-0.4,84.56,110,28,0,29.94,0.25,37,OVC,M,M,M,300,M,M,-22.26
0CO,11/6/23,5:55:00 PM,5,1.4,84.68,120,19,0,29.96,0.25,34,OVC,M,M,M,100,M,M,-16.27
0CO,11/6/23,6:55:00 PM,5,1.4,84.68,130,15,0,29.98,0.25,21,OVC,M,M,M,300,M,M,-14.22
0CO,11/6/23,7:55:00 PM,5,1.4,84.68,130,5,0,29.97,0.25,24,OVC,M,M,M,300,M,M,-5.67
0CO,11/6/23,8:55:00 PM,5,1.4,84.68,130,19,0,29.99,0.25,23,OVC,M,M,M,300,M,M,-16.27
0CO,11/6/23,9:55:00 PM,3.2,-0.4,84.56,120,20,0,30.01,0.75,28,OVC,M,M,M,100,M,M,-19.11
0CO,11/6/23,10:55:00 PM,3.2,-0.4,84.56,130,18,0,30.03,0.25,21,OVC,M,M,M,200,M,M,-18.16
0CO,11/6/23,11:55:00 PM,3.2,-0.4,84.56,120,23,0,30.03,0.25,28,OVC,M,M,M,200,M,M,-20.4
0CO,11/7/23,12:55:00 AM,3.2,-0.4,84.56,120,19,0,30.07,0.25,M,OVC,M,M,M,200,M,M,-18.65
0CO,11/7/23,1:55:00 AM,3.2,-0.4,84.56,120,26,0,30.08,0.25,31,OVC,M,M,M,200,M,M,-21.55
0CO,11/7/23,2:55:00 AM,1.4,-2.2,84.43,120,22,0,30.1,0.25,26,OVC,M,M,M,200,M,M,-22.4
0CO,11/7/23,3:55:00 AM,3.2,-0.4,84.56,120,28,0,30.12,4,M,BKN,BKN,M,M,200,600,M,-22.26
0CO,11/7/23,4:55:00 AM,3.2,-0.4,84.56,120,31,0,30.12,0.25,38,OVC,M,M,M,200,M,M,-23.24
0CO,11/7/23,5:55:00 AM,5,1.4,84.68,120,28,0,30.12,0.75,35,OVC,M,M,M,200,M,M,-19.8
0CO,11/7/23,6:55:00 AM,5,1.4,84.68,130,23,0,30.14,0.25,31,OVC,M,M,M,200,M,M,-17.98
0CO,11/7/23,7:55:00 AM,5,1.4,84.68,150,19,0,30.14,10,M,CLR,M,M,M,M,M,M,-16.27
0CO,11/7/23,8:55:00 AM,5,1.4,84.68,140,25,0,30.14,4,28,SCT,SCT,M,M,100,8500,M,-18.74
0CO,11/7/23,9:55:00 AM,8.6,5,84.93,140,23,0,30.17,10,M,BKN,BKN,M,M,9000,12000,M,-13.14
0CO,11/7/23,10:55:00 AM,10.4,8.6,92.25,120,26,0,30.17,10,31,SCT,OVC,M,M,7000,9000,M,-11.77
0CO,11/7/23,11:55:00 AM,12.2,10.4,92.32,120,24,0,30.19,10,M,SCT,BKN,OVC,M,4000,4700,5500,-8.65
0CO,11/7/23,12:55:00 PM,12.2,10.4,92.32,120,27,0,30.21,0.5,M,OVC,M,M,M,300,M,M,-9.64
0CO,11/7/23,1:55:00 PM,14,12.2,92.38,120,20,0,30.24,0.25,25,OVC,M,M,M,100,M,M,-4.77
0CO,11/7/23,2:55:00 PM,14,12.2,92.38,120,19,0,30.26,0.25,M,OVC,M,M,M,100,M,M,-4.37
0CO,11/7/23,3:55:00 PM,15.8,12.2,85.4,120,26,0,30.27,0.25,33,OVC,M,M,M,100,M,M,-4.43
0CO,11/7/23,4:55:00 PM,15.8,14,92.44,130,21,0,30.28,0.25,32,OVC,M,M,M,100,M,M,-2.75
0CO,11/7/23,5:55:00 PM,17.6,14,85.51,120,31,0,30.27,0.25,36,OVC,M,M,M,100,M,M,-3.38
0CO,11/7/23,6:55:00 PM,17.6,14,85.51,120,36,0,30.24,0.25,42,OVC,M,M,M,100,M,M,-4.59
0CO,11/7/23,7:55:00 PM,15.8,14,92.44,120,35,0,30.23,0.25,40,OVC,M,M,M,100,M,M,-6.87
0CO,11/7/23,8:55:00 PM,17.6,14,85.51,140,24,0,30.22,0.25,31,OVC,M,M,M,100,M,M,-1.37
0CO,11/7/23,9:55:00 PM,17.6,15.8,92.5,140,22,0,30.22,0.25,29,OVC,M,M,M,100,M,M,-0.7
0CO,11/7/23,10:55:00 PM,17.6,15.8,92.5,130,23,0,30.21,0.25,30,OVC,M,M,M,100,M,M,-1.04
0CO,11/7/23,11:55:00 PM,17.6,14,85.51,150,18,0,30.21,0.25,23,OVC,M,M,M,100,M,M,0.79
0CO,11/8/23,12:55:00 AM,15.8,14,92.44,120,23,0,30.2,0.75,30,OVC,M,M,M,100,M,M,-3.46
0CO,11/8/23,1:55:00 AM,15.8,14,92.44,120,19,0,30.21,1,27,BKN,M,M,M,200,M,M,-1.99
0CO,11/8/23,2:55:00 AM,15.8,14,92.44,120,19,0,30.2,0.25,M,OVC,M,M,M,200,M,M,-1.99
0CO,11/8/23,3:55:00 AM,14,12.2,92.38,120,21,0,30.22,0.25,26,OVC,M,M,M,200,M,M,-5.15
0CO,11/8/23,4:55:00 AM,14,12.2,92.38,120,20,0,30.22,0.25,25,OVC,M,M,M,200,M,M,-4.77
0CO,11/8/23,5:55:00 AM,14,12.2,92.38,130,21,0,30.19,0.25,M,OVC,M,M,M,200,M,M,-5.15
0CO,11/8/23,6:55:00 AM,14,12.2,92.38,M,M,0,30.19,0.25,M,OVC,M,M,M,200,M,M,M
0CO,11/8/23,7:55:00 AM,14,12.2,92.38,M,M,0,30.18,0.25,M,OVC,M,M,M,200,M,M,M
0CO,11/8/23,8:55:00 AM,14,12.2,92.38,120,19,0,30.18,0.25,30,OVC,M,M,M,200,M,M,-4.37
0CO,11/8/23,9:55:00 AM,14,12.2,92.38,120,24,0,30.17,0.25,30,OVC,M,M,M,200,M,M,-6.22
0CO,11/8/23,10:55:00 AM,14,10.4,85.28,120,18,0,30.17,0.25,31,OVC,M,M,M,200,M,M,-3.95
0CO,11/8/23,11:55:00 AM,12.2,10.4,92.32,120,19,0,30.17,0.25,26,OVC,M,M,M,200,M,M,-6.75
0CO,11/8/23,12:55:00 PM,12.2,10.4,92.32,M,M,0,30.19,0.25,M,OVC,M,M,M,200,M,M,M
0CO,11/8/23,1:55:00 PM,12.2,10.4,92.32,M,M,0,30.21,0.25,M,OVC,M,M,M,200,M,M,M
0CO,11/8/23,2:55:00 PM,14,12.2,92.38,M,M,0,30.23,1,M,OVC,M,M,M,700,M,M,M
0CO,11/8/23,3:55:00 PM,15.8,12.2,85.4,M,M,0,30.22,0.5,M,OVC,M,M,M,500,M,M,M
0CO,11/8/23,4:55:00 PM,17.6,14,85.51,40,8,0.02,30.2,0.25,18,OVC,M,M,M,300,M,M,6.37
0CO,11/8/23,5:55:00 PM,19.4,17.6,92.57,M,M,0.02,30.17,0.25,M,OVC,M,M,M,300,M,M,M
0CO,11/8/23,6:55:00 PM,19.4,19.4,100,M,M,0,30.15,0.75,M,BKN,BKN,OVC,M,500,800,1300,M
0CO,11/8/23,7:55:00 PM,19.4,17.6,92.57,100,19,0.03,30.13,0.75,30,BKN,BKN,OVC,M,200,600,1100,2.77
0CO,11/8/23,8:55:00 PM,19.4,17.6,92.57,110,22,0,30.12,0.75,29,OVC,M,M,M,700,M,M,1.71
0CO,11/8/23,9:55:00 PM,19.4,17.6,92.57,140,19,0,30.12,1,33,OVC,M,M,M,600,M,M,2.77
0CO,11/8/23,10:55:00 PM,19.4,17.6,92.57,100,16,0,30.1,5,25,SCT,BKN,OVC,M,600,1000,2400,4
0CO,11/8/23,11:55:00 PM,17.6,15.8,92.5,310,5,0.01,30.08,0.25,M,OVC,M,M,M,200,M,M,9.29
0CO,11/9/23,12:55:00 AM,17.6,14,85.51,30,4,0,30.08,0.75,M,BKN,OVC,M,M,200,800,M,10.6
0CO,11/9/23,1:55:00 AM,15.8,12.2,85.4,320,4,0,30.08,0.5,M,OVC,M,M,M,200,M,M,8.5
0CO,11/9/23,2:55:00 AM,14,12.2,92.38,90,5,0,30.06,0.5,M,OVC,M,M,M,200,M,M,5.02
0CO,11/9/23,3:55:00 AM,15.8,14,92.44,330,3,0.01,30.05,0.75,M,OVC,M,M,M,300,M,M,10.17
0CO,11/9/23,4:55:00 AM,15.8,14,92.44,80,9,0,30.04,0.5,16,OVC,M,M,M,300,M,M,3.37
0CO,11/9/23,5:55:00 AM,14,12.2,92.38,80,7,0,30.02,4,15,BKN,OVC,M,M,500,1000,M,2.84
0CO,11/9/23,6:55:00 AM,14,12.2,92.38,350,7,0,29.99,0.25,M,OVC,M,M,M,100,M,M,2.84
0CO,11/9/23,7:55:00 AM,14,12.2,92.38,360,9,0,29.96,0.25,25,OVC,M,M,M,100,M,M,1.13
0CO,11/9/23,8:55:00 AM,14,12.2,92.38,360,11,0,29.95,M,26,OVC,M,M,M,100,M,M,-0.28
0CO,11/9/23,9:55:00 AM,14,12.2,92.38,M,M,0,29.93,M,M,OVC,M,M,M,100,M,M,M
0CO,11/9/23,10:55:00 AM,14,12.2,92.38,350,26,0,29.93,M,M,OVC,M,M,M,100,M,M,-6.88
0CO,11/9/23,11:55:00 AM,14,12.2,92.38,340,19,0,29.93,M,32,OVC,M,M,M,100,M,M,-4.37
0CO,11/9/23,12:55:00 PM,14,12.2,92.38,M,M,0,29.93,M,M,OVC,M,M,M,100,M,M,M
0CO,11/9/23,1:55:00 PM,14,12.2,92.38,340,23,0,29.94,M,30,OVC,M,M,M,100,M,M,-5.88
0CO,11/9/23,2:55:00 PM,15.8,12.2,85.4,M,M,0,29.95,M,M,OVC,M,M,M,100,M,M,M
0CO,11/9/23,3:55:00 PM,15.8,14,92.44,M,M,0,29.95,M,M,OVC,M,M,M,100,M,M,M
0CO,11/9/23,4:55:00 PM,15.8,14,92.44,M,M,0.01,29.97,M,M,OVC,M,M,M,100,M,M,M
0CO,11/9/23,5:55:00 PM,17.6,14,85.51,340,27,0.01,29.96,M,M,OVC,M,M,M,100,M,M,-2.28
0CO,11/9/23,6:55:00 PM,17.6,14,85.51,M,M,0.01,29.97,M,M,OVC,M,M,M,100,M,M,M
0CO,11/9/23,7:55:00 PM,17.6,15.8,92.5,330,28,0.02,29.97,M,M,OVC,M,M,M,100,M,M,-2.57
0CO,11/9/23,8:55:00 PM,17.6,15.8,92.5,M,M,0.01,29.97,M,M,OVC,M,M,M,100,M,M,M
0CO,11/9/23,9:55:00 PM,19.4,17.6,92.57,320,34,0,29.97,M,48,OVC,M,M,M,100,M,M,-1.62
0CO,11/9/23,10:55:00 PM,19.4,17.6,92.57,330,33,0,30.02,M,49,OVC,M,M,M,100,M,M,-1.38
0CO,11/9/23,11:55:00 PM,17.6,14,85.51,340,32,0,30.02,M,40,BKN,BKN,OVC,M,100,700,2100,-3.63
0CO,11/10/23,4  12:55:00 AM,17.6,14,85.51,340,31,0,30.07,M,41,BKN,BKN,OVC,M,100,900,3500,-3.38
0CO,11/10/23,4  1:35:00 AM,15.8,14,92.44,320,30,0,30.07,M,34,M,M,M,M,M,M,M,-5.59
0CO,11/10/23,4  2:55:00 AM,17.6,14,85.51,330,31,0,30.1,M,36,M,M,M,M,M,M,M,-3.38
0CO,11/10/23,4  3:55:00 AM,17.6,14,85.51,330,29,0,30.13,M,39,BKN,BKN,M,M,100,500,M,-2.84
0CO,11/10/23,4  4:55:00 AM,17.6,14,85.51,330,28,0,30.17,M,35,OVC,M,M,M,100,M,M,-2.57
0CO,11/10/23,4  5:55:00 AM,17.6,14,85.51,350,19,0,30.17,0.5,32,OVC,M,M,M,100,M,M,0.39
0CO,11/10/23,4  6:55:00 AM,17.6,14,85.51,330,25,0.01,30.19,1,31,BKN,M,M,M,100,M,M,-1.68
0CO,11/10/23,4  7:55:00 AM,15.8,14,92.44,330,22,0,30.19,0.25,32,OVC,M,M,M,100,M,M,-3.11
0CO,11/10/23,4  8:55:00 AM,15.8,14,92.44,340,22,0,30.22,10,30,CLR,M,M,M,M,M,M,-3.11
0CO,11/10/23,4  9:55:00 AM,15.8,14,92.44,340,24,0.02,30.23,7,28,CLR,M,M,M,M,M,M,-3.8
0CO,11/10/23,4  10:55:00 AM,17.6,14,85.51,330,18,0,30.26,10,26,CLR,M,M,M,M,M,M,0.79
0CO,11/10/23,4  11:55:00 AM,15.8,14,92.44,330,20,0.01,30.28,10,25,CLR,M,M,M,M,M,M,-2.38
0CO,11/10/23,4  12:55:00 PM,17.6,14,85.51,320,17,0,30.29,10,25,CLR,M,M,M,M,M,M,1.21
0CO,11/10/23,4  1:55:00 PM,17.6,15.8,92.5,320,20,0,30.31,10,M,CLR,M,M,M,M,M,M,0.01
0CO,11/10/23,4  2:55:00 PM,19.4,17.6,92.57,320,15,0,30.36,10,M,CLR,M,M,M,M,M,M,4.45
0CO,11/10/23,4  3:55:00 PM,19.4,17.6,92.57,320,11,0,30.38,10,18,CLR,M,M,M,M,M,M,6.54
0CO,11/10/23,4  4:55:00 PM,21.2,19.4,92.63,320,13,0,30.38,10,19,CLR,M,M,M,M,M,M,7.73
0CO,11/10/23,4  5:55:00 PM,23,21.2,92.69,330,13,0,30.39,10,19,CLR,M,M,M,M,M,M,10.04
0CO,11/10/23,4  6:55:00 PM,23,21.2,92.69,340,18,0,30.37,10,21,CLR,M,M,M,M,M,M,7.9
0CO,11/10/23,4  7:55:00 PM,23,21.2,92.69,320,11,0,30.38,10,21,CLR,M,M,M,M,M,M,11.09
0CO,11/10/23,4  8:55:00 PM,23,21.2,92.69,300,10,0,30.38,10,18,CLR,M,M,M,M,M,M,11.68
0CO,11/10/23,4  9:55:00 PM,23,21.2,92.69,320,12,0,30.37,10,21,CLR,M,M,M,M,M,M,10.55
0CO,11/10/23,4  10:55:00 PM,23,19.4,85.85,280,14,0,30.39,10,20,CLR,M,M,M,M,M,M,9.56
0CO,11/10/23,4  11:55:00 PM,23,12.2,62.78,320,14,0,30.39,10,20,CLR,M,M,M,M,M,M,9.56
0CO,11/11/23,4  12:55:00 AM,24.8,8.6,49.59,320,14,0.01,30.39,10,20,CLR,M,M,M,M,M,M,11.88
0CO,11/11/23,4  1:55:00 AM,24.8,3.2,38.77,320,13,0,30.4,10,23,CLR,M,M,M,M,M,M,12.34
0CO,11/11/23,4  2:55:00 AM,24.8,3.2,38.77,330,16,0.02,30.41,10,24,CLR,M,M,M,M,M,M,11.03
0CO,11/11/23,4  3:55:00 AM,24.8,-0.4,32.78,340,15,0.01,30.41,10,25,CLR,M,M,M,M,M,M,11.45
0CO,11/11/23,4  4:55:00 AM,23,-0.4,35.34,340,8,0,30.43,10,19,CLR,M,M,M,M,M,M,13.03
0CO,11/11/23,4  5:55:00 AM,24.8,-0.4,32.78,320,11,0.01,30.41,10,15,CLR,M,M,M,M,M,M,13.37
0CO,11/11/23,4  6:55:00 AM,26.6,-0.4,30.42,270,14,0,30.41,10,18,CLR,M,M,M,M,M,M,14.2
0CO,11/11/23,4  7:55:00 AM,26.6,-0.4,30.42,320,8,0,30.41,10,17,CLR,M,M,M,M,M,M,17.46
0CO,11/11/23,4  8:55:00 AM,24.8,-2.2,30.11,280,9,0,30.39,10,16,CLR,M,M,M,M,M,M,14.56
0CO,11/11/23,4  9:55:00 AM,26.6,-0.4,30.42,290,10,0,30.38,10,16,CLR,M,M,M,M,M,M,16.2
0CO,11/11/23,4  10:55:00 AM,26.6,-0.4,30.42,320,12,0.01,30.36,10,23,CLR,M,M,M,M,M,M,15.13
0CO,11/11/23,4  11:55:00 AM,26.6,1.4,33.09,290,17,0,30.36,10,M,CLR,M,M,M,M,M,M,13
0CO,11/11/23,4  12:55:00 PM,26.6,1.4,33.09,310,18,0,30.36,10,24,CLR,M,M,M,M,M,M,12.64
0CO,11/11/23,4  1:55:00 PM,26.6,1.4,33.09,310,16,0,30.37,10,M,CLR,M,M,M,M,M,M,13.38
0CO,11/11/23,4  2:55:00 PM,28.4,3.2,33.41,300,19,0,30.38,10,24,CLR,M,M,M,M,M,M,14.68
0CO,11/11/23,4  3:55:00 PM,30.2,3.2,31.04,320,12,0,30.4,10,20,CLR,M,M,M,M,M,M,19.71
0CO,11/11/23,4  4:55:00 PM,30.2,3.2,31.04,300,11,0,30.4,10,22,CLR,M,M,M,M,M,M,20.19
0CO,11/11/23,4  5:55:00 PM,30.2,6.8,36.6,300,9,0,30.38,10,15,CLR,M,M,M,M,M,M,21.28
0CO,11/11/23,4  6:55:00 PM,30.2,8.6,39.7,320,10,0,30.36,10,16,CLR,M,M,M,M,M,M,20.71
0CO,11/11/23,4  7:55:00 PM,30.2,10.4,43.04,300,10,0,30.34,10,M,CLR,M,M,M,M,M,M,20.71
0CO,11/11/23,4  8:55:00 PM,30.2,10.4,43.04,320,14,0,30.32,10,19,CLR,M,M,M,M,M,M,18.84
0CO,11/11/23,4  9:55:00 PM,30.2,10.4,43.04,290,10,0,30.31,10,16,CLR,M,M,M,M,M,M,20.71
0CO,11/11/23,4  10:55:00 PM,30.2,8.6,39.7,310,10,0,30.3,10,M,CLR,M,M,M,M,M,M,20.71
0CO,11/11/23,4  11:55:00 PM,30.2,8.6,39.7,210,4,0,30.28,10,M,CLR,M,M,M,M,M,M,25.32
0CO,11/12/23,4  12:55:00 AM,30.2,8.6,39.7,160,14,0,30.27,10,M,CLR,M,M,M,M,M,M,18.84
0CO,11/12/23,4  1:35:00 AM,28.4,8.6,42.73,160,13,0,30.25,10,M,CLR,M,M,M,M,M,M,16.96
0CO,11/12/23,4  2:55:00 AM,28.4,8.6,42.73,180,16,0,30.24,10,M,CLR,M,M,M,M,M,M,15.73
0CO,11/12/23,4  3:55:00 AM,28.4,6.8,39.39,220,11,0,30.22,10,20,CLR,M,M,M,M,M,M,17.92
0CO,11/12/23,4  4:55:00 AM,28.4,6.8,39.39,190,17,0,30.2,10,M,CLR,M,M,M,M,M,M,15.36
0CO,11/12/23,4  5:55:00 AM,28.4,3.2,33.41,250,12,0,30.17,10,15,CLR,M,M,M,M,M,M,17.42
0CO,11/12/23,4  6:55:00 AM,26.6,3.2,35.98,240,12,0,30.14,10,23,CLR,M,M,M,M,M,M,15.13
0CO,11/12/23,4  7:55:00 AM,26.6,-2.2,27.94,250,11,0,30.11,10,20,CLR,M,M,M,M,M,M,15.64
0CO,11/12/23,4  8:55:00 AM,26.6,-0.4,30.42,250,15,0,30.08,10,26,CLR,M,M,M,M,M,M,13.78
0CO,11/12/23,4  9:55:00 AM,26.6,-2.2,27.94,260,16,0,30.06,10,21,CLR,M,M,M,M,M,M,13.38
0CO,11/12/23,4  10:55:00 AM,26.6,-5.8,23.52,260,22,0,30.01,10,33,CLR,M,M,M,M,M,M,11.35
0CO,11/12/23,4  11:55:00 AM,26.6,-5.8,23.52,290,18,0,30,10,31,CLR,M,M,M,M,M,M,12.64
0CO,11/12/23,4  12:55:00 PM,24.8,-4,27.63,310,12,0,29.98,10,25,CLR,M,M,M,M,M,M,12.84
0CO,11/12/23,4  1:55:00 PM,23,-0.4,35.34,250,21,0,29.97,10,28,CLR,M,M,M,M,M,M,6.85
0CO,11/12/23,4  2:55:00 PM,26.6,1.4,33.09,220,9,0,29.97,10,16,CLR,M,M,M,M,M,M,16.8
0CO,11/12/23,4  3:55:00 PM,26.6,-0.4,30.42,250,9,0,29.95,10,16,CLR,M,M,M,M,M,M,16.8
0CO,11/12/23,4  4:55:00 PM,28.4,3.2,33.41,210,11,0,29.93,10,20,CLR,M,M,M,M,M,M,17.92
0CO,11/12/23,4  5:55:00 PM,28.4,3.2,33.41,200,10,0,29.92,10,15,CLR,M,M,M,M,M,M,18.45
0CO,11/12/23,4  6:55:00 PM,26.6,5,39.08,250,11,0,29.89,10,29,CLR,M,M,M,M,M,M,15.64
0CO,11/12/23,4  7:55:00 PM,19.4,12.2,73.13,80,7,0,29.85,10,M,SCT,M,M,M,6000,M,M,9.42
0CO,11/12/23,4  8:55:00 PM,17.6,15.8,92.5,10,8,0,29.84,0.25,M,OVC,M,M,M,100,M,M,6.37
0CO,11/12/23,4  9:55:00 PM,15.8,14,92.44,20,8,0,29.83,0.25,15,OVC,M,M,M,100,M,M,4.16
0CO,11/12/23,4  10:55:00 PM,15.8,14,92.44,330,24,0.01,29.84,0.25,29,OVC,M,M,M,100,M,M,-3.8
0CO,11/12/23,4  11:55:00 PM,12.2,10.4,92.32,320,33,0,29.83,0.25,38,OVC,M,M,M,300,M,M,-11.37
0CO,11/13/23,4  12:55:00 AM,12.2,8.6,85.17,320,32,0,29.86,1,39,BKN,OVC,M,M,1100,2000,M,-11.1
0CO,11/13/23,4  1:55:00 AM,12.2,10.4,92.32,310,32,0,29.86,0.25,43,OVC,M,M,M,200,M,M,-11.1
0CO,11/13/23,4  2:55:00 AM,12.2,10.4,92.32,320,30,0,29.89,0.25,39,OVC,M,M,M,200,M,M,-10.54
0CO,11/13/23,4  3:55:00 AM,12.2,10.4,92.32,M,M,0,29.89,0.25,M,OVC,M,M,M,200,M,M,M
0CO,11/13/23,4  4:55:00 AM,12.2,8.6,85.17,M,M,0,29.93,0.25,M,OVC,M,M,M,200,M,M,M
0CO,11/13/23,4  5:55:00 AM,10.4,8.6,92.25,M,M,0,29.97,0.25,M,OVC,M,M,M,200,M,M,M
0CO,11/13/23,4  6:55:00 AM,10.4,6.8,85.05,M,M,0,29.99,0.25,M,OVC,M,M,M,200,M,M,M
0CO,11/13/23,4  7:55:00 AM,8.6,5,84.93,M,M,0,29.98,0.25,M,OVC,M,M,M,500,M,M,M
0CO,11/13/23,4  8:55:00 AM,8.6,5,84.93,320,32,0,30.01,0.5,42,BKN,OVC,M,M,500,1300,M,-16.08
0CO,11/13/23,4  9:55:00 AM,8.6,3.2,78.18,320,27,0,30.02,0.5,39,OVC,M,M,M,300,M,M,-14.55
0CO,11/13/23,4  10:55:00 AM,6.8,3.2,84.8,310,29,0,30.05,0.5,36,OVC,M,M,M,300,M,M,-17.66
0CO,11/13/23,4  11:55:00 AM,5,1.4,84.68,310,35,0,30.05,0.5,42,OVC,M,M,M,300,M,M,-21.93
0CO,11/13/23,4  12:55:00 PM,5,1.4,84.68,310,38,0,30.06,0.25,M,OVC,M,M,M,300,M,M,-22.73
0CO,11/13/23,4  1:55:00 PM,5,1.4,84.68,310,29,0,30.12,0.25,38,OVC,M,M,M,100,M,M,-20.13
0CO,11/13/23,4  2:55:00 PM,5,1.4,84.68,360,13,0,30.18,0.25,34,OVC,M,M,M,200,M,M,-13.02
0CO,11/13/23,4  3:55:00 PM,5,3.2,92.06,360,15,0,30.2,0.25,28,OVC,M,M,M,200,M,M,-14.22
0CO,11/13/23,4  4:55:00 PM,8.6,3.2,78.18,330,23,0.01,30.22,0.25,30,OVC,M,M,M,200,M,M,-13.14
0CO,11/13/23,4  5:55:00 PM,10.4,6.8,85.05,320,24,0,30.22,0.75,34,BKN,M,M,M,200,M,M,-11.08
0CO,11/13/23,4  6:55:00 PM,12.2,8.6,85.17,330,21,0,30.21,7,31,CLR,M,M,M,M,M,M,-7.55
0CO,11/13/23,4  7:55:00 PM,12.2,10.4,92.32,320,23,0,30.2,10,29,CLR,M,M,M,M,M,M,-8.3
0CO,11/13/23,4  8:55:00 PM,14,12.2,92.38,310,25,0,30.22,7,32,CLR,M,M,M,M,M,M,-6.56
0CO,11/13/23,4  9:55:00 PM,21.2,-4,32.15,310,27,0,30.24,7,34,CLR,M,M,M,M,M,M,2.62
0CO,11/13/23,4  10:55:00 PM,15.8,10.4,78.84,320,23,0,30.24,5,31,CLR,M,M,M,M,M,M,-3.46
0CO,11/13/23,4  11:55:00 PM,23,-0.4,35.34,300,28,0,30.24,7,41,CLR,M,M,M,M,M,M,4.82
0CO,11/14/23,4  12:55:00 AM,23,3.2,41.8,300,28,0,30.26,7,41,CLR,M,M,M,M,M,M,4.82
0CO,11/14/23,4  1:55:00 AM,24.8,5,42.11,300,29,0,30.26,7,44,CLR,M,M,M,M,M,M,7.03
0CO,11/14/23,4  2:55:00 AM,26.6,5,39.08,300,31,0,30.26,10,38,CLR,M,M,M,M,M,M,9.04
0CO,11/14/23,4  3:55:00 AM,26.6,6.8,42.42,300,31,0,30.26,10,41,CLR,M,M,M,M,M,M,9.04
0CO,11/14/23,4  4:55:00 AM,26.6,5,39.08,300,25,0,30.26,10,36,CLR,M,M,M,M,M,M,10.5
0CO,11/14/23,4  5:55:00 AM,23,3.2,41.8,310,26,0,30.26,10,33,CLR,M,M,M,M,M,M,5.35
0CO,11/14/23,4  6:55:00 AM,26.6,3.2,35.98,290,29,0,30.26,10,40,CLR,M,M,M,M,M,M,9.5
0CO,11/14/23,4  7:55:00 AM,23,3.2,41.8,310,22,0,30.25,10,28,CLR,M,M,M,M,M,M,6.53
0CO,11/14/23,4  8:55:00 AM,26.6,-0.4,30.42,280,30,0,30.23,10,43,CLR,M,M,M,M,M,M,9.27
0CO,11/14/23,4  9:55:00 AM,28.4,-0.4,28.25,280,37,0,30.23,4,45,CLR,M,M,M,M,M,M,10.32
0CO,11/14/23,4  10:55:00 AM,28.4,-4,23.81,280,28,0,30.24,10,40,CLR,M,M,M,M,M,M,12.2
0CO,11/14/23,4  11:55:00 AM,28.4,-5.8,21.84,280,32,0,30.23,10,45,CLR,M,M,M,M,M,M,11.31
0CO,11/14/23,4  12:55:00 PM,26.6,-5.8,23.52,270,32,0,30.23,10,40,CLR,M,M,M,M,M,M,8.82
0CO,11/14/23,4  1:55:00 PM,26.6,-5.8,23.52,280,34,0,30.23,7,52,CLR,M,M,M,M,M,M,8.4
0CO,11/14/23,4  2:55:00 PM,28.4,-7.6,20.01,270,36,0,30.24,7,51,CLR,M,M,M,M,M,M,10.51
0CO,11/14/23,4  3:55:00 PM,28.4,-5.8,21.84,270,32,0,30.26,10,51,CLR,M,M,M,M,M,M,11.31
0CO,11/14/23,4  4:55:00 PM,30.2,-5.8,20.29,270,32,0,30.28,10,45,CLR,M,M,M,M,M,M,13.8
0CO,11/14/23,4  5:55:00 PM,30.2,-4,22.13,280,22,0,30.29,10,43,CLR,M,M,M,M,M,M,16.17
0CO,11/14/23,4  6:55:00 PM,30.2,-0.4,26.25,270,28,0,30.27,10,36,CLR,M,M,M,M,M,M,14.66
0CO,11/14/23,4  7:55:00 PM,32,-0.4,24.4,260,30,0,30.27,10,38,CLR,M,M,M,M,M,M,16.69
0CO,11/14/23,4  8:55:00 PM,32,1.4,26.55,250,22,0,30.27,10,41,CLR,M,M,M,M,M,M,18.58
0CO,11/14/23,4  9:55:00 PM,32,1.4,26.55,260,28,0,30.26,10,38,CLR,M,M,M,M,M,M,17.12
0CO,11/14/23,4  10:55:00 PM,32,1.4,26.55,270,23,0,30.28,10,39,CLR,M,M,M,M,M,M,18.31
0CO,11/14/23,4  11:55:00 PM,30.2,-2.2,24.11,260,25,0,30.28,10,36,CLR,M,M,M,M,M,M,15.38
0CO,11/15/23,4  12:55:00 AM,30.2,-4,22.13,250,17,0,30.28,10,32,CLR,M,M,M,M,M,M,17.72
0CO,11/15/23,4  1:55:00 AM,28.4,-4,23.81,250,14,0,30.28,10,19,CLR,M,M,M,M,M,M,16.52
0CO,11/15/23,4  2:55:00 AM,28.4,-5.8,21.84,170,10,0,30.28,10,14,CLR,M,M,M,M,M,M,18.45
0CO,11/15/23,4  3:55:00 AM,28.4,-5.8,21.84,230,11,0,30.28,10,16,CLR,M,M,M,M,M,M,17.92
0CO,11/15/23,4  4:55:00 AM,28.4,-7.6,20.01,250,15,0,30.26,10,19,CLR,M,M,M,M,M,M,16.11
0CO,11/15/23,4  5:55:00 AM,28.4,-7.6,20.01,240,13,0,30.24,10,23,CLR,M,M,M,M,M,M,16.96
0CO,11/15/23,4  6:55:00 AM,28.4,-7.6,20.01,240,12,0,30.21,10,17,CLR,M,M,M,M,M,M,17.42
0CO,11/15/23,4  7:55:00 AM,28.4,-7.6,20.01,190,12,0,30.19,10,18,CLR,M,M,M,M,M,M,17.42
0CO,11/15/23,4  8:55:00 AM,30.2,-7.6,18.6,210,9,0,30.17,10,15,CLR,M,M,M,M,M,M,21.28
0CO,11/15/23,4  9:55:00 AM,30.2,-7.6,18.6,200,12,0,30.15,10,17,CLR,M,M,M,M,M,M,19.71
0CO,11/15/23,4  10:55:00 AM,28.4,-7.6,20.01,200,12,0,30.13,10,19,CLR,M,M,M,M,M,M,17.42
0CO,11/15/23,4  11:55:00 AM,30.2,-9.4,17.03,210,9,0,30.11,10,15,CLR,M,M,M,M,M,M,21.28
0CO,11/15/23,4  12:55:00 PM,28.4,-7.6,20.01,170,17,0,30.08,10,23,CLR,M,M,M,M,M,M,15.36
0CO,11/15/23,4  1:55:00 PM,28.4,-7.6,20.01,180,7,0,30.06,10,M,CLR,M,M,M,M,M,M,20.39
0CO,11/15/23,4  2:55:00 PM,28.4,-4,23.81,230,12,0,30.04,10,17,CLR,M,M,M,M,M,M,17.42
0CO,11/15/23,4  3:55:00 PM,30.2,-2.2,24.11,230,15,0,30.02,10,28,CLR,M,M,M,M,M,M,18.45
0CO,11/15/23,4  4:55:00 PM,30.2,1.4,28.55,240,15,0,30,10,29,CLR,M,M,M,M,M,M,18.45
0CO,11/15/23,4  5:55:00 PM,32,1.4,26.55,210,10,0,29.98,10,21,CLR,M,M,M,M,M,M,22.97
0CO,11/15/23,4  6:55:00 PM,32,3.2,28.86,240,20,0,29.93,10,28,CLR,M,M,M,M,M,M,19.14
0CO,11/15/23,4  7:55:00 PM,32,3.2,28.86,220,15,0,29.91,10,30,CLR,M,M,M,M,M,M,20.78
0CO,11/15/23,4  8:55:00 PM,32,3.2,28.86,210,9,0,29.88,10,45,CLR,M,M,M,M,M,M,23.51
0CO,11/15/23,4  9:55:00 PM,32,3.2,28.86,190,15,0,29.87,10,26,CLR,M,M,M,M,M,M,20.78
0CO,11/15/23,4  10:55:00 PM,32,3.2,28.86,190,17,0,29.86,10,27,CLR,M,M,M,M,M,M,20.08
0CO,11/15/23,4  11:55:00 PM,28.4,1.4,30.73,240,12,0,29.85,10,19,CLR,M,M,M,M,M,M,17.42
0CO,11/16/23,4  12:55:00 AM,28.4,3.2,33.41,240,18,0,29.84,10,32,CLR,M,M,M,M,M,M,15.01
0CO,11/16/23,4  1:55:00 AM,26.6,1.4,33.09,210,12,0,29.84,10,23,CLR,M,M,M,M,M,M,15.13
0CO,11/16/23,4  2:55:00 AM,26.6,1.4,33.09,200,11,0,29.82,10,18,CLR,M,M,M,M,M,M,15.64
0CO,11/16/23,4  3:55:00 AM,24.8,3.2,38.77,230,14,0,29.82,10,21,CLR,M,M,M,M,M,M,11.88
0CO,11/16/23,4  4:55:00 AM,24.8,1.4,35.66,240,19,0,29.81,10,27,CLR,M,M,M,M,M,M,9.92
0CO,11/16/23,4  5:55:00 AM,23,-0.4,35.34,260,20,0,29.79,10,31,CLR,M,M,M,M,M,M,7.19
0CO,11/16/23,4  6:55:00 AM,17.6,3.2,52.6,330,11,0,29.78,10,17,CLR,M,M,M,M,M,M,4.27
0CO,11/16/23,4  7:55:00 AM,17.6,3.2,52.6,320,8,0,29.77,10,14,CLR,M,M,M,M,M,M,6.37
0CO,11/16/23,4  8:55:00 AM,17.6,3.2,52.6,280,12,0,29.76,10,23,CLR,M,M,M,M,M,M,3.67
0CO,11/16/23,4  9:55:00 AM,17.6,1.4,48.39,230,10,0,29.76,10,20,CLR,M,M,M,M,M,M,4.91
0CO,11/16/23,4  10:55:00 AM,15.8,1.4,52.31,270,16,0,29.75,10,24,CLR,M,M,M,M,M,M,-0.7
0CO,11/16/23,4  11:55:00 AM,14,1.4,56.58,290,14,0,29.75,10,M,CLR,M,M,M,M,M,M,-2.04
0CO,11/16/23,4  12:55:00 PM,12.2,3.2,66.58,330,9,0,29.75,10,16,SCT,M,M,M,3700,M,M,-1.11
0CO,11/16/23,4  1:55:00 PM,12.2,3.2,66.58,300,12,0,29.75,10,M,CLR,M,M,M,M,M,M,-3.2
0CO,11/16/23,4  2:55:00 PM,10.4,3.2,72.12,310,10,0,29.78,10,M,CLR,M,M,M,M,M,M,-4.12
0CO,11/16/23,4  3:55:00 PM,12.2,3.2,66.58,300,13,0,29.78,10,16,CLR,M,M,M,M,M,M,-3.8
0CO,11/16/23,4  4:55:00 PM,12.2,3.2,66.58,270,19,0,29.79,10,23,CLR,M,M,M,M,M,M,-6.75
0CO,11/16/23,4  5:55:00 PM,15.8,1.4,52.31,240,14,0,29.81,10,21,SCT,SCT,M,M,2800,3500,M,0.28
0CO,11/16/23,4  6:55:00 PM,15.8,1.4,52.31,300,12,0,29.78,10,23,SCT,SCT,BKN,M,2300,3000,3700,1.38
0CO,11/16/23,4  7:55:00 PM,14,6.8,72.53,350,10,0,29.79,10,16,BKN,BKN,M,M,3600,4200,M,0.4
0CO,11/16/23,4  8:55:00 PM,15.8,8.6,72.73,330,8,0,29.81,10,17,BKN,BKN,OVC,M,3200,4000,4600,4.16
0CO,11/16/23,4  9:55:00 PM,14,10.4,85.28,340,7,0,29.83,5,M,SCT,BKN,OVC,M,1000,3000,4400,2.84
0CO,11/16/23,4  10:55:00 PM,12.2,10.4,92.32,340,7,0,29.86,7,M,BKN,BKN,BKN,M,200,2600,3400,0.64
0CO,11/16/23,4  11:55:00 PM,12.2,6.8,78.51,310,8,0,29.88,10,M,SCT,SCT,BKN,M,2700,3400,4000,-0.28
0CO,11/17/23,4  12:55:00 AM,10.4,6.8,85.05,320,10,0,29.89,10,M,SCT,BKN,OVC,M,2700,4300,5500,-4.12
0CO,11/17/23,4  1:55:00 AM,8.6,8.6,100,340,8,0,29.9,0.25,15,OVC,M,M,M,100,M,M,-4.71
0CO,11/17/23,4  2:55:00 AM,10.4,6.8,85.05,250,13,0,29.91,7,M,SCT,BKN,OVC,M,100,1500,3300,-6.1
0CO,11/17/23,4  3:55:00 AM,10.4,6.8,85.05,270,9,0,29.92,3,M,SCT,BKN,OVC,M,1500,2800,6000,-3.34
0CO,11/17/23,4  4:55:00 AM,8.6,5,84.93,280,11,0,29.92,7,18,SCT,BKN,OVC,M,2100,3000,6000,-7.1
0CO,11/17/23,4  5:55:00 AM,8.6,5,84.93,290,8,0,29.93,2.5,M,SCT,BKN,OVC,M,800,1900,6000,-4.71
0CO,11/17/23,4  6:55:00 AM,8.6,5,84.93,270,15,0,29.92,10,21,SCT,M,M,M,2500,M,M,-9.56
0CO,11/17/23,4  7:55:00 AM,8.6,3.2,78.18,290,14,0,29.9,10,23,SCT,M,M,M,2300,M,M,-9
0CO,11/17/23,4  8:55:00 AM,8.6,3.2,78.18,300,11,0,29.91,10,19,CLR,M,M,M,M,M,M,-7.1
0CO,11/17/23,4  9:55:00 AM,8.6,3.2,78.18,290,16,0,29.91,10,24,CLR,M,M,M,M,M,M,-10.08
0CO,11/17/23,4  10:55:00 AM,8.6,3.2,78.18,280,15,0,29.91,10,26,CLR,M,M,M,M,M,M,-9.56
0CO,11/17/23,4  11:55:00 AM,8.6,1.4,71.92,280,22,0,29.9,10,29,CLR,M,M,M,M,M,M,-12.76
0CO,11/17/23,4  12:55:00 PM,6.8,-0.4,71.71,310,16,0,29.9,7,M,CLR,M,M,M,M,M,M,-12.43
0CO,11/17/23,4  1:55:00 PM,5,1.4,84.68,320,26,0,29.91,0.25,32,OVC,M,M,M,100,M,M,-19.1
0CO,11/17/23,4  2:55:00 PM,6.8,3.2,84.8,310,22,0,29.93,0.25,29,OVC,M,M,M,100,M,M,-15.17
0CO,11/17/23,4  3:55:00 PM,6.8,3.2,84.8,340,18,0,29.95,5,23,CLR,M,M,M,M,M,M,-13.42
0CO,11/17/23,4  4:55:00 PM,8.6,5,84.93,350,12,0,29.97,10,20,CLR,M,M,M,M,M,M,-7.78
0CO,11/17/23,4  5:55:00 PM,10.4,5,78.35,350,18,0,29.98,10,29,CLR,M,M,M,M,M,M,-8.69
0CO,11/17/23,4  6:55:00 PM,12.2,5,72.33,340,18,0,29.96,10,28,CLR,M,M,M,M,M,M,-6.32
0CO,11/17/23,4  7:55:00 PM,12.2,5,72.33,350,11,0,29.95,10,23,CLR,M,M,M,M,M,M,-2.56
0CO,11/17/23,4  8:55:00 PM,14,3.2,61.51,330,13,0,29.95,10,22,CLR,M,M,M,M,M,M,-1.49
0CO,11/17/23,4  9:55:00 PM,14,5,66.82,330,18,0,29.94,10,24,CLR,M,M,M,M,M,M,-3.95
0CO,11/17/23,4  10:55:00 PM,14,3.2,61.51,340,19,0,29.94,10,M,CLR,M,M,M,M,M,M,-4.37
0CO,11/17/23,4  11:55:00 PM,12.2,3.2,66.58,330,15,0,29.94,10,M,CLR,M,M,M,M,M,M,-4.89
0CO,11/18/23,4  12:55:00 AM,10.4,-0.4,60.99,340,15,0,29.94,10,M,CLR,M,M,M,M,M,M,-7.22
0CO,11/18/23,4  1:55:00 AM,12.2,1.4,61.25,340,14,0,29.94,10,19,CLR,M,M,M,M,M,M,-4.36
0CO,11/18/23,4  2:55:00 AM,12.2,-0.4,56.3,330,16,0,29.93,10,24,CLR,M,M,M,M,M,M,-5.39
0CO,11/18/23,4  3:55:00 AM,12.2,-0.4,56.3,350,13,0,29.91,10,19,CLR,M,M,M,M,M,M,-3.8
0CO,11/18/23,4  4:55:00 AM,12.2,-4,47.46,360,11,0,29.9,10,17,CLR,M,M,M,M,M,M,-2.56
0CO,11/18/23,4  5:55:00 AM,10.4,-2.2,56.02,340,19,0,29.88,10,M,CLR,M,M,M,M,M,M,-9.13
0CO,11/18/23,4  6:55:00 AM,12.2,-2.2,51.71,330,25,0,29.83,10,35,CLR,M,M,M,M,M,M,-8.99
0CO,11/18/23,4  7:55:00 AM,10.4,1.4,66.35,340,20,0,29.82,10,M,CLR,M,M,M,M,M,M,-9.55
0CO,11/18/23,4  8:55:00 AM,12.2,-4,47.46,10,10,0,29.81,10,22,CLR,M,M,M,M,M,M,-1.86
0CO,11/18/23,4  9:55:00 AM,12.2,-5.8,43.53,360,7,0,29.78,10,15,CLR,M,M,M,M,M,M,0.64
0CO,11/18/23,4  10:55:00 AM,12.2,-7.6,39.89,340,15,0,29.77,10,M,CLR,M,M,M,M,M,M,-4.89
0CO,11/18/23,4  11:55:00 AM,12.2,-4,47.46,340,19,0,29.75,10,24,OVC,M,M,M,900,M,M,-6.75
0CO,11/18/23,4  12:55:00 PM,10.4,3.2,72.12,350,22,0,29.73,10,30,BKN,OVC,M,M,500,1100,M,-10.35
0CO,11/18/23,4  1:55:00 PM,10.4,8.6,92.25,340,27,0,29.76,1,30,OVC,M,M,M,300,M,M,-12.1
0CO,11/18/23,4  2:55:00 PM,12.2,10.4,92.32,340,17,0,29.75,0.25,21,OVC,M,M,M,100,M,M,-5.86
0CO,11/18/23,4  3:55:00 PM,14,12.2,92.38,340,24,0,29.74,2,31,OVC,M,M,M,100,M,M,-6.22
0CO,11/18/23,4  4:55:00 PM,15.8,12.2,85.4,350,15,0,29.74,10,25,OVC,M,M,M,1300,M,M,-0.22
0CO,11/18/23,4  5:55:00 PM,15.8,10.4,78.84,340,20,0,29.72,10,30,SCT,SCT,M,M,900,1900,M,-2.38
0CO,11/18/23,4  6:55:00 PM,15.8,14,92.44,310,30,0,29.65,1.25,40,BKN,OVC,M,M,500,900,M,-5.59
0CO,11/18/23,4  7:55:00 PM,17.6,14,85.51,320,28,0,29.64,0.25,39,OVC,M,M,M,100,M,M,-2.57
0CO,11/18/23,4  8:55:00 PM,17.6,14,85.51,300,36,0,29.61,0.75,46,OVC,M,M,M,100,M,M,-4.59
0CO,11/18/23,4  9:55:00 PM,14,12.2,92.38,310,29,0,29.63,10,37,SCT,M,M,M,1700,M,M,-7.78
0CO,11/18/23,4  10:55:00 PM,15.8,10.4,78.84,310,44,0,29.6,3,56,BKN,BKN,M,M,1700,2300,M,-8.82
0CO,11/18/23,4  11:55:00 PM,14,8.6,78.68,310,38,0,29.6,5,48,SCT,M,M,M,1900,M,M,-10.09
0CO,11/19/23,4  12:55:00 AM,14,10.4,85.28,310,39,0,29.61,5,58,BKN,BKN,OVC,M,1000,1500,2200,-10.32
0CO,11/19/23,4  1:55:00 AM,12.2,8.6,85.17,300,39,0,29.62,1,54,BKN,OVC,M,M,1200,1900,M,-12.85
0CO,11/19/23,4  2:55:00 AM,12.2,5,72.33,300,36,0,29.62,7,44,SCT,BKN,OVC,M,1600,2600,3200,-12.14
0CO,11/19/23,4  3:55:00 AM,10.4,8.6,92.25,M,M,0,29.65,3,M,SCT,BKN,OVC,M,200,1200,1800,M
0CO,11/19/23,4  4:55:00 AM,6.8,3.2,84.8,320,25,0,29.62,0.5,34,OVC,M,M,M,200,M,M,-16.3
0CO,11/19/23,4  5:55:00 AM,5,1.4,84.68,310,18,0,29.65,2.5,29,SCT,BKN,OVC,M,700,1800,3300,-15.79
0CO,11/19/23,4  6:55:00 AM,3.2,-0.4,84.56,330,10,0,29.67,4,M,SCT,BKN,OVC,M,1200,2500,4100,-13.15
0CO,11/19/23,4  7:55:00 AM,1.4,-4,77.49,360,9,0,29.67,0.5,23,BKN,BKN,OVC,M,300,600,1100,-14.54
0CO,11/19/23,4  8:55:00 AM,-0.4,-4,84.3,330,16,0,29.67,0.5,23,OVC,M,M,M,500,M,M,-21.81
0CO,11/19/23,4  9:55:00 AM,-0.4,-4,84.3,330,16,0,29.68,1,23,BKN,BKN,OVC,M,300,700,1300,-21.81
0CO,11/19/23,4  10:55:00 AM,-0.4,-5.8,77.32,320,14,0,29.69,1,M,OVC,M,M,M,1000,M,M,-20.6
0CO,11/19/23,4  11:55:00 AM,-2.2,-5.8,84.17,340,14,0,29.69,0.75,19,OVC,M,M,M,400,M,M,-22.92
0CO,11/19/23,4  12:55:00 PM,-4,-7.6,84.04,340,12,0,29.7,1.25,17,OVC,M,M,M,800,M,M,-23.82
0CO,11/19/23,4  1:55:00 PM,-4,-7.6,84.04,340,13,0,29.7,0.75,M,SCT,OVC,M,M,300,800,M,-24.55
0CO,11/19/23,4  2:55:00 PM,-4,-7.6,84.04,320,12,0,29.73,0.5,M,OVC,M,M,M,400,M,M,-23.82
0CO,11/19/23,4  3:55:00 PM,-4,-7.6,84.04,310,17,0,29.75,0.5,24,OVC,M,M,M,600,M,M,-27.09
0CO,11/19/23,4  4:55:00 PM,-4,-7.6,84.04,320,18,0,29.76,0.25,32,OVC,M,M,M,600,M,M,-27.64
0CO,11/19/23,4  5:55:00 PM,-4,-7.6,84.04,300,31,0,29.74,0.25,41,OVC,M,M,M,800,M,M,-33.17
0CO,11/19/23,4  6:55:00 PM,-2.2,-7.6,77.14,300,26,0,29.76,0.25,41,OVC,M,M,M,400,M,M,-28.89
0CO,11/19/23,4  7:55:00 PM,-2.2,-5.8,84.17,M,M,0,29.73,0.25,M,BKN,OVC,M,M,300,1200,M,M
0CO,11/19/23,4  8:35:00 PM,-0.4,-5.8,77.32,310,23,0,29.76,0.25,35,OVC,M,M,M,300,M,M,-25.24
0CO,11/19/23,4  9:55:00 PM,-4,-7.6,84.04,310,39,0,29.77,0.25,M,OVC,M,M,M,1900,M,M,-35.66
0CO,11/19/23,4  10:55:00 PM,-4,-7.6,84.04,300,39,0,29.79,0.25,M,BKN,OVC,M,M,1000,2000,M,-35.66
0CO,11/19/23,4  11:55:00 PM,-4,-7.6,84.04,300,39,0,29.78,0.5,56,BKN,OVC,M,M,1000,1500,M,-35.66
0CO,11/20/23,4  12:55:00 AM,-4,-7.6,84.04,M,M,0,29.78,0.5,M,OVC,M,M,M,700,M,M,M
0CO,11/20/23,4  1:55:00 AM,-4,-7.6,84.04,300,46,0,29.84,0.75,M,SCT,OVC,M,M,700,1600,M,-37.5
0CO,11/20/23,4  2:55:00 AM,-4,-7.6,84.04,310,41,0,29.9,1,55,SCT,BKN,OVC,M,600,1200,1700,-36.21
0CO,11/20/23,4  3:55:00 AM,-4,-7.6,84.04,300,36,0,29.97,1.5,43,SCT,BKN,OVC,M,1000,1600,2200,-34.78
0CO,11/20/23,4  4:55:00 AM,-4,-7.6,84.04,290,33,0,29.99,7,44,SCT,M,M,M,1800,M,M,-33.84
0CO,11/20/23,4  5:55:00 AM,-4,-7.6,84.04,290,34,0,30.03,10,41,CLR,M,M,M,M,M,M,-34.16
0CO,11/20/23,4  6:55:00 AM,-2.2,-9.4,70.63,290,31,0,30.06,10,41,CLR,M,M,M,M,M,M,-30.69
0CO,11/20/23,4  7:35:00 AM,-0.4,-13,54.27,300,34,0,30.06,10,47,CLR,M,M,M,M,M,M,-29.16
0CO,11/20/23,4  8:55:00 AM,1.4,-18.4,37.92,300,45,0,30.02,7,57,CLR,M,M,M,M,M,M,-29.55
0CO,11/20/23,4  9:55:00 AM,1.4,-18.4,37.92,300,42,0,30.05,7,50,CLR,M,M,M,M,M,M,-28.83
0CO,11/20/23,4  10:55:00 AM,1.4,-16.6,41.59,310,44,0,30.06,10,52,CLR,M,M,M,M,M,M,-29.32
0CO,11/20/23,4  11:55:00 AM,1.4,-16.6,41.59,310,39,0,30.12,10,45,CLR,M,M,M,M,M,M,-28.06
0CO,11/20/23,4  12:55:00 PM,3.2,-16.6,38.25,310,39,0,30.13,10,46,CLR,M,M,M,M,M,M,-25.52
0CO,11/20/23,4  1:55:00 PM,3.2,-18.4,34.88,310,41,0,30.13,10,47,CLR,M,M,M,M,M,M,-26.03
0CO,11/20/23,4  2:55:00 PM,5,-16.6,35.22,310,40,0,30.14,10,55,CLR,M,M,M,M,M,M,-23.24
0CO,11/20/23,4  3:55:00 PM,8.6,-13,35.87,300,34,0,30.19,10,44,CLR,M,M,M,M,M,M,-16.64
0CO,11/20/23,4  4:55:00 PM,8.6,-9.4,42.89,310,31,0,30.23,10,41,CLR,M,M,M,M,M,M,-15.79
0CO,11/20/23,4  5:55:00 PM,10.4,-7.6,43.21,320,31,0,30.24,10,39,CLR,M,M,M,M,M,M,-13.31
0CO,11/20/23,4  6:55:00 PM,14,-4,43.85,320,30,0,30.25,10,43,CLR,M,M,M,M,M,M,-8.07
0CO,11/20/23,4  7:55:00 PM,14,-0.4,52.01,320,24,0,30.25,10,36,CLR,M,M,M,M,M,M,-6.22
0CO,11/20/23,4  8:35:00 PM,12.2,-0.4,56.3,310,24,0,30.26,10,35,CLR,M,M,M,M,M,M,-8.65
0CO,11/20/23,4  9:55:00 PM,12.2,-0.4,56.3,340,29,0,30.25,10,40,CLR,M,M,M,M,M,M,-10.25
0CO,11/20/23,4  10:55:00 PM,12.2,-0.4,56.3,310,31,0,30.26,10,36,CLR,M,M,M,M,M,M,-10.83
0CO,11/20/23,4  11:55:00 PM,14,5,66.82,310,34,0,30.27,10,43,CLR,M,M,M,M,M,M,-9.13
0CO,11/21/23,4  12:55:00 AM,14,5,66.82,300,36,0,30.29,10,44,CLR,M,M,M,M,M,M,-9.62
0CO,11/21/23,4  1:55:00 AM,19.4,8.6,62.28,300,37,0,30.31,10,48,CLR,M,M,M,M,M,M,-2.29
0CO,11/21/23,4  2:55:00 AM,19.4,8.6,62.28,300,34,0,30.33,10,44,CLR,M,M,M,M,M,M,-1.62
0CO,11/21/23,4  3:55:00 AM,21.2,8.6,57.69,310,31,0,30.34,10,40,CLR,M,M,M,M,M,M,1.59
0CO,11/21/23,4  4:55:00 AM,21.2,5,48.99,310,30,0,30.35,10,37,CLR,M,M,M,M,M,M,1.84
0CO,11/21/23,4  5:55:00 AM,21.2,8.6,57.69,290,42,0,30.33,10,47,CLR,M,M,M,M,M,M,-0.77
0CO,11/21/23,4  6:55:00 AM,19.4,8.6,62.28,310,28,0,30.35,10,42,CLR,M,M,M,M,M,M,-0.11
0CO,11/21/23,4  7:55:00 AM,19.4,8.6,62.28,310,27,0,30.34,10,33,CLR,M,M,M,M,M,M,0.17
0CO,11/21/23,4  8:55:00 AM,14,3.2,61.51,330,25,0,30.35,10,35,CLR,M,M,M,M,M,M,-6.56
0CO,11/21/23,4  9:55:00 AM,14,3.2,61.51,330,21,0,30.36,10,29,CLR,M,M,M,M,M,M,-5.15
0CO,11/21/23,4  10:55:00 AM,19.4,-5.8,31.83,320,28,0,30.36,10,38,CLR,M,M,M,M,M,M,-0.11
0CO,11/21/23,4  11:55:00 AM,21.2,-5.8,29.48,310,28,0,30.37,10,33,CLR,M,M,M,M,M,M,2.35
0CO,11/21/23,4  12:55:00 PM,19.4,-2.2,37.82,320,26,0,30.38,10,M,CLR,M,M,M,M,M,M,0.46
0CO,11/21/23,4  1:55:00 PM,19.4,-4,34.71,320,28,0,30.38,10,M,CLR,M,M,M,M,M,M,-0.11
0CO,11/21/23,4  2:55:00 PM,21.2,-5.8,29.48,310,28,0,30.4,10,32,CLR,M,M,M,M,M,M,2.35
0CO,11/21/23,4  3:55:00 PM,23,-4,29.8,310,27,0,30.41,10,33,CLR,M,M,M,M,M,M,5.08
0CO,11/21/23,4  4:55:00 PM,23,-0.4,35.34,310,22,0,30.44,10,29,CLR,M,M,M,M,M,M,6.53
0CO,11/21/23,4  5:55:00 PM,24.8,1.4,35.66,320,16,0,30.45,10,23,CLR,M,M,M,M,M,M,11.03
0CO,11/21/23,4  6:55:00 PM,26.6,3.2,35.98,320,14,0,30.45,10,20,CLR,M,M,M,M,M,M,14.2
0CO,11/21/23,4  7:55:00 PM,28.4,5,36.29,300,14,0,30.44,10,20,CLR,M,M,M,M,M,M,16.52
0CO,11/21/23,4  8:55:00 PM,28.4,5,36.29,300,18,0,30.43,10,30,CLR,M,M,M,M,M,M,15.01
0CO,11/21/23,4  9:55:00 PM,24.8,3.2,38.77,320,17,0,30.44,10,24,CLR,M,M,M,M,M,M,10.64
0CO,11/21/23,4  10:55:00 PM,26.6,5,39.08,310,21,0,30.44,10,26,CLR,M,M,M,M,M,M,11.65
0CO,11/21/23,4  11:55:00 PM,24.8,5,42.11,310,25,0,30.44,10,M,CLR,M,M,M,M,M,M,8.07
0CO,11/22/23,4  12:55:00 AM,26.6,1.4,33.09,310,27,0,30.44,10,32,CLR,M,M,M,M,M,M,9.98
0CO,11/22/23,4  1:55:00 AM,28.4,-0.4,28.25,300,26,0,30.44,10,33,CLR,M,M,M,M,M,M,12.68
0CO,11/22/23,4  2:55:00 AM,28.4,-0.4,28.25,300,20,0,30.45,10,31,CLR,M,M,M,M,M,M,14.36
0CO,11/22/23,4  3:55:00 AM,26.6,-0.4,30.42,310,22,0,30.44,10,32,CLR,M,M,M,M,M,M,11.35
0CO,11/22/23,4  4:55:00 AM,28.4,-0.4,28.25,300,19,0,30.45,10,35,CLR,M,M,M,M,M,M,14.68
0CO,11/22/23,4  5:55:00 AM,28.4,3.2,33.41,310,17,0,30.45,10,33,CLR,M,M,M,M,M,M,15.36
0CO,11/22/23,4  6:55:00 AM,28.4,-0.4,28.25,310,15,0,30.46,10,24,CLR,M,M,M,M,M,M,16.11
0CO,11/22/23,4  7:55:00 AM,28.4,-2.2,25.95,300,22,0,30.44,10,29,CLR,M,M,M,M,M,M,13.76
0CO,11/22/23,4  8:35:00 AM,30.2,1.4,28.55,300,16,0,30.44,10,29,CLR,M,M,M,M,M,M,18.07
0CO,11/22/23,4  9:55:00 AM,28.4,-0.4,28.25,300,15,0,30.45,10,31,CLR,M,M,M,M,M,M,16.11
0CO,11/22/23,4  10:55:00 AM,28.4,-2.2,25.95,300,16,0,30.44,10,23,CLR,M,M,M,M,M,M,15.73
0CO,11/22/23,4  11:55:00 AM,30.2,-2.2,24.11,300,16,0,30.43,10,22,CLR,M,M,M,M,M,M,18.07
0CO,11/22/23,4  12:55:00 PM,30.2,-0.4,26.25,290,19,0,30.43,10,26,CLR,M,M,M,M,M,M,17.06
0CO,11/22/23,4  1:55:00 PM,30.2,-2.2,24.11,280,20,0,30.43,10,28,CLR,M,M,M,M,M,M,16.75
0CO,11/22/23,4  2:55:00 PM,30.2,-5.8,20.29,290,12,0,30.46,10,24,CLR,M,M,M,M,M,M,19.71
0CO,11/22/23,4  3:55:00 PM,30.2,-13,14.24,250,16,0,30.47,10,22,CLR,M,M,M,M,M,M,18.07
0CO,11/22/23,4  4:55:00 PM,30.2,-9.4,17.03,280,13,0,30.46,10,21,CLR,M,M,M,M,M,M,19.26
0CO,11/22/23,4  5:55:00 PM,32,-9.4,15.83,280,23,0,30.45,10,29,CLR,M,M,M,M,M,M,18.31
0CO,11/22/23,4  6:55:00 PM,32,-9.4,15.83,280,23,0,30.42,10,32,CLR,M,M,M,M,M,M,18.31
0CO,11/22/23,4  7:55:00 PM,33.8,-4,19.14,290,23,0,30.38,10,33,CLR,M,M,M,M,M,M,20.73
0CO,11/22/23,4  8:55:00 PM,33.8,5,29.16,290,29,0,30.36,10,42,CLR,M,M,M,M,M,M,19.37
0CO,11/22/23,4  9:55:00 PM,33.8,5,29.16,290,25,0,30.37,10,37,CLR,M,M,M,M,M,M,20.25
0CO,11/22/23,4  10:55:00 PM,32,5,31.35,280,24,0,30.37,10,34,CLR,M,M,M,M,M,M,18.06
0CO,11/22/23,4  11:55:00 PM,32,1.4,26.55,M,M,0,30.35,10,M,CLR,M,M,M,M,M,M,M
0CO,11/23/23,4  12:55:00 AM,32,1.4,26.55,300,16,0,30.36,10,24,CLR,M,M,M,M,M,M,20.42
0CO,11/23/23,4  1:55:00 AM,32,3.2,28.86,280,21,0,30.35,10,36,CLR,M,M,M,M,M,M,18.85
0CO,11/23/23,4  2:55:00 AM,32,3.2,28.86,280,18,0,30.36,10,35,CLR,M,M,M,M,M,M,19.75
0CO,11/23/23,4  3:55:00 AM,30.2,1.4,28.55,290,17,0,30.34,10,26,CLR,M,M,M,M,M,M,17.72
0CO,11/23/23,4  4:55:00 AM,32,-2.2,22.41,310,24,0,30.32,10,33,CLR,M,M,M,M,M,M,18.06
0CO,11/23/23,4  5:55:00 AM,30.2,-0.4,26.25,300,20,0,30.31,10,27,CLR,M,M,M,M,M,M,16.75
0CO,11/23/23,4  6:55:00 AM,30.2,1.4,28.55,300,16,0,30.31,10,32,CLR,M,M,M,M,M,M,18.07
0CO,11/23/23,4  7:55:00 AM,30.2,5,33.72,290,23,0,30.27,10,35,CLR,M,M,M,M,M,M,15.89
0CO,11/23/23,4  8:55:00 AM,32,3.2,28.86,280,21,0,30.27,10,34,CLR,M,M,M,M,M,M,18.85
0CO,11/23/23,4  9:55:00 AM,32,1.4,26.55,270,22,0,30.26,10,35,CLR,M,M,M,M,M,M,18.58
0CO,11/23/23,4  10:55:00 AM,30.2,-7.6,18.6,270,13,0,30.25,10,23,CLR,M,M,M,M,M,M,19.26
0CO,11/23/23,4  11:35:00 AM,32,-16.6,11.04,M,M,0,30.23,10,M,CLR,M,M,M,M,M,M,M
0CO,11/23/23,4  12:55:00 PM,30.2,-22,8.98,270,23,0,30.2,10,39,CLR,M,M,M,M,M,M,15.89
0CO,11/23/23,4  1:55:00 PM,28.4,-16.6,12.78,320,12,0,30.19,10,33,CLR,M,M,M,M,M,M,17.42
0CO,11/23/23,4  2:55:00 PM,28.4,-16.6,12.78,290,19,0,30.19,10,33,CLR,M,M,M,M,M,M,14.68
0CO,11/23/23,4  3:55:00 PM,32,-20.2,9.17,290,28,0,30.17,10,39,CLR,M,M,M,M,M,M,17.12
0CO,11/23/23,4  4:35:00 PM,30.2,-14.8,13.01,310,18,0,30.16,10,54,CLR,M,M,M,M,M,M,17.38
0CO,11/23/23,4  5:55:00 PM,33.8,-13,12.32,280,41,0,30.11,10,49,CLR,M,M,M,M,M,M,17.24
0CO,11/23/23,4  6:55:00 PM,33.8,-9.4,14.73,310,28,0,30.11,10,48,CLR,M,M,M,M,M,M,19.58
0CO,11/23/23,4  7:55:00 PM,33.8,-5.8,17.55,280,42,0,30.06,10,58,CLR,M,M,M,M,M,M,17.09
0CO,11/23/23,4  8:55:00 PM,33.8,-5.8,17.55,270,32,0,30.08,10,59,CLR,M,M,M,M,M,M,18.78
0CO,11/23/23,4  9:55:00 PM,33.8,-5.8,17.55,280,30,0,30.08,10,50,CLR,M,M,M,M,M,M,19.17
0CO,11/23/23,4  10:55:00 PM,33.8,-4,19.14,280,27,0,30.07,10,36,CLR,M,M,M,M,M,M,19.8
0CO,11/23/23,4  11:55:00 PM,32,-2.2,22.41,280,35,0,30.04,10,47,CLR,M,M,M,M,M,M,15.72
0CO,11/24/23,4  12:55:00 AM,32,-0.4,24.4,280,36,0,30.01,10,47,CLR,M,M,M,M,M,M,15.54
0CO,11/24/23,4  1:55:00 AM,32,-0.4,24.4,270,38,0,29.98,10,59,CLR,M,M,M,M,M,M,15.19
0CO,11/24/23,4  2:55:00 AM,32,1.4,26.55,280,37,0,29.98,10,60,CLR,M,M,M,M,M,M,15.37
0CO,11/24/23,4  3:55:00 AM,30.2,5,33.72,280,35,0,29.97,10,48,CLR,M,M,M,M,M,M,13.21
0CO,11/24/23,4  4:55:00 AM,30.2,5,33.72,280,30,0,30,10,44,CLR,M,M,M,M,M,M,14.22
0CO,11/24/23,4  5:55:00 AM,28.4,8.6,42.73,270,35,0,29.96,10,51,CLR,M,M,M,M,M,M,10.7
0CO,11/24/23,4  6:55:00 AM,28.4,8.6,42.73,260,36,0,29.96,10,52,CLR,M,M,M,M,M,M,10.51
0CO,11/24/23,4  7:35:00 AM,26.6,6.8,42.42,260,34,0,29.97,10,47,CLR,M,M,M,M,M,M,8.4
0CO,11/24/23,4  8:55:00 AM,26.6,8.6,46.02,290,20,0,29.95,10,33,CLR,M,M,M,M,M,M,11.97
0CO,11/24/23,4  9:55:00 AM,24.8,5,42.11,290,25,0,29.95,10,36,CLR,M,M,M,M,M,M,8.07
0CO,11/24/23,4  10:55:00 AM,23,8.6,53.47,280,20,0,29.96,10,29,SCT,SCT,BKN,M,2300,3900,6500,7.19
0CO,11/24/23,4  11:55:00 AM,23,12.2,62.78,230,21,0,29.95,10,32,BKN,M,M,M,9500,M,M,6.85
0CO,11/24/23,4  12:55:00 PM,21.2,14,73.32,260,34,0,29.92,10,46,CLR,M,M,M,M,M,M,0.89
0CO,11/24/23,4  1:55:00 PM,21.2,14,73.32,250,33,0,29.92,10,47,BKN,OVC,M,M,2000,2500,M,1.11
0CO,11/24/23,4  2:55:00 PM,21.2,12.2,67.73,250,27,0,29.93,10,39,CLR,M,M,M,M,M,M,2.62
0CO,11/24/23,4  3:55:00 PM,23,12.2,62.78,250,27,0,29.93,10,32,SCT,M,M,M,9000,M,M,5.08
0CO,11/24/23,4  4:55:00 PM,24.8,10.4,53.75,260,27,0,29.94,10,44,SCT,SCT,BKN,M,3300,4100,9000,7.53
0CO,11/24/23,4  5:55:00 PM,23,10.4,57.96,270,24,0,29.93,7,41,SCT,BKN,OVC,M,2100,2700,3300,5.92
0CO,11/24/23,4  6:35:00 PM,23,12.2,62.78,270,20,0,29.92,7,33,SCT,OVC,M,M,1900,2700,M,7.19
0CO,11/24/23,4  7:55:00 PM,19.4,17.6,92.57,340,11,0,29.91,4,15,SCT,BKN,OVC,M,600,1300,2000,6.54
0CO,11/24/23,4  8:55:00 PM,19.4,17.6,92.57,310,7,0,29.91,0.5,17,OVC,M,M,M,400,M,M,9.42
0CO,11/24/23,4  9:55:00 PM,19.4,17.6,92.57,290,5,0.01,29.93,0.25,M,OVC,M,M,M,200,M,M,11.43
0CO,11/24/23,4  10:55:00 PM,17.6,15.8,92.5,280,11,0.01,29.95,0.25,20,OVC,M,M,M,400,M,M,4.27
0CO,11/24/23,4  11:55:00 PM,17.6,14,85.51,330,12,0.01,29.97,0.25,18,OVC,M,M,M,200,M,M,3.67
0CO,11/25/23,4  12:55:00 AM,14,12.2,92.38,320,15,0.02,29.98,0.25,22,OVC,M,M,M,200,M,M,-2.56
0CO,11/25/23,4  1:55:00 AM,12.2,10.4,92.32,360,6,0,30,0.5,M,OVC,M,M,M,400,M,M,1.68
0CO,11/25/23,4  2:55:00 AM,10.4,8.6,92.25,350,8,0.02,30.01,0.5,M,OVC,M,M,M,200,M,M,-2.49
0CO,11/25/23,4  3:55:00 AM,10.4,8.6,92.25,340,12,0.01,30.02,0.25,17,OVC,M,M,M,100,M,M,-5.49
0CO,11/25/23,4  4:55:00 AM,8.6,5,84.93,340,10,0.01,30.03,0.5,M,OVC,M,M,M,100,M,M,-6.38
0CO,11/25/23,4  5:35:00 AM,8.6,5,84.93,360,8,0,30.03,0.75,M,OVC,M,M,M,100,M,M,-4.71
0CO,11/25/23,4  6:55:00 AM,6.8,3.2,84.8,350,15,0,30.04,0.5,22,OVC,M,M,M,100,M,M,-11.89
0CO,11/25/23,4  7:55:00 AM,5,3.2,92.06,320,18,0,30.03,1.5,26,BKN,BKN,OVC,M,100,900,2000,-15.79
0CO,11/25/23,4  8:55:00 AM,5,1.4,84.68,340,22,0,30.04,0.5,27,OVC,M,M,M,100,M,M,-17.58
0CO,11/25/23,4  9:35:00 AM,3.2,1.4,91.99,330,22,0,30.05,1.5,27,BKN,M,M,M,100,M,M,-19.99
0CO,11/25/23,4  10:55:00 AM,5,1.4,84.68,300,25,0,30.07,2,M,CLR,M,M,M,M,M,M,-18.74
0CO,11/25/23,4  11:55:00 AM,5,1.4,84.68,M,M,0,30.09,3,M,CLR,M,M,M,M,M,M,M
0CO,11/25/23,4  12:55:00 PM,5,1.4,84.68,310,17,0,30.11,7,31,CLR,M,M,M,M,M,M,-15.3
0CO,11/25/23,4  1:55:00 PM,3.2,1.4,91.99,300,17,0,30.14,10,23,CLR,M,M,M,M,M,M,-17.65
0CO,11/25/23,4  2:55:00 PM,5,1.4,84.68,330,11,0,30.17,10,17,CLR,M,M,M,M,M,M,-11.65
0CO,11/25/23,4  3:55:00 PM,5,1.4,84.68,330,11,0,30.19,10,15,CLR,M,M,M,M,M,M,-11.65
0CO,11/25/23,4  4:55:00 PM,6.8,3.2,84.8,330,10,0,30.2,10,16,CLR,M,M,M,M,M,M,-8.63
0CO,11/25/23,4  5:55:00 PM,6.8,3.2,84.8,320,11,0,30.21,10,16,CLR,M,M,M,M,M,M,-9.38
0CO,11/25/23,4  6:55:00 PM,8.6,3.2,78.18,300,15,0,30.19,10,20,CLR,M,M,M,M,M,M,-9.56
0CO,11/25/23,4  7:55:00 PM,10.4,5,78.35,320,10,0,30.19,10,15,CLR,M,M,M,M,M,M,-4.12
0CO,11/25/23,4  8:55:00 PM,12.2,1.4,61.25,310,13,0,30.19,10,16,CLR,M,M,M,M,M,M,-3.8
0CO,11/25/23,4  9:55:00 PM,12.2,-2.2,51.71,290,20,0,30.19,10,26,CLR,M,M,M,M,M,M,-7.16
0CO,11/25/23,4  10:55:00 PM,12.2,-4,47.46,290,19,0,30.2,10,25,CLR,M,M,M,M,M,M,-6.75
0CO,11/25/23,4  11:55:00 PM,10.4,-4,51.41,290,16,0,30.19,10,M,CLR,M,M,M,M,M,M,-7.74
0CO,11/26/23,4  12:55:00 AM,12.2,-7.6,39.89,280,23,0,30.19,10,29,SCT,M,M,M,11000,M,M,-8.3
0CO,11/26/23,4  1:55:00 AM,12.2,-7.6,39.89,280,22,0,30.19,10,33,CLR,M,M,M,M,M,M,-7.93
0CO,11/26/23,4  2:55:00 AM,14,-7.6,36.85,270,27,0,30.17,7,37,SCT,BKN,M,M,9500,11000,M,-7.19
0CO,11/26/23,4  3:55:00 AM,14,-7.6,36.85,280,18,0,30.17,10,33,BKN,OVC,M,M,7500,10000,M,-3.95
0CO,11/26/23,4  4:55:00 AM,15.8,-4,40.53,280,23,0,30.15,10,30,SCT,SCT,OVC,M,6500,8000,9500,-3.46
0CO,11/26/23,4  5:55:00 AM,14,-0.4,52.01,310,14,0,30.14,10,25,SCT,BKN,OVC,M,2200,3200,5000,-2.04
0CO,11/26/23,4  6:55:00 AM,12.2,6.8,78.51,300,19,0,30.12,5,23,SCT,BKN,OVC,M,500,2000,2600,-6.75
0CO,11/26/23,4  7:55:00 AM,14,12.2,92.38,270,26,0,30.08,1,34,SCT,OVC,M,M,300,900,M,-6.88
0CO,11/26/23,4  8:55:00 AM,17.6,14,85.51,280,25,0,30.06,0.75,46,OVC,M,M,M,600,M,M,-1.68
0CO,11/26/23,4  9:55:00 AM,17.6,15.8,92.5,280,24,0,30.05,0.75,31,OVC,M,M,M,600,M,M,-1.37
0CO,11/26/23,4  10:55:00 AM,17.6,15.8,92.5,280,26,0,30.03,0.5,34,OVC,M,M,M,400,M,M,-1.99
0CO,11/26/23,4  11:55:00 AM,17.6,15.8,92.5,280,21,0,30.03,1,30,OVC,M,M,M,400,M,M,-0.35
0CO,11/26/23,4  12:55:00 PM,17.6,14,85.51,290,23,0,30.03,0.75,32,OVC,M,M,M,400,M,M,-1.04
0CO,11/26/23,4  1:55:00 PM,17.6,14,85.51,M,M,0,30.03,0.5,M,OVC,M,M,M,200,M,M,M
0CO,11/26/23,4  2:55:00 PM,17.6,14,85.51,290,20,0,30.03,0.25,40,OVC,M,M,M,200,M,M,0.01
0CO,11/26/23,4  3:55:00 PM,17.6,14,85.51,300,18,0,30.03,0.25,31,OVC,M,M,M,400,M,M,0.79
0CO,11/26/23,4  4:55:00 PM,17.6,14,85.51,280,15,0,30.04,0.5,24,OVC,M,M,M,400,M,M,2.11
0CO,11/26/23,4  5:55:00 PM,17.6,15.8,92.5,290,19,0,30.02,0.5,28,OVC,M,M,M,400,M,M,0.39
0CO,11/27/23,4  6:55:00 PM,17.6,15.8,92.5,290,20,0,30,0.5,26,OVC,M,M,M,400,M,M,0.01
0CO,11/27/23,4  7:55:00 PM,17.6,15.8,92.5,290,23,0,29.96,0.5,26,OVC,M,M,M,400,M,M,-1.04
0CO,11/27/23,4  8:55:00 PM,17.6,15.8,92.5,280,18,0,29.96,0.5,24,OVC,M,M,M,600,M,M,0.79
0CO,11/27/23,4  9:55:00 PM,17.6,15.8,92.5,290,16,0,29.96,0.5,26,OVC,M,M,M,600,M,M,1.65
0CO,11/27/23,4  10:55:00 PM,17.6,15.8,92.5,300,13,0,29.96,0.5,M,OVC,M,M,M,400,M,M,3.12
0CO,11/27/23,4  11:55:00 PM,17.6,15.8,92.5,310,12,0,29.96,0.5,M,OVC,M,M,M,400,M,M,3.67
0CO,11/27/23,4  12:55:00 AM,17.6,15.8,92.5,290,18,0,29.93,3,30,SCT,SCT,OVC,M,400,1100,1700,0.79
0CO,11/27/23,4  1:55:00 AM,17.6,15.8,92.5,280,15,0,29.9,1,25,OVC,M,M,M,500,M,M,2.11
0CO,11/27/23,4  2:55:00 AM,19.4,17.6,92.57,290,18,0,29.89,1,30,OVC,M,M,M,500,M,M,3.16
0CO,11/27/23,4  3:55:00 AM,17.6,14,85.51,350,9,0,29.89,0.25,17,OVC,M,M,M,300,M,M,5.61
0CO,11/27/23,4  4:55:00 AM,15.8,14,92.44,350,9,0.02,29.89,0.25,19,OVC,M,M,M,100,M,M,3.37
0CO,11/27/23,4  5:55:00 AM,17.6,14,85.51,310,17,0.03,29.86,0.5,25,OVC,M,M,M,100,M,M,1.21
0CO,11/27/23,4  6:55:00 AM,15.8,14,92.44,M,M,0,29.83,0.25,M,OVC,M,M,M,300,M,M,M
0CO,11/27/23,4  7:55:00 AM,15.8,14,92.44,310,17,0,29.81,0.75,23,OVC,M,M,M,500,M,M,-1.15
0CO,11/27/23,4  8:55:00 AM,14,12.2,92.38,320,15,0,29.82,0.5,M,OVC,M,M,M,500,M,M,-2.56
0CO,11/27/23,4  9:55:00 AM,14,12.2,92.38,350,10,0,29.82,0.25,21,OVC,M,M,M,200,M,M,0.4
0CO,11/27/23,4  10:55:00 AM,14,10.4,85.28,320,16,0,29.84,0.25,35,OVC,M,M,M,200,M,M,-3.04
0CO,11/27/23,4  11:55:00 AM,10.4,8.6,92.25,330,24,0,29.86,0.25,33,OVC,M,M,M,200,M,M,-11.08
0CO,11/27/23,4  12:55:00 PM,8.6,5,84.93,330,21,0,29.85,0.5,28,OVC,M,M,M,200,M,M,-12.36
0CO,11/27/23,4  1:55:00 PM,8.6,5,84.93,330,10,0,29.89,0.5,M,OVC,M,M,M,200,M,M,-6.38
0CO,11/27/23,4  2:55:00 PM,8.6,5,84.93,340,23,0.01,29.89,0.25,27,OVC,M,M,M,200,M,M,-13.14
0CO,11/27/23,4  3:55:00 PM,6.8,3.2,84.8,320,17,0,29.93,0.25,24,OVC,M,M,M,200,M,M,-12.94
0CO,11/27/23,4  4:55:00 PM,6.8,3.2,84.8,350,15,0,29.96,0.25,27,OVC,M,M,M,200,M,M,-11.89
0CO,11/27/23,4  5:55:00 PM,6.8,3.2,84.8,330,20,0,29.96,0.5,28,BKN,OVC,M,M,800,1500,M,-14.33
0CO,11/28/23,4  6:55:00 PM,6.8,3.2,84.8,340,19,0,29.96,0.25,26,OVC,M,M,M,500,M,M,-13.89
0CO,11/28/23,4  7:55:00 PM,5,3.2,92.06,320,17,0,29.94,1,23,BKN,BKN,OVC,M,400,700,1600,-15.3
0CO,11/28/23,4  8:55:00 PM,6.8,3.2,84.8,330,17,0.01,29.95,1.5,25,SCT,OVC,M,M,400,700,M,-12.94
0CO,11/28/23,4  9:55:00 PM,6.8,3.2,84.8,330,17,0,29.95,0.5,25,OVC,M,M,M,400,M,M,-12.94
0CO,11/28/23,4  10:55:00 PM,5,3.2,92.06,340,14,0.01,29.97,0.25,25,OVC,M,M,M,200,M,M,-13.64
0CO,11/28/23,4  11:55:00 PM,3.2,1.4,91.99,360,10,0,29.98,0.25,30,OVC,M,M,M,200,M,M,-13.15
0CO,11/28/23,4  12:55:00 AM,3.2,-0.4,84.56,360,12,0,29.99,0.25,26,OVC,M,M,M,200,M,M,-14.65
0CO,11/28/23,4  1:55:00 AM,3.2,-0.4,84.56,350,12,0,30,0.25,22,OVC,M,M,M,200,M,M,-14.65
0CO,11/28/23,4  2:55:00 AM,1.4,-2.2,84.43,350,14,0,30,1.25,32,BKN,BKN,M,M,200,500,M,-18.28
0CO,11/28/23,4  3:55:00 AM,1.4,-4,77.49,330,16,0,30.01,0.25,21,OVC,M,M,M,200,M,M,-19.47
0CO,11/28/23,4  4:55:00 AM,-0.4,-4,84.3,350,15,0,30.03,0.75,23,OVC,M,M,M,200,M,M,-21.22
0CO,11/28/23,4  5:55:00 AM,-0.4,-4,84.3,350,14,0,30.02,0.25,24,OVC,M,M,M,200,M,M,-20.6
0CO,11/28/23,4  6:55:00 AM,-0.4,-4,84.3,10,5,0,30.02,0.25,21,OVC,M,M,M,200,M,M,-12.08
0CO,11/28/23,4  7:55:00 AM,-0.4,-5.8,77.32,350,14,0,30.01,0.25,22,OVC,M,M,M,200,M,M,-20.6
0CO,11/28/23,4  8:55:00 AM,-2.2,-5.8,84.17,340,17,0,30.02,1.25,22,SCT,M,M,M,200,M,M,-24.73
0CO,11/28/23,4  9:55:00 AM,-2.2,-5.8,84.17,340,16,0,30.02,3,22,CLR,M,M,M,M,M,M,-24.16
0CO,11/28/23,4  10:55:00 AM,-0.4,-4,84.3,310,20,0,29.99,7,26,CLR,M,M,M,M,M,M,-23.89
0CO,11/28/23,4  11:55:00 AM,-2.2,-7.6,77.14,330,21,0,30,0.5,25,VV ,M,M,M,500,M,M,-26.76
0CO,11/28/23,4  12:55:00 PM,-0.4,-4,84.3,310,20,0,30.01,5,27,CLR,M,M,M,M,M,M,-23.89
0CO,11/28/23,4  1:55:00 PM,1.4,-4,77.49,310,20,0,30.03,3,M,CLR,M,M,M,M,M,M,-21.5
0CO,11/28/23,4  2:55:00 PM,1.4,-2.2,84.43,300,18,0,30.05,3,29,CLR,M,M,M,M,M,M,-20.53
0CO,11/28/23,4  3:55:00 PM,3.2,-0.4,84.56,M,M,0,30.06,1.75,M,VV ,M,M,M,700,M,M,M
0CO,11/28/23,4  4:55:00 PM,3.2,-0.4,84.56,310,21,0,30.07,4,M,CLR,M,M,M,M,M,M,-19.56
0CO,11/28/23,4  5:55:00 PM,5,1.4,84.68,320,18,0,30.09,10,23,CLR,M,M,M,M,M,M,-15.79
0CO,11/29/23,4  6:55:00 PM,5,1.4,84.68,310,20,0,30.07,7,28,CLR,M,M,M,M,M,M,-16.72
0CO,11/29/23,4  7:55:00 PM,5,1.4,84.68,320,23,0,30.05,3,31,CLR,M,M,M,M,M,M,-17.98
0CO,11/29/23,4  8:55:00 PM,5,1.4,84.68,320,22,0,30.05,1,31,VV ,M,M,M,700,M,M,-17.58
0CO,11/29/23,4  9:55:00 PM,3.2,1.4,91.99,330,24,0,30.06,1,32,VV ,M,M,M,700,M,M,-20.8
0CO,11/29/23,4  10:55:00 PM,3.2,-0.4,84.56,320,23,0,30.07,1.25,33,VV ,M,M,M,700,M,M,-20.4
0CO,11/29/23,4  11:55:00 PM,3.2,-0.4,84.56,320,23,0,30.08,1,35,BKN,M,M,M,100,M,M,-20.4
0CO,11/29/23,4  12:55:00 AM,1.4,-2.2,84.43,320,27,0,30.08,1.75,34,VV ,M,M,M,700,M,M,-24.36
0CO,11/29/23,4  1:55:00 AM,3.2,-0.4,84.56,320,27,0,30.09,2.5,34,CLR,M,M,M,M,M,M,-21.91
0CO,11/29/23,4  2:55:00 AM,3.2,-0.4,84.56,310,28,0,30.1,7,35,CLR,M,M,M,M,M,M,-22.26
0CO,11/29/23,4  3:55:00 AM,1.4,-0.4,91.92,320,21,0,30.12,1.75,29,VV ,M,M,M,700,M,M,-21.96
0CO,11/29/23,4  4:55:00 AM,3.2,-0.4,84.56,320,27,0,30.12,4,34,CLR,M,M,M,M,M,M,-21.91
0CO,11/29/23,4  5:55:00 AM,1.4,-2.2,84.43,320,26,0,30.11,5,30,CLR,M,M,M,M,M,M,-23.99
0CO,11/29/23,4  6:55:00 AM,1.4,-2.2,84.43,320,27,0,30.12,7,33,CLR,M,M,M,M,M,M,-24.36
0CO,11/29/23,4  7:55:00 AM,3.2,-2.2,77.67,320,27,0,30.1,10,31,CLR,M,M,M,M,M,M,-21.91
0CO,11/29/23,4  8:55:00 AM,3.2,-4,71.29,320,27,0,30.11,7,31,CLR,M,M,M,M,M,M,-21.91
0CO,11/29/23,4  9:55:00 AM,5,-7.6,55.15,310,27,0,30.12,10,32,CLR,M,M,M,M,M,M,-19.46
0CO,11/29/23,4  10:55:00 AM,5,-9.4,50.5,310,27,0,30.11,10,31,CLR,M,M,M,M,M,M,-19.46
0CO,11/29/23,4  11:55:00 AM,8.6,-11.2,39.24,300,27,0,30.11,7,M,CLR,M,M,M,M,M,M,-14.55
0CO,11/29/23,4  12:55:00 PM,10.4,-11.2,36.2,M,M,0,30.12,7,M,CLR,M,M,M,M,M,M,M
0CO,11/29/23,4  1:55:00 PM,8.6,-11.2,39.24,310,23,0,30.12,10,M,CLR,M,M,M,M,M,M,-13.14
0CO,11/29/23,4  2:55:00 PM,8.6,-11.2,39.24,310,22,0,30.12,10,M,CLR,M,M,M,M,M,M,-12.76
0CO,11/29/23,4  3:55:00 PM,10.4,-11.2,36.2,310,22,0,30.13,10,33,CLR,M,M,M,M,M,M,-10.35
0CO,11/29/23,4  4:55:00 PM,10.4,-7.6,43.21,320,19,0,30.14,10,27,CLR,M,M,M,M,M,M,-9.13
0CO,11/29/23,4  5:55:00 PM,12.2,-5.8,43.53,320,16,0,30.14,10,26,CLR,M,M,M,M,M,M,-5.39
0CO,11/30/23,4  6:55:00 PM,12.2,-5.8,43.53,310,19,0,30.12,10,26,CLR,M,M,M,M,M,M,-6.75
0CO,11/30/23,4  7:55:00 PM,12.2,-4,47.46,310,19,0,30.1,10,25,CLR,M,M,M,M,M,M,-6.75
0CO,11/30/23,4  8:55:00 PM,14,-4,43.85,290,22,0,30.07,10,28,CLR,M,M,M,M,M,M,-5.52
0CO,11/30/23,4  9:55:00 PM,12.2,-4,47.46,300,21,0,30.07,10,28,CLR,M,M,M,M,M,M,-7.55
0CO,11/30/23,4  10:35:00 PM,12.2,-2.2,51.71,320,19,0,30.07,10,26,CLR,M,M,M,M,M,M,-6.75
0CO,11/30/23,4  1:55:00 AM,10.4,-9.4,39.57,290,30,0,30.06,10,38,CLR,M,M,M,M,M,M,-13.02
0CO,11/30/23,4  2:55:00 AM,10.4,-7.6,43.21,280,29,0,30.05,7,43,CLR,M,M,M,M,M,M,-12.72
0CO,11/30/23,4  3:55:00 AM,8.6,-7.6,46.84,310,25,0,30.06,7,45,CLR,M,M,M,M,M,M,-13.87
0CO,11/30/23,4  4:55:00 AM,8.6,-7.6,46.84,300,31,0,30.07,5,41,CLR,M,M,M,M,M,M,-15.79
0CO,11/30/23,4  5:55:00 AM,8.6,-7.6,46.84,300,35,0,30.07,4,45,CLR,M,M,M,M,M,M,-16.91
0CO,11/30/23,4  6:55:00 AM,6.8,-7.6,50.81,310,30,0,30.11,2.5,45,CLR,M,M,M,M,M,M,-17.97
0CO,11/30/23,4  7:55:00 AM,6.8,-5.8,55.44,310,27,0,30.12,5,38,CLR,M,M,M,M,M,M,-17
0CO,11/30/23,4  8:55:00 AM,6.8,-7.6,50.81,310,29,0,30.14,7,M,CLR,M,M,M,M,M,M,-17.66
0CO,11/30/23,4  9:55:00 AM,6.8,-7.6,50.81,320,24,0,30.14,7,37,CLR,M,M,M,M,M,M,-15.94
0CO,11/30/23,4  10:55:00 AM,5,-7.6,55.15,300,31,0,30.13,7,38,CLR,M,M,M,M,M,M,-20.76
0CO,11/30/23,4  11:55:00 AM,8.6,-7.6,46.84,300,30,0,30.13,5,42,CLR,M,M,M,M,M,M,-15.49
0CO,11/30/23,4  12:55:00 PM,8.6,-9.4,42.89,300,34,0,30.11,7,44,CLR,M,M,M,M,M,M,-16.64
0CO,11/30/23,4  1:55:00 PM,8.6,-9.4,42.89,300,35,0,30.12,3,48,CLR,M,M,M,M,M,M,-16.91
0CO,11/30/23,4  2:55:00 PM,10.4,-9.4,39.57,300,34,0,30.15,4,43,SCT,M,M,M,10000,M,M,-14.13
0CO,11/30/23,4  3:55:00 PM,12.2,-9.4,36.53,300,37,0,30.15,2,48,CLR,M,M,M,M,M,M,-12.38
0CO,11/30/23,4  4:55:00 PM,14,-9.4,33.74,300,28,0,30.17,3,45,CLR,M,M,M,M,M,M,-7.49
0CO,11/30/23,4  5:55:00 PM,14,-7.6,36.85,300,29,0,30.19,4,39,CLR,M,M,M,M,M,M,-7.78
0CO,11/30/23,4  6:55:00 PM,15.8,-5.8,37.17,300,34,0,30.15,2,43,CLR,M,M,M,M,M,M,-6.62
0CO,11/30/23,4  7:55:00 PM,17.6,-4,37.5,300,30,0,30.16,7,38,CLR,M,M,M,M,M,M,-3.11
0CO,12/1/23,4  8:55:00 PM,17.6,-5.8,34.39,310,24,0,30.17,5,38,SCT,M,M,M,5000,M,M,-1.37
0CO,12/1/23,4  9:55:00 PM,17.6,-5.8,34.39,310,27,0,30.19,10,32,SCT,OVC,M,M,3500,5000,M,-2.28
0CO,12/1/23,4  10:55:00 PM,15.8,-5.8,37.17,300,20,0,30.2,10,25,OVC,M,M,M,6500,M,M,-2.38
0CO,12/1/23,4  11:55:00 PM,14,-5.8,40.21,320,23,0,30.19,10,28,SCT,SCT,BKN,M,6500,9000,11000,-5.88
0CO,12/1/23,12:55:00 AM,12.2,-5.8,43.53,310,20,0,30.2,10,M,SCT,BKN,BKN,M,6000,9000,11000,-7.16
0CO,12/1/23,1:55:00 AM,14,-7.6,36.85,300,32,0,30.18,7,46,SCT,BKN,OVC,M,6000,7500,9500,-8.61
0CO,12/1/23,2:55:00 AM,14,-7.6,36.85,320,31,0,30.19,5,44,SCT,OVC,M,M,4700,5500,M,-8.34
0CO,12/1/23,3:55:00 AM,12.2,-7.6,39.89,310,33,0,30.19,7,44,OVC,M,M,M,4100,M,M,-11.37
0CO,12/1/23,4:55:00 AM,14,-7.6,36.85,M,M,0,30.21,10,M,OVC,M,M,M,3300,M,M,M
0CO,12/1/23,5:55:00 AM,12.2,-5.8,43.53,300,24,0,30.22,10,M,OVC,M,M,M,3100,M,M,-8.65
0CO,12/1/23,6:55:00 AM,12.2,-9.4,36.53,300,25,0,30.23,10,40,BKN,OVC,M,M,3200,4900,M,-8.99
0CO,12/1/23,7:55:00 AM,14,-11.2,30.87,300,31,0,30.22,7,52,SCT,BKN,M,M,3200,4800,M,-8.34
0CO,12/1/23,8:55:00 AM,14,-13,28.22,310,30,0,30.24,10,40,SCT,M,M,M,2100,M,M,-8.07
0CO,12/1/23,9:55:00 AM,14,-13,28.22,300,28,0,30.25,10,41,CLR,M,M,M,M,M,M,-7.49
0CO,12/1/23,10:55:00 AM,14,-11.2,30.87,290,31,0,30.25,10,43,SCT,M,M,M,2000,M,M,-8.34
0CO,12/1/23,11:55:00 AM,14,-9.4,33.74,300,29,0,30.26,10,39,CLR,M,M,M,M,M,M,-7.78
0CO,12/1/23,12:55:00 PM,14,-5.8,40.21,300,27,0,30.27,10,38,CLR,M,M,M,M,M,M,-7.19
0CO,12/1/23,1:55:00 PM,14,-4,43.85,310,28,0,30.28,10,36,SCT,M,M,M,2000,M,M,-7.49
0CO,12/1/23,2:55:00 PM,14,-4,43.85,320,23,0,30.31,10,33,OVC,M,M,M,2000,M,M,-5.88
0CO,12/1/23,3:55:00 PM,15.8,-0.4,48.08,310,27,0,30.33,10,32,SCT,M,M,M,1600,M,M,-4.74
0CO,12/1/23,4:55:00 PM,17.6,5,57.14,320,24,0,30.36,10,33,CLR,M,M,M,M,M,M,-1.37
0CO,12/1/23,5:55:00 PM,17.6,5,57.14,320,22,0,30.36,10,34,CLR,M,M,M,M,M,M,-0.7
0CO,12/1/23,6:55:00 PM,17.6,5,57.14,330,19,0,30.35,10,28,CLR,M,M,M,M,M,M,0.39
0CO,12/1/23,7:55:00 PM,19.4,5,52.89,330,19,0,30.35,10,31,CLR,M,M,M,M,M,M,2.77
0CO,12/2/23,8:55:00 PM,19.4,6.8,57.41,330,21,0,30.35,10,28,CLR,M,M,M,M,M,M,2.05
0CO,12/2/23,9:55:00 PM,17.6,6.8,62.02,320,16,0,30.37,10,26,CLR,M,M,M,M,M,M,1.65
0CO,12/2/23,10:55:00 PM,17.6,6.8,62.02,330,20,0,30.38,10,25,CLR,M,M,M,M,M,M,0.01
0CO,12/2/23,11:55:00 PM,15.8,8.6,72.73,320,20,0,30.38,10,25,CLR,M,M,M,M,M,M,-2.38
0CO,12/2/23,12:55:00 AM,15.8,6.8,67.05,320,20,0,30.39,10,25,CLR,M,M,M,M,M,M,-2.38
0CO,12/2/23,1:55:00 AM,14,6.8,72.53,330,16,0,30.41,10,22,CLR,M,M,M,M,M,M,-3.04
0CO,12/2/23,2:55:00 AM,14,6.8,72.53,340,14,0,30.41,10,M,CLR,M,M,M,M,M,M,-2.04
0CO,12/2/23,3:55:00 AM,14,6.8,72.53,340,14,0,30.41,10,M,CLR,M,M,M,M,M,M,-2.04
0CO,12/2/23,4:55:00 AM,15.8,8.6,72.73,330,13,0,30.41,10,M,CLR,M,M,M,M,M,M,0.81
0CO,12/2/23,5:55:00 AM,17.6,10.4,72.93,310,17,0,30.41,10,24,CLR,M,M,M,M,M,M,1.21
0CO,12/2/23,6:55:00 AM,17.6,10.4,72.93,310,20,0,30.39,10,28,CLR,M,M,M,M,M,M,0.01
0CO,12/2/23,7:55:00 AM,17.6,10.4,72.93,310,19,0,30.39,10,28,CLR,M,M,M,M,M,M,0.39
0CO,12/2/23,8:55:00 AM,14,8.6,78.68,330,18,0,30.39,10,26,CLR,M,M,M,M,M,M,-3.95
0CO,12/2/23,9:55:00 AM,12.2,6.8,78.51,340,20,0,30.41,10,31,SCT,M,M,M,900,M,M,-7.16
0CO,12/2/23,10:55:00 AM,14,10.4,85.28,340,22,0,30.4,10,31,BKN,OVC,M,M,700,1100,M,-5.52
0CO,12/2/23,11:55:00 AM,14,12.2,92.38,10,9,0,30.41,10,25,OVC,M,M,M,500,M,M,1.13
0CO,12/2/23,12:55:00 PM,14,14,100,330,16,0,30.43,3,26,OVC,M,M,M,300,M,M,-3.04
0CO,12/2/23,1:55:00 PM,14,12.2,92.38,330,17,0,30.43,0.75,23,BKN,M,M,M,100,M,M,-3.51
0CO,12/2/23,2:55:00 PM,15.8,14,92.44,320,13,0,30.45,3,M,CLR,M,M,M,M,M,M,0.81
0CO,12/2/23,3:55:00 PM,19.4,12.2,73.13,340,16,0,30.48,10,19,CLR,M,M,M,M,M,M,4
0CO,12/2/23,4:55:00 PM,21.2,10.4,62.53,340,15,0,30.49,10,18,CLR,M,M,M,M,M,M,6.78
0CO,12/2/23,5:55:00 PM,21.2,12.2,67.73,340,14,0,30.5,10,18,CLR,M,M,M,M,M,M,7.24
0CO,12/2/23,6:55:00 PM,23,14,67.96,330,10,0,30.48,10,16,CLR,M,M,M,M,M,M,11.68
0CO,12/2/23,7:55:00 PM,23,14,67.96,330,14,0,30.46,10,21,CLR,M,M,M,M,M,M,9.56
0CO,12/3/23,8:55:00 PM,23,15.8,73.51,320,9,0,30.47,10,16,CLR,M,M,M,M,M,M,12.32
0CO,12/3/23,9:55:00 PM,23,14,67.96,310,6,0,30.47,10,M,CLR,M,M,M,M,M,M,14.69
0CO,12/3/23,10:55:00 PM,23,14,67.96,320,8,0,30.49,10,M,CLR,M,M,M,M,M,M,13.03
0CO,12/3/23,11:55:00 PM,21.2,12.2,67.73,330,15,0,30.49,10,19,CLR,M,M,M,M,M,M,6.78
0CO,12/3/23,12:55:00 AM,21.2,12.2,67.73,330,15,0,30.49,10,19,CLR,M,M,M,M,M,M,6.78
0CO,12/3/23,1:55:00 AM,21.2,10.4,62.53,330,16,0,30.49,10,M,CLR,M,M,M,M,M,M,6.34
0CO,12/3/23,2:55:00 AM,21.2,8.6,57.69,320,16,0,30.51,10,M,CLR,M,M,M,M,M,M,6.34
0CO,12/3/23,3:55:00 AM,21.2,8.6,57.69,330,17,0,30.51,10,M,CLR,M,M,M,M,M,M,5.93
0CO,12/3/23,4:55:00 AM,23,8.6,53.47,330,16,0,30.52,10,M,CLR,M,M,M,M,M,M,8.69
0CO,12/3/23,5:55:00 AM,21.2,8.6,57.69,330,15,0,30.52,10,M,CLR,M,M,M,M,M,M,6.78
0CO,12/3/23,6:55:00 AM,23,8.6,53.47,330,17,0,30.51,10,M,CLR,M,M,M,M,M,M,8.28
0CO,12/3/23,7:55:00 AM,21.2,8.6,57.69,330,14,0,30.5,10,M,CLR,M,M,M,M,M,M,7.24
0CO,12/3/23,8:55:00 AM,21.2,6.8,53.18,330,14,0,30.49,10,M,CLR,M,M,M,M,M,M,7.24
0CO,12/3/23,9:55:00 AM,23,5,45.41,330,17,0,30.5,10,M,CLR,M,M,M,M,M,M,8.28
0CO,12/3/23,10:55:00 AM,23,1.4,38.45,330,13,0,30.49,10,19,CLR,M,M,M,M,M,M,10.04
0CO,12/3/23,11:55:00 AM,21.2,1.4,41.49,330,14,0,30.48,10,19,CLR,M,M,M,M,M,M,7.24
0CO,12/3/23,12:55:00 PM,21.2,3.2,45.1,340,15,0,30.49,10,19,CLR,M,M,M,M,M,M,6.78
0CO,12/3/23,1:55:00 PM,23,1.4,38.45,330,14,0,30.48,10,20,CLR,M,M,M,M,M,M,9.56
0CO,12/3/23,2:55:00 PM,23,1.4,38.45,340,19,0,30.48,10,24,CLR,M,M,M,M,M,M,7.54
0CO,12/3/23,3:55:00 PM,23,1.4,38.45,330,16,0,30.49,10,22,CLR,M,M,M,M,M,M,8.69
0CO,12/3/23,4:55:00 PM,24.8,3.2,38.77,330,12,0,30.49,10,21,CLR,M,M,M,M,M,M,12.84
0CO,12/3/23,5:55:00 PM,26.6,3.2,35.98,330,14,0,30.48,10,22,CLR,M,M,M,M,M,M,14.2
0CO,12/3/23,6:55:00 PM,26.6,8.6,46.02,350,16,0,30.45,10,24,CLR,M,M,M,M,M,M,13.38
0CO,12/3/23,7:55:00 PM,26.6,8.6,46.02,340,20,0,30.44,10,M,CLR,M,M,M,M,M,M,11.97
0CO,12/4/23,8:55:00 PM,26.6,8.6,46.02,340,18,0,30.43,10,26,CLR,M,M,M,M,M,M,12.64
0CO,12/4/23,9:55:00 PM,24.8,8.6,49.59,340,18,0,30.43,10,24,CLR,M,M,M,M,M,M,10.27
0CO,12/4/23,10:55:00 PM,23,6.8,49.29,20,9,0,30.44,10,20,CLR,M,M,M,M,M,M,12.32
0CO,12/4/23,11:55:00 PM,21.2,6.8,53.18,350,15,0,30.43,10,M,CLR,M,M,M,M,M,M,6.78
0CO,12/4/23,12:55:00 AM,21.2,5,48.99,340,20,0,30.43,10,24,CLR,M,M,M,M,M,M,4.79
0CO,12/4/23,1:55:00 AM,21.2,5,48.99,340,21,0,30.41,10,26,CLR,M,M,M,M,M,M,4.45
0CO,12/4/23,2:55:00 AM,21.2,5,48.99,340,13,0,30.44,10,21,CLR,M,M,M,M,M,M,7.73
0CO,12/4/23,3:55:00 AM,23,3.2,41.8,330,13,0,30.44,10,M,CLR,M,M,M,M,M,M,10.04
0CO,12/4/23,4:55:00 AM,21.2,3.2,45.1,330,14,0,30.44,10,M,CLR,M,M,M,M,M,M,7.24
0CO,12/4/23,5:55:00 AM,21.2,3.2,45.1,330,12,0,30.44,10,16,CLR,M,M,M,M,M,M,8.26
0CO,12/4/23,6:55:00 AM,21.2,3.2,45.1,340,14,0,30.43,10,M,CLR,M,M,M,M,M,M,7.24
0CO,12/4/23,7:55:00 AM,21.2,1.4,41.49,340,15,0,30.42,10,M,CLR,M,M,M,M,M,M,6.78
0CO,12/4/23,8:55:00 AM,21.2,1.4,41.49,340,16,0,30.41,10,M,CLR,M,M,M,M,M,M,6.34
0CO,12/4/23,9:55:00 AM,21.2,1.4,41.49,20,3,0,30.42,10,15,CLR,M,M,M,M,M,M,16.34
0CO,12/4/23,10:55:00 AM,21.2,-0.4,38.13,340,15,0,30.41,10,19,CLR,M,M,M,M,M,M,6.78
0CO,12/4/23,11:55:00 AM,21.2,-0.4,38.13,340,16,0,30.41,10,20,CLR,M,M,M,M,M,M,6.34
0CO,12/4/23,12:55:00 PM,21.2,-0.4,38.13,330,13,0,30.41,10,M,CLR,M,M,M,M,M,M,7.73
0CO,12/4/23,1:55:00 PM,21.2,-0.4,38.13,340,15,0,30.41,10,M,CLR,M,M,M,M,M,M,6.78
0CO,12/4/23,2:55:00 PM,21.2,1.4,41.49,340,17,0,30.43,10,M,CLR,M,M,M,M,M,M,5.93
0CO,12/4/23,3:55:00 PM,21.2,3.2,45.1,340,19,0,30.44,10,M,CLR,M,M,M,M,M,M,5.15
0CO,12/4/23,4:55:00 PM,23,3.2,41.8,340,13,0,30.46,10,21,CLR,M,M,M,M,M,M,10.04
0CO,12/4/23,5:55:00 PM,24.8,5,42.11,330,11,0,30.45,10,21,CLR,M,M,M,M,M,M,13.37
0CO,12/4/23,6:55:00 PM,24.8,5,42.11,330,11,0,30.44,10,17,CLR,M,M,M,M,M,M,13.37
0CO,12/4/23,7:55:00 PM,24.8,6.8,45.71,340,9,0,30.43,10,15,CLR,M,M,M,M,M,M,14.56
0CO,12/5/23,8:55:00 PM,23,8.6,53.47,50,4,0,30.43,10,21,CLR,M,M,M,M,M,M,16.91
0CO,12/5/23,9:55:00 PM,23,8.6,53.47,20,7,0,30.43,10,16,CLR,M,M,M,M,M,M,13.81
0CO,12/5/23,10:55:00 PM,23,8.6,53.47,340,13,0,30.43,10,18,CLR,M,M,M,M,M,M,10.04
0CO,12/5/23,11:55:00 PM,21.2,5,48.99,340,17,0,30.43,10,M,CLR,M,M,M,M,M,M,5.93
0CO,12/5/23,12:55:00 AM,21.2,3.2,45.1,350,4,0,30.44,10,M,CLR,M,M,M,M,M,M,14.81
0CO,12/5/23,1:55:00 AM,21.2,1.4,41.49,340,10,0,30.44,10,M,CLR,M,M,M,M,M,M,9.42
0CO,12/5/23,2:55:00 AM,23,-4,29.8,110,8,0,30.45,10,M,CLR,M,M,M,M,M,M,13.03
0CO,12/5/23,3:55:00 AM,24.8,-2.2,30.11,180,8,0,30.45,10,M,CLR,M,M,M,M,M,M,15.24
0CO,12/5/23,4:55:00 AM,24.8,-0.4,32.78,170,11,0,30.46,10,M,CLR,M,M,M,M,M,M,13.37
0CO,12/5/23,5:55:00 AM,26.6,-4,25.65,260,18,0,30.45,10,M,CLR,M,M,M,M,M,M,12.64
0CO,12/5/23,6:55:00 AM,26.6,-4,25.65,300,10,0,30.44,10,15,CLR,M,M,M,M,M,M,16.2
0CO,12/5/23,7:55:00 AM,26.6,-2.2,27.94,310,10,0,30.43,10,M,CLR,M,M,M,M,M,M,16.2
0CO,12/5/23,8:55:00 AM,24.8,-0.4,32.78,290,11,0,30.43,10,20,CLR,M,M,M,M,M,M,13.37
0CO,12/5/23,9:55:00 AM,24.8,-4,27.63,310,11,0,30.43,10,M,BKN,M,M,M,10000,M,M,13.37
0CO,12/5/23,10:55:00 AM,21.2,-2.2,35.03,320,13,0,30.41,10,19,OVC,M,M,M,10000,M,M,7.73
0CO,12/5/23,11:55:00 AM,21.2,-0.4,38.13,330,16,0,30.41,10,M,SCT,M,M,M,10000,M,M,6.34
0CO,12/5/23,12:55:00 PM,21.2,-0.4,38.13,330,14,0,30.41,10,M,OVC,M,M,M,9000,M,M,7.24
0CO,12/5/23,1:55:00 PM,21.2,-2.2,35.03,330,15,0,30.41,10,M,BKN,M,M,M,8000,M,M,6.78
0CO,12/5/23,2:55:00 PM,21.2,-2.2,35.03,330,14,0,30.41,10,21,CLR,M,M,M,M,M,M,7.24
0CO,12/5/23,3:55:00 PM,21.2,-2.2,35.03,330,17,0,30.41,10,M,CLR,M,M,M,M,M,M,5.93
0CO,12/5/23,4:55:00 PM,21.2,1.4,41.49,330,17,0,30.43,10,21,CLR,M,M,M,M,M,M,5.93
0CO,12/5/23,5:55:00 PM,24.8,3.2,38.77,330,16,0,30.42,10,21,CLR,M,M,M,M,M,M,11.03
0CO,12/5/23,6:55:00 PM,24.8,5,42.11,340,18,0,30.41,10,M,CLR,M,M,M,M,M,M,10.27
0CO,12/5/23,7:55:00 PM,23,5,45.41,340,18,0,30.39,10,M,CLR,M,M,M,M,M,M,7.9
0CO,12/6/23,8:55:00 PM,21.2,5,48.99,340,18,0,30.39,10,21,CLR,M,M,M,M,M,M,5.53
0CO,12/6/23,9:55:00 PM,23,6.8,49.29,330,16,0,30.38,10,23,CLR,M,M,M,M,M,M,8.69
0CO,12/6/23,10:55:00 PM,21.2,5,48.99,340,19,0,30.4,10,M,CLR,M,M,M,M,M,M,5.15
0CO,12/6/23,11:55:00 PM,19.4,3.2,48.69,330,15,0,30.39,10,19,CLR,M,M,M,M,M,M,4.45
0CO,12/6/23,12:55:00 AM,19.4,3.2,48.69,330,14,0,30.41,10,M,CLR,M,M,M,M,M,M,4.92
0CO,12/6/23,1:55:00 AM,19.4,3.2,48.69,340,14,0,30.41,10,21,CLR,M,M,M,M,M,M,4.92
0CO,12/6/23,2:55:00 AM,19.4,1.4,44.79,330,14,0,30.42,10,19,CLR,M,M,M,M,M,M,4.92
0CO,12/6/23,3:55:00 AM,19.4,1.4,44.79,340,15,0,30.41,10,19,CLR,M,M,M,M,M,M,4.45
0CO,12/6/23,4:55:00 AM,19.4,1.4,44.79,340,9,0,30.42,10,M,CLR,M,M,M,M,M,M,7.85
0CO,12/6/23,5:55:00 AM,21.2,3.2,45.1,350,4,0,30.43,10,M,CLR,M,M,M,M,M,M,14.81
0CO,12/6/23,6:55:00 AM,19.4,1.4,44.79,10,5,0,30.43,10,M,CLR,M,M,M,M,M,M,11.43
0CO,12/6/23,7:55:00 AM,19.4,1.4,44.79,330,3,0,30.43,10,M,CLR,M,M,M,M,M,M,14.28
0CO,12/6/23,8:55:00 AM,19.4,3.2,48.69,340,3,0,30.43,10,M,CLR,M,M,M,M,M,M,14.28
0CO,12/6/23,9:55:00 AM,19.4,3.2,48.69,0,0,0,30.44,10,M,CLR,M,M,M,M,M,M,19.4
0CO,12/6/23,10:55:00 AM,19.4,1.4,44.79,190,3,0,30.43,10,M,CLR,M,M,M,M,M,M,14.28
0CO,12/6/23,11:55:00 AM,21.2,-4,32.15,0,0,0,30.42,10,M,CLR,M,M,M,M,M,M,21.2
0CO,12/6/23,12:55:00 PM,23,5,45.41,190,8,0,30.41,10,M,CLR,M,M,M,M,M,M,13.03
0CO,12/6/23,1:55:00 PM,21.2,5,48.99,170,11,0,30.42,10,M,CLR,M,M,M,M,M,M,8.82
0CO,12/6/23,2:55:00 PM,23,3.2,41.8,190,8,0,30.43,10,M,CLR,M,M,M,M,M,M,13.03
0CO,12/6/23,3:55:00 PM,23,5,45.41,160,5,0,30.44,10,M,CLR,M,M,M,M,M,M,15.71
0CO,12/6/23,4:55:00 PM,24.8,5,42.11,150,5,0,30.44,10,M,CLR,M,M,M,M,M,M,17.84
0CO,12/6/23,5:55:00 PM,26.6,5,39.08,180,5,0,30.44,10,M,CLR,M,M,M,M,M,M,19.98
0CO,12/6/23,6:55:00 PM,26.6,3.2,35.98,320,4,0,30.41,10,M,CLR,M,M,M,M,M,M,21.11
0CO,12/6/23,7:55:00 PM,26.6,1.4,33.09,220,7,0,30.39,10,M,CLR,M,M,M,M,M,M,18.2
0CO,12/7/23,8:55:00 PM,24.8,3.2,38.77,270,3,0,30.38,10,M,CLR,M,M,M,M,M,M,20.46
0CO,12/7/23,9:55:00 PM,23,5,45.41,280,4,0,30.38,10,M,CLR,M,M,M,M,M,M,16.91
0CO,12/7/23,10:55:00 PM,23,5,45.41,20,5,0,30.38,10,M,CLR,M,M,M,M,M,M,15.71
0CO,12/7/23,11:55:00 PM,21.2,3.2,45.1,340,6,0,30.38,10,M,CLR,M,M,M,M,M,M,12.52
0CO,12/7/23,12:55:00 AM,19.4,5,52.89,340,13,0,30.38,10,M,CLR,M,M,M,M,M,M,5.43
0CO,12/7/23,1:55:00 AM,19.4,1.4,44.79,330,14,0,30.37,10,18,CLR,M,M,M,M,M,M,4.92
0CO,12/7/23,2:55:00 AM,17.6,1.4,48.39,330,12,0,30.36,10,18,CLR,M,M,M,M,M,M,3.67
0CO,12/7/23,3:55:00 AM,17.6,3.2,52.6,350,9,0,30.36,10,14,CLR,M,M,M,M,M,M,5.61
0CO,12/7/23,4:55:00 AM,15.8,3.2,56.86,20,6,0,30.38,10,M,CLR,M,M,M,M,M,M,6.02
0CO,12/7/23,5:55:00 AM,17.6,3.2,52.6,350,10,0,30.37,10,23,CLR,M,M,M,M,M,M,4.91
0CO,12/7/23,6:55:00 AM,17.6,3.2,52.6,340,14,0,30.36,10,21,CLR,M,M,M,M,M,M,2.6
0CO,12/7/23,7:55:00 AM,19.4,-0.4,41.17,330,19,0,30.33,10,24,CLR,M,M,M,M,M,M,2.77
0CO,12/7/23,8:55:00 AM,19.4,-4,34.71,330,19,0,30.33,10,24,CLR,M,M,M,M,M,M,2.77
0CO,12/7/23,9:55:00 AM,17.6,-0.4,44.48,340,21,0,30.34,10,25,CLR,M,M,M,M,M,M,-0.35
0CO,12/7/23,10:55:00 AM,17.6,-2.2,40.85,330,21,0,30.33,10,30,CLR,M,M,M,M,M,M,-0.35
0CO,12/7/23,11:55:00 AM,17.6,-5.8,34.39,330,21,0,30.32,10,M,CLR,M,M,M,M,M,M,-0.35
0CO,12/7/23,12:55:00 PM,17.6,-5.8,34.39,350,11,0,30.33,10,23,CLR,M,M,M,M,M,M,4.27
0CO,12/7/23,1:55:00 PM,17.6,-7.6,31.51,350,12,0,30.34,10,25,CLR,M,M,M,M,M,M,3.67
0CO,12/7/23,2:55:00 PM,17.6,-7.6,31.51,360,9,0,30.34,10,22,CLR,M,M,M,M,M,M,5.61
0CO,12/7/23,3:55:00 PM,19.4,-7.6,29.17,340,17,0,30.35,10,26,CLR,M,M,M,M,M,M,3.57
0CO,12/7/23,4:55:00 PM,19.4,-5.8,31.83,350,10,0,30.37,10,18,CLR,M,M,M,M,M,M,7.17
0CO,12/7/23,5:55:00 PM,19.4,-2.2,37.82,340,13,0,30.36,10,21,CLR,M,M,M,M,M,M,5.43
0CO,12/7/23,6:55:00 PM,21.2,1.4,41.49,320,8,0,30.34,10,M,CLR,M,M,M,M,M,M,10.81
0CO,12/7/23,7:55:00 PM,21.2,1.4,41.49,350,11,0,30.31,10,18,CLR,M,M,M,M,M,M,8.82
0CO,12/8/23,8:55:00 PM,23,1.4,38.45,10,4,0,30.3,10,16,CLR,M,M,M,M,M,M,16.91
0CO,12/8/23,9:55:00 PM,21.2,1.4,41.49,360,7,0,30.3,10,22,CLR,M,M,M,M,M,M,11.61
0CO,12/8/23,10:55:00 PM,24.8,-0.4,32.78,340,14,0,30.29,10,17,CLR,M,M,M,M,M,M,11.88
0CO,12/8/23,11:55:00 PM,23,1.4,38.45,360,8,0,30.28,10,15,CLR,M,M,M,M,M,M,13.03
0CO,12/8/23,12:55:00 AM,21.2,1.4,41.49,40,4,0,30.28,10,M,CLR,M,M,M,M,M,M,14.81
0CO,12/8/23,1:55:00 AM,23,-0.4,35.34,340,14,0,30.28,10,17,CLR,M,M,M,M,M,M,9.56
0CO,12/8/23,2:55:00 AM,21.2,-0.4,38.13,360,9,0,30.27,10,16,CLR,M,M,M,M,M,M,10.08
0CO,12/8/23,3:55:00 AM,23,-0.4,35.34,340,14,0,30.26,10,18,CLR,M,M,M,M,M,M,9.56
0CO,12/8/23,4:55:00 AM,21.2,-0.4,38.13,20,7,0,30.25,10,M,CLR,M,M,M,M,M,M,11.61
0CO,12/8/23,5:55:00 AM,23,-0.4,35.34,40,4,0,30.22,10,15,CLR,M,M,M,M,M,M,16.91
0CO,12/8/23,6:55:00 AM,23,1.4,38.45,20,5,0,30.21,10,15,CLR,M,M,M,M,M,M,15.71
0CO,12/8/23,7:55:00 AM,23,3.2,41.8,350,12,0,30.19,10,19,CLR,M,M,M,M,M,M,10.55
0CO,12/8/23,8:55:00 AM,23,10.4,57.96,330,18,0,30.16,10,28,CLR,M,M,M,M,M,M,7.9
0CO,12/8/23,9:55:00 AM,23,14,67.96,330,18,0,30.14,10,28,CLR,M,M,M,M,M,M,7.9
0CO,12/8/23,10:55:00 AM,21.2,12.2,67.73,330,19,0,30.12,10,29,CLR,M,M,M,M,M,M,5.15
0CO,12/8/23,11:55:00 AM,21.2,15.8,79.31,320,22,0,30.08,10,31,CLR,M,M,M,M,M,M,4.12
0CO,12/8/23,12:55:00 PM,19.4,8.6,62.28,330,25,0,30.07,10,32,CLR,M,M,M,M,M,M,0.75
0CO,12/8/23,1:55:00 PM,23,14,67.96,320,23,0,30.07,10,34,CLR,M,M,M,M,M,M,6.22
0CO,12/8/23,2:55:00 PM,23,10.4,57.96,310,28,0,30.01,10,37,CLR,M,M,M,M,M,M,4.82
0CO,12/8/23,3:55:00 PM,23,12.2,62.78,300,28,0,30,10,36,CLR,M,M,M,M,M,M,4.82
0CO,12/8/23,4:55:00 PM,19.4,6.8,57.41,320,27,0,30,10,33,CLR,M,M,M,M,M,M,0.17
0CO,12/8/23,5:55:00 PM,19.4,5,52.89,300,29,0,29.99,10,39,CLR,M,M,M,M,M,M,-0.38
0CO,12/8/23,6:55:00 PM,19.4,6.8,57.41,310,30,0,29.95,10,41,SCT,M,M,M,2700,M,M,-0.64
0CO,12/8/23,7:55:00 PM,19.4,8.6,62.28,320,29,0,29.92,10,41,SCT,M,M,M,2200,M,M,-0.38
0CO,12/9/23,8:55:00 PM,19.4,8.6,62.28,320,24,0,29.91,10,36,CLR,M,M,M,M,M,M,1.06
0CO,12/9/23,9:55:00 PM,17.6,10.4,72.93,320,23,0,29.92,10,30,CLR,M,M,M,M,M,M,-1.04
0CO,12/9/23,10:55:00 PM,19.4,6.8,57.41,310,27,0,29.92,10,34,CLR,M,M,M,M,M,M,0.17
0CO,12/9/23,11:55:00 PM,17.6,5,57.14,320,23,0,29.94,10,31,CLR,M,M,M,M,M,M,-1.04
0CO,12/9/23,12:55:00 AM,17.6,-0.4,44.48,290,27,0,29.93,10,31,CLR,M,M,M,M,M,M,-2.28
0CO,12/9/23,1:55:00 AM,19.4,-4,34.71,290,31,0,29.91,10,43,CLR,M,M,M,M,M,M,-0.89
0CO,12/9/23,2:55:00 AM,17.6,-4,37.5,290,36,0,29.89,10,49,CLR,M,M,M,M,M,M,-4.59
0CO,12/9/23,3:55:00 AM,14,1.4,56.58,290,34,0,29.89,10,43,CLR,M,M,M,M,M,M,-9.13
0CO,12/9/23,4:55:00 AM,12.2,5,72.33,M,M,0,29.9,10,M,CLR,M,M,M,M,M,M,M
0CO,12/9/23,5:55:00 AM,10.4,8.6,92.25,M,M,0,29.9,0.5,M,BKN,OVC,M,M,100,600,M,M
0CO,12/9/23,6:55:00 AM,8.6,5,84.93,M,M,0,29.89,0.25,M,OVC,M,M,M,100,M,M,M
0CO,12/9/23,7:55:00 AM,5,1.4,84.68,330,22,0,29.88,0.25,32,OVC,M,M,M,100,M,M,-17.58
0CO,12/9/23,8:55:00 AM,3.2,-0.4,84.56,320,20,0,29.87,0.5,30,OVC,M,M,M,100,M,M,-19.11
0CO,12/9/23,9:55:00 AM,3.2,1.4,91.99,330,18,0,29.88,0.25,26,OVC,M,M,M,100,M,M,-18.16
0CO,12/9/23,10:55:00 AM,3.2,-0.4,84.56,340,18,0,29.86,0.25,22,OVC,M,M,M,100,M,M,-18.16
0CO,12/9/23,11:55:00 AM,3.2,-0.4,84.56,330,17,0,29.86,0.5,26,BKN,OVC,M,M,100,700,M,-17.65
0CO,12/9/23,12:55:00 PM,1.4,-2.2,84.43,360,6,0,29.86,0.5,14,OVC,M,M,M,300,M,M,-11.32
0CO,12/9/23,1:55:00 PM,1.4,-4,77.49,340,14,0,29.86,0.75,21,OVC,M,M,M,300,M,M,-18.28
0CO,12/9/23,2:55:00 PM,-0.4,-4,84.3,360,8,0,29.88,0.25,M,OVC,M,M,M,100,M,M,-15.8
0CO,12/9/23,3:55:00 PM,-0.4,-4,84.3,360,9,0,29.89,0.5,22,BKN,OVC,M,M,500,1100,M,-16.77
0CO,12/9/23,4:55:00 PM,-0.4,-4,84.3,330,17,0,29.89,0.5,25,BKN,OVC,M,M,300,1100,M,-22.37
0CO,12/9/23,5:55:00 PM,1.4,-4,77.49,340,18,0,29.89,0.25,27,OVC,M,M,M,300,M,M,-20.53
0CO,12/9/23,6:55:00 PM,1.4,-4,77.49,330,20,0,29.86,0.75,30,OVC,M,M,M,800,M,M,-21.5
0CO,12/9/23,7:55:00 PM,1.4,-4,77.49,340,19,0,29.86,1.25,28,SCT,BKN,OVC,M,1400,2200,4500,-21.03
0CO,12/10/23,8:55:00 PM,1.4,-4,77.49,40,6,0,29.87,0.25,M,OVC,M,M,M,200,M,M,-11.32
0CO,12/10/23,9:55:00 PM,-0.4,-4,84.3,350,10,0.01,29.89,0.25,21,OVC,M,M,M,200,M,M,-17.66
0CO,12/10/23,10:55:00 PM,-0.4,-4,84.3,360,6,0,29.91,0.25,20,OVC,M,M,M,200,M,M,-13.49
0CO,12/10/23,11:55:00 PM,-0.4,-4,84.3,80,7,0.01,29.93,0.25,15,OVC,M,M,M,200,M,M,-14.71
0CO,12/10/23,4  12:55:00 AM,-0.4,-5.8,77.32,360,10,0,29.95,0.5,22,OVC,M,M,M,200,M,M,-17.66
0CO,12/10/23,4  1:55:00 AM,-2.2,-5.8,84.17,10,5,0,29.97,0.25,M,OVC,M,M,M,200,M,M,-14.22
0CO,12/10/23,4  2:55:00 AM,-2.2,-7.6,77.14,340,16,0,29.96,0.5,19,OVC,M,M,M,200,M,M,-24.16
0CO,12/10/23,4  3:55:00 AM,-2.2,-7.6,77.14,350,17,0,29.96,0.25,27,OVC,M,M,M,200,M,M,-24.73
0CO,12/10/23,4  4:55:00 AM,-4,-7.6,84.04,350,16,0,29.97,0.25,27,OVC,M,M,M,200,M,M,-26.5
0CO,12/10/23,4  5:55:00 AM,-4,-7.6,84.04,340,22,0,29.97,0.25,28,OVC,M,M,M,200,M,M,-29.63
0CO,12/10/23,4  6:55:00 AM,-4,-7.6,84.04,330,24,0,29.96,0.5,30,OVC,M,M,M,200,M,M,-30.51
0CO,12/10/23,4  7:55:00 AM,-4,-9.4,76.96,320,19,0,29.95,0.75,29,BKN,OVC,M,M,200,900,M,-28.17
0CO,12/10/23,4  8:55:00 AM,-4,-9.4,76.96,320,24,0,29.94,0.25,38,OVC,M,M,M,200,M,M,-30.51
0CO,12/10/23,4  9:55:00 AM,-4,-9.4,76.96,320,25,0,29.93,0.25,32,BKN,OVC,M,M,200,600,M,-30.93
0CO,12/10/23,4  10:55:00 AM,-4,-7.6,84.04,320,33,0,29.92,0.25,M,OVC,M,M,M,400,M,M,-33.84
0CO,12/10/23,4  11:55:00 AM,-4,-9.4,76.96,310,29,0,29.92,0.25,M,OVC,M,M,M,400,M,M,-32.47
0CO,12/10/23,4  12:55:00 PM,-4,-9.4,76.96,M,M,0,29.89,0.25,M,OVC,M,M,M,400,M,M,M
0CO,12/10/23,4  1:55:00 PM,-5.8,-9.4,83.91,M,M,0,29.89,0.25,M,OVC,M,M,M,400,M,M,M
0CO,12/10/23,4  2:55:00 PM,-5.8,-9.4,83.91,M,M,0,29.89,0.25,M,OVC,M,M,M,500,M,M,M
0CO,12/10/23,4  3:55:00 PM,-4,-9.4,76.96,M,M,0,29.93,0.25,M,OVC,M,M,M,500,M,M,M
0CO,12/10/23,4  4:55:00 PM,-4,-7.6,84.04,330,41,0,29.95,0.25,M,OVC,M,M,M,500,M,M,-36.21
0CO,12/10/23,4  5:55:00 PM,-4,-7.6,84.04,330,37,0,29.96,0.25,M,OVC,M,M,M,500,M,M,-35.08
0CO,12/10/23,4  6:55:00 PM,-2.2,-7.6,77.14,310,27,0,29.97,0.25,36,OVC,M,M,M,300,M,M,-29.27
0CO,12/10/23,4  7:55:00 PM,-2.2,-7.6,77.14,300,26,0,29.96,0.25,43,OVC,M,M,M,500,M,M,-28.89
0CO,12/11/23,4  8:55:00 PM,-2.2,-5.8,84.17,320,32,0,29.95,0.25,M,OVC,M,M,M,300,M,M,-31.02
0CO,12/11/23,4  9:55:00 PM,-2.2,-5.8,84.17,310,37,0,29.97,0.25,49,OVC,M,M,M,500,M,M,-32.56
0CO,12/11/23,4  10:55:00 PM,-2.2,-5.8,84.17,310,32,0,29.98,0.25,M,OVC,M,M,M,500,M,M,-31.02
0CO,12/11/23,4  11:55:00 PM,-0.4,-5.8,77.32,310,32,0,30,0.25,42,OVC,M,M,M,300,M,M,-28.53
0CO,12/11/23,4  12:55:00 AM,-0.4,-5.8,77.32,M,M,0,29.99,0.25,M,OVC,M,M,M,300,M,M,M
0CO,12/11/23,4  1:55:00 AM,-0.4,-4,84.3,310,42,0,30.01,0.5,53,BKN,BKN,OVC,M,300,900,1600,-31.38
0CO,12/11/23,4  2:55:00 AM,1.4,-4,77.49,320,40,0,30.04,0.75,48,BKN,OVC,M,M,100,700,M,-28.32
0CO,12/11/23,4  3:55:00 AM,1.4,-4,77.49,320,37,0,30.05,0.5,51,BKN,BKN,OVC,M,600,1200,2800,-27.51
0CO,12/11/23,4  4:55:00 AM,1.4,-2.2,84.43,310,35,0,30.09,1.5,44,SCT,BKN,OVC,M,600,2100,2800,-26.95
0CO,12/11/23,4  5:55:00 AM,-0.4,-4,84.3,320,28,0,30.09,0.25,39,OVC,M,M,M,100,M,M,-27.18
0CO,12/11/23,4  6:55:00 AM,-0.4,-4,84.3,320,33,0,30.08,0.25,43,OVC,M,M,M,100,M,M,-28.85
0CO,12/11/23,4  7:55:00 AM,1.4,-4,77.49,310,41,0,30.07,0.75,51,BKN,BKN,OVC,M,100,600,2300,-28.58
0CO,12/11/23,4  8:55:00 AM,1.4,-4,77.49,310,33,0,30.11,1,39,BKN,BKN,BKN,M,100,700,7500,-26.35
0CO,12/11/23,4  9:55:00 AM,1.4,-2.2,84.43,310,38,0,30.11,2.5,45,SCT,SCT,M,M,100,6500,M,-27.79
0CO,12/11/23,4  10:55:00 AM,3.2,1.4,91.99,310,37,0,30.1,3,55,CLR,M,M,M,M,M,M,-24.99
0CO,12/11/23,4  11:55:00 AM,5,1.4,84.68,300,45,0,30.08,4,54,CLR,M,M,M,M,M,M,-24.42
0CO,12/11/23,4  12:55:00 PM,5,1.4,84.68,300,39,0,30.11,10,48,CLR,M,M,M,M,M,M,-22.99
0CO,12/11/23,4  1:55:00 PM,3.2,-0.4,84.56,320,36,0,30.14,1.5,44,VV ,M,M,M,700,M,M,-24.72
0CO,12/11/23,4  2:55:00 PM,3.2,-0.4,84.56,320,35,0,30.13,10,46,CLR,M,M,M,M,M,M,-24.44
0CO,12/11/23,4  3:55:00 PM,3.2,-0.4,84.56,320,32,0,30.15,0.5,45,VV ,M,M,M,500,M,M,-23.55
0CO,12/11/23,4  4:55:00 PM,5,1.4,84.68,320,30,0,30.14,5,40,CLR,M,M,M,M,M,M,-20.45
0CO,12/11/23,4  5:55:00 PM,5,3.2,92.06,320,32,0,30.13,2,42,CLR,M,M,M,M,M,M,-21.06
0CO,12/11/23,4  6:55:00 PM,8.6,5,84.93,310,33,0,30.12,3,47,CLR,M,M,M,M,M,M,-16.36
0CO,12/11/23,4  7:55:00 PM,12.2,8.6,85.17,300,33,0,30.12,10,42,CLR,M,M,M,M,M,M,-11.37
0CO,12/12/23,4  8:55:00 PM,12.2,10.4,92.32,300,26,0,30.14,10,44,CLR,M,M,M,M,M,M,-9.32
0CO,12/12/23,4  9:55:00 PM,14,10.4,85.28,300,28,0,30.15,10,34,CLR,M,M,M,M,M,M,-7.49
0CO,12/12/23,4  10:55:00 PM,12.2,10.4,92.32,310,26,0,30.14,10,33,SCT,M,M,M,10000,M,M,-9.32
0CO,12/12/23,4  11:55:00 PM,12.2,8.6,85.17,310,21,0,30.15,10,29,BKN,M,M,M,11000,M,M,-7.55
0CO,12/12/23,4  12:55:00 AM,10.4,8.6,92.25,320,20,0,30.15,10,27,CLR,M,M,M,M,M,M,-9.55
0CO,12/12/23,4  1:55:00 AM,10.4,6.8,85.05,M,M,0,30.14,10,M,CLR,M,M,M,M,M,M,M
0CO,12/12/23,4  2:55:00 AM,12.2,5,72.33,M,M,0,30.14,10,M,SCT,SCT,M,M,9500,12000,M,M
0CO,12/12/23,4  3:55:00 AM,14,-0.4,52.01,300,28,0,30.13,10,32,OVC,M,M,M,11000,M,M,-7.49
0CO,12/12/23,4  4:55:00 AM,15.8,-4,40.53,290,22,0,30.13,10,35,CLR,M,M,M,M,M,M,-3.11
0CO,12/12/23,4  5:55:00 AM,15.8,-4,40.53,300,21,0,30.13,10,32,CLR,M,M,M,M,M,M,-2.75
0CO,12/12/23,4  6:55:00 AM,17.6,-9.4,28.86,300,22,0,30.12,10,33,CLR,M,M,M,M,M,M,-0.7
0CO,12/12/23,4  7:55:00 AM,17.6,-13,24.14,300,28,0,30.11,10,35,CLR,M,M,M,M,M,M,-2.57
0CO,12/12/23,4  8:55:00 AM,17.6,-13,24.14,300,29,0,30.1,10,36,CLR,M,M,M,M,M,M,-2.84
0CO,12/12/23,4  9:55:00 AM,15.8,-11.2,28.54,310,27,0,30.1,10,32,CLR,M,M,M,M,M,M,-4.74
0CO,12/12/23,4  10:55:00 AM,15.8,-11.2,28.54,320,31,0,30.07,10,38,CLR,M,M,M,M,M,M,-5.86
0CO,12/12/23,4  11:55:00 AM,15.8,-11.2,28.54,310,33,0,30.05,10,45,CLR,M,M,M,M,M,M,-6.38
0CO,12/12/23,4  12:55:00 PM,15.8,-13,26.09,320,32,0,30.05,10,40,CLR,M,M,M,M,M,M,-6.12
0CO,12/12/23,4  1:55:00 PM,15.8,-13,26.09,310,33,0,30.05,10,38,CLR,M,M,M,M,M,M,-6.38
0CO,12/12/23,4  2:55:00 PM,17.6,-13,24.14,310,23,0,30.08,10,32,CLR,M,M,M,M,M,M,-1.04
0CO,12/12/23,4  3:55:00 PM,19.4,-11.2,24.44,250,8,0,30.14,10,20,CLR,M,M,M,M,M,M,8.59
0CO,12/12/23,4  4:55:00 PM,21.2,-13,20.69,250,9,0,30.16,10,24,CLR,M,M,M,M,M,M,10.08
0CO,12/12/23,4  5:55:00 PM,23,-13,19.18,240,12,0,30.14,10,19,CLR,M,M,M,M,M,M,10.55
0CO,12/12/23,4  6:55:00 PM,24.8,-9.4,21.27,250,15,0,30.13,10,22,CLR,M,M,M,M,M,M,11.45
0CO,12/12/23,4  7:55:00 PM,26.6,-13,16.51,240,11,0,30.11,10,19,CLR,M,M,M,M,M,M,15.64
0CO,12/13/23,4  8:55:00 PM,26.6,-9.4,19.74,250,11,0,30.1,10,20,CLR,M,M,M,M,M,M,15.64
0CO,12/13/23,4  9:55:00 PM,26.6,-7.6,21.55,250,10,0,30.09,10,15,CLR,M,M,M,M,M,M,16.2
0CO,12/13/23,4  10:55:00 PM,24.8,-7.6,23.23,250,9,0,30.09,10,23,CLR,M,M,M,M,M,M,14.56
0CO,12/13/23,4  11:55:00 PM,23,-5.8,27.33,250,10,0,30.09,10,15,SCT,M,M,M,12000,M,M,11.68
0CO,12/13/23,4  12:55:00 AM,23,-7.6,25.04,240,11,0,30.09,10,18,CLR,M,M,M,M,M,M,11.09
0CO,12/13/23,4  1:55:00 AM,23,-9.4,22.93,220,5,0,30.08,10,9,CLR,M,M,M,M,M,M,15.71
0CO,12/13/23,4  2:55:00 AM,23,-14.8,17.52,230,14,0,30.07,10,27,CLR,M,M,M,M,M,M,9.56
0CO,12/13/23,4  3:55:00 AM,23,-18.4,14.58,210,9,0,30.06,10,15,SCT,BKN,BKN,M,7500,9000,12000,12.32
0CO,12/13/23,4  4:55:00 AM,23,-18.4,14.58,200,11,0,30.03,10,16,SCT,M,M,M,11000,M,M,11.09
0CO,12/13/23,4  5:55:00 AM,23,-16.6,15.99,200,9,0,30.01,10,M,SCT,M,M,M,10000,M,M,12.32
0CO,12/13/23,4  6:55:00 AM,23,-14.8,17.52,220,6,0,29.99,10,M,SCT,M,M,M,12000,M,M,14.69
0CO,12/13/23,4  7:55:00 AM,21.2,-9.4,24.74,230,8,0,29.95,10,21,SCT,M,M,M,11000,M,M,10.81
0CO,12/13/23,4  8:55:00 AM,19.4,-5.8,31.83,250,14,0,29.94,10,28,CLR,M,M,M,M,M,M,4.92
0CO,12/13/23,4  9:55:00 AM,17.6,-5.8,34.39,270,16,0,29.94,10,19,CLR,M,M,M,M,M,M,1.65
0CO,12/13/23,4  10:55:00 AM,15.8,-5.8,37.17,310,11,0,29.9,10,14,CLR,M,M,M,M,M,M,1.99
0CO,12/13/23,4  11:55:00 AM,14,-5.8,40.21,310,11,0,29.89,10,18,CLR,M,M,M,M,M,M,-0.28
0CO,12/13/23,4  12:55:00 PM,12.2,-4,47.46,320,12,0,29.89,10,16,CLR,M,M,M,M,M,M,-3.2
0CO,12/13/23,4  1:55:00 PM,10.4,-5.8,47.15,320,17,0,29.89,10,24,CLR,M,M,M,M,M,M,-8.22
0CO,12/13/23,4  2:55:00 PM,12.2,-4,47.46,280,20,0,29.89,10,26,CLR,M,M,M,M,M,M,-7.16
0CO,12/13/23,4  3:55:00 PM,12.2,-4,47.46,290,26,0,29.86,10,33,CLR,M,M,M,M,M,M,-9.32
0CO,12/13/23,4  4:55:00 PM,12.2,-0.4,56.3,290,24,0,29.89,10,32,SCT,SCT,M,M,2400,3400,M,-8.65
0CO,12/13/23,4  5:55:00 PM,12.2,-4,47.46,270,26,0,29.88,10,40,SCT,M,M,M,3200,M,M,-9.32
0CO,12/13/23,4  6:55:00 PM,12.2,-4,47.46,M,M,0,29.85,10,M,CLR,M,M,M,M,M,M,M
0CO,12/13/23,4  7:55:00 PM,10.4,-0.4,60.99,280,25,0,29.84,10,33,SCT,SCT,SCT,M,3000,3800,7000,-11.43
0CO,12/14/23,4  8:55:00 PM,8.6,1.4,71.92,290,22,0,29.84,5,M,SCT,BKN,OVC,M,1300,2100,2900,-12.76
0CO,12/14/23,4  9:55:00 PM,8.6,1.4,71.92,M,M,0,29.88,4,M,SCT,BKN,OVC,M,1600,2100,2800,M
0CO,12/14/23,4  10:55:00 PM,6.8,3.2,84.8,300,34,0,29.85,0.5,46,OVC,M,M,M,700,M,M,-19.14
0CO,12/14/23,4  11:55:00 PM,6.8,3.2,84.8,300,34,0,29.9,0.25,41,OVC,M,M,M,300,M,M,-19.14
0CO,12/14/23,4  12:55:00 AM,6.8,3.2,84.8,M,M,0,29.96,0.25,M,OVC,M,M,M,100,M,M,M
0CO,12/14/23,4  1:55:00 AM,6.8,3.2,84.8,330,26,0,29.98,0.25,32,OVC,M,M,M,100,M,M,-16.66
0CO,12/14/23,4  2:55:00 AM,5,1.4,84.68,320,32,0,29.98,0.25,41,OVC,M,M,M,500,M,M,-21.06
0CO,12/14/23,4  3:55:00 AM,5,1.4,84.68,320,27,0,30,0.25,35,OVC,M,M,M,300,M,M,-19.46
0CO,12/14/23,4  4:55:00 AM,5,3.2,92.06,320,26,0,30.04,0.25,37,OVC,M,M,M,100,M,M,-19.1
0CO,12/14/23,4  5:55:00 AM,6.8,3.2,84.8,310,32,0,30.05,0.25,39,OVC,M,M,M,200,M,M,-18.57
0CO,12/14/23,4  6:55:00 AM,6.8,3.2,84.8,320,27,0,30.07,0.25,32,OVC,M,M,M,200,M,M,-17
0CO,12/14/23,4  7:55:00 AM,6.8,3.2,84.8,320,26,0,30.07,0.25,33,OVC,M,M,M,200,M,M,-16.66
0CO,12/14/23,4  8:55:00 AM,6.8,3.2,84.8,310,30,0,30.07,0.25,35,OVC,M,M,M,200,M,M,-17.97
0CO,12/14/23,4  9:55:00 AM,6.8,3.2,84.8,310,30,0,30.1,0.25,36,OVC,M,M,M,200,M,M,-17.97
0CO,12/14/23,4  10:55:00 AM,5,3.2,92.06,320,25,0,30.12,M,M,BKN,OVC,M,M,200,500,M,-18.74
0CO,12/14/23,4  11:55:00 AM,8.6,3.2,78.18,310,35,0,30.1,2,45,BKN,BKN,M,M,100,600,M,-16.91
0CO,12/14/23,4  12:55:00 PM,5,1.4,84.68,320,26,0,30.12,M,33,OVC,M,M,M,100,M,M,-19.1
0CO,12/14/23,4  1:55:00 PM,10.4,6.8,85.05,310,34,0,30.12,5,49,CLR,M,M,M,M,M,M,-14.13
0CO,12/14/23,4  2:55:00 PM,12.2,8.6,85.17,300,39,0,30.12,2.5,48,CLR,M,M,M,M,M,M,-12.85
0CO,12/14/23,4  3:55:00 PM,17.6,1.4,48.39,310,28,0,30.17,10,39,CLR,M,M,M,M,M,M,-2.57
0CO,12/14/23,4  4:55:00 PM,17.6,3.2,52.6,310,31,0,30.17,10,40,CLR,M,M,M,M,M,M,-3.38
0CO,12/14/23,4  5:55:00 PM,17.6,8.6,67.28,310,26,0,30.18,10,37,CLR,M,M,M,M,M,M,-1.99
0CO,12/14/23,4  6:55:00 PM,19.4,10.4,67.51,300,31,0,30.16,10,38,CLR,M,M,M,M,M,M,-0.89
0CO,12/14/23,4  7:55:00 PM,19.4,12.2,73.13,310,27,0,30.15,10,30,CLR,M,M,M,M,M,M,0.17
0CO,12/15/23,4  8:55:00 PM,21.2,12.2,67.73,310,25,0,30.15,10,35,CLR,M,M,M,M,M,M,3.19
0CO,12/15/23,4  9:55:00 PM,23,12.2,62.78,300,28,0,30.16,10,31,CLR,M,M,M,M,M,M,4.82
0CO,12/15/23,4  10:55:00 PM,21.2,12.2,67.73,310,18,0,30.17,10,23,CLR,M,M,M,M,M,M,5.53
0CO,12/15/23,4  11:55:00 PM,23,14,67.96,290,21,0,30.17,10,44,CLR,M,M,M,M,M,M,6.85
0CO,12/15/23,4  12:55:00 AM,24.8,14,63.03,260,26,0,30.17,10,41,CLR,M,M,M,M,M,M,7.79
0CO,12/15/23,4  1:55:00 AM,23,17.6,79.47,280,25,0,30.14,10,35,CLR,M,M,M,M,M,M,5.63
0CO,12/15/23,4  2:55:00 AM,24.8,17.6,73.7,270,24,0,30.14,10,37,SCT,M,M,M,3900,M,M,8.35
0CO,12/15/23,4  3:55:00 AM,24.8,19.4,79.62,260,21,0,30.13,7,31,SCT,SCT,BKN,M,1100,2200,3800,9.25
0CO,12/15/23,4  4:55:00 AM,24.8,19.4,79.62,250,27,0,30.12,5,38,SCT,BKN,BKN,M,1900,2400,3600,7.53
0CO,12/15/23,4  5:55:00 AM,21.2,19.4,92.63,250,27,0,30.11,1.25,40,BKN,BKN,OVC,M,200,700,1900,2.62
0CO,12/15/23,4  6:55:00 AM,21.2,15.8,79.31,250,35,0,30.05,7,43,SCT,BKN,BKN,M,1400,2100,3500,0.66
0CO,12/15/23,4  7:55:00 AM,21.2,12.2,67.73,270,32,0,30.03,7,47,SCT,SCT,M,M,2400,2900,M,1.35
0CO,12/15/23,4  8:55:00 AM,19.4,12.2,73.13,280,19,0,30.05,10,35,SCT,SCT,BKN,M,2200,3000,3500,2.77
0CO,12/15/23,4  9:55:00 AM,17.6,12.2,79,300,21,0,30.02,7,33,SCT,BKN,OVC,M,2000,2900,3500,-0.35
0CO,12/15/23,4  10:55:00 AM,17.6,10.4,72.93,290,21,0,30,10,33,BKN,OVC,M,M,2100,2800,M,-0.35
0CO,12/15/23,4  11:55:00 AM,15.8,10.4,78.84,280,26,0,29.98,3,37,SCT,BKN,OVC,M,1600,2100,3400,-4.43
0CO,12/15/23,4  12:55:00 PM,14,12.2,92.38,310,17,0,30,1,25,OVC,M,M,M,400,M,M,-3.51
0CO,12/15/23,4  1:55:00 PM,12.2,10.4,92.32,280,27,0,29.99,0.75,M,BKN,OVC,M,M,400,900,M,-9.64
0CO,12/15/23,4  2:55:00 PM,12.2,8.6,85.17,270,35,0,29.97,0.5,52,BKN,OVC,M,M,800,1400,M,-11.89
0CO,12/15/23,4  3:55:00 PM,12.2,5,72.33,290,32,0,29.99,3,50,SCT,BKN,OVC,M,900,1500,2100,-11.1
0CO,12/15/23,4  4:55:00 PM,12.2,8.6,85.17,300,28,0,30.02,0.75,42,BKN,OVC,M,M,1000,1400,M,-9.95
0CO,12/15/23,4  5:55:00 PM,12.2,6.8,78.51,300,30,0,29.99,1,61,BKN,OVC,M,M,900,1300,M,-10.54
0CO,12/15/23,4  6:55:00 PM,12.2,5,72.33,290,42,0,29.95,3,57,BKN,BKN,OVC,M,1800,2300,2800,-13.52
0CO,12/15/23,4  7:55:00 PM,12.2,5,72.33,280,39,0,29.93,5,57,SCT,SCT,SCT,M,900,1600,2000,-12.85
0CO,12/16/23,4  8:55:00 PM,14,3.2,61.51,280,39,0,29.93,7,58,CLR,M,M,M,M,M,M,-10.32
0CO,12/16/23,4  9:55:00 PM,14,1.4,56.58,280,38,0,29.95,7,55,CLR,M,M,M,M,M,M,-10.09
0CO,12/16/23,4  10:55:00 PM,12.2,1.4,61.25,270,44,0,29.97,7,56,CLR,M,M,M,M,M,M,-13.95
0CO,12/16/23,4  11:55:00 PM,12.2,1.4,61.25,280,30,0,30.03,10,44,CLR,M,M,M,M,M,M,-10.54
0CO,12/16/23,4  12:55:00 AM,10.4,1.4,66.35,330,19,0,30.08,10,32,CLR,M,M,M,M,M,M,-9.13
0CO,12/16/23,4  1:55:00 AM,10.4,1.4,66.35,290,37,0,30.05,10,43,CLR,M,M,M,M,M,M,-14.9
0CO,12/16/23,4  2:55:00 AM,8.6,1.4,71.92,M,M,0,30.09,10,M,CLR,M,M,M,M,M,M,M
0CO,12/16/23,4  3:55:00 AM,8.6,1.4,71.92,290,34,0,30.09,1.5,40,VV ,M,M,M,700,M,M,-16.64
0CO,12/16/23,4  4:55:00 AM,10.4,-4,51.41,280,35,0,30.1,10,45,CLR,M,M,M,M,M,M,-14.4
0CO,12/16/23,4  5:55:00 AM,10.4,-4,51.41,280,23,0,30.15,10,36,CLR,M,M,M,M,M,M,-10.72
0CO,12/16/23,4  6:55:00 AM,12.2,-5.8,43.53,270,29,0,30.12,10,37,CLR,M,M,M,M,M,M,-10.25
0CO,12/16/23,4  7:55:00 AM,12.2,-7.6,39.89,290,20,0,30.15,10,30,CLR,M,M,M,M,M,M,-7.16
0CO,12/16/23,4  8:55:00 AM,12.2,-7.6,39.89,290,22,0,30.17,10,30,CLR,M,M,M,M,M,M,-7.93
0CO,12/16/23,4  9:55:00 AM,10.4,-7.6,43.21,M,M,0,30.17,10,M,CLR,M,M,M,M,M,M,M
0CO,12/16/23,4  10:55:00 AM,12.2,-9.4,36.53,280,23,0,30.17,10,34,CLR,M,M,M,M,M,M,-8.3
0CO,12/16/23,4  11:55:00 AM,10.4,-7.6,43.21,M,M,0,30.19,10,M,CLR,M,M,M,M,M,M,M
0CO,12/16/23,4  12:55:00 PM,14,-7.6,36.85,290,29,0,30.19,10,37,CLR,M,M,M,M,M,M,-7.78
0CO,12/16/23,4  1:55:00 PM,15.8,-7.6,34.07,300,33,0,30.18,10,45,CLR,M,M,M,M,M,M,-6.38
0CO,12/16/23,4  2:55:00 PM,14,-4,43.85,300,32,0,30.2,10,47,BKN,OVC,M,M,2300,3400,M,-8.61
0CO,12/16/23,4  3:55:00 PM,15.8,-2.2,44.16,300,30,0,30.21,10,42,SCT,BKN,BKN,M,2800,3400,4800,-5.59
0CO,12/16/23,4  4:55:00 PM,17.6,-0.4,44.48,300,33,0,30.21,10,42,CLR,M,M,M,M,M,M,-3.88
0CO,12/16/23,4  5:55:00 PM,19.4,1.4,44.79,310,25,0,30.24,10,31,SCT,M,M,M,2000,M,M,0.75
0CO,12/16/23,4  6:55:00 PM,23,8.6,53.47,300,27,0,30.22,10,33,CLR,M,M,M,M,M,M,5.08
0CO,12/16/23,4  7:55:00 PM,19.4,5,52.89,310,19,0,30.23,10,27,CLR,M,M,M,M,M,M,2.77
0CO,12/17/23,4  8:55:00 PM,23,8.6,53.47,300,29,0,30.2,10,34,CLR,M,M,M,M,M,M,4.56
0CO,12/17/23,4  9:55:00 PM,24.8,12.2,58.22,290,27,0,30.23,10,40,CLR,M,M,M,M,M,M,7.53
0CO,12/17/23,4  10:55:00 PM,23,14,67.96,300,17,0,30.25,10,26,CLR,M,M,M,M,M,M,8.28
0CO,12/17/23,4  11:55:00 PM,23,14,67.96,280,31,0,30.21,10,45,CLR,M,M,M,M,M,M,4.07
0CO,12/17/23,4  12:55:00 AM,23,14,67.96,270,25,0,30.22,10,36,CLR,M,M,M,M,M,M,5.63
0CO,12/17/23,4  1:55:00 AM,24.8,10.4,53.75,270,40,0,30.18,10,55,CLR,M,M,M,M,M,M,4.7
0CO,12/17/23,4  2:55:00 AM,26.6,-4,25.65,280,23,0,30.2,10,48,CLR,M,M,M,M,M,M,11.06
0CO,12/17/23,4  3:55:00 AM,26.6,-14.8,15.08,280,32,0,30.15,10,49,CLR,M,M,M,M,M,M,8.82
0CO,12/17/23,4  4:55:00 AM,26.6,-9.4,19.74,290,29,0,30.15,10,48,CLR,M,M,M,M,M,M,9.5
0CO,12/17/23,4  5:55:00 AM,26.6,-0.4,30.42,280,33,0,30.13,10,51,CLR,M,M,M,M,M,M,8.61
0CO,12/17/23,4  6:55:00 AM,24.8,1.4,35.66,280,32,0,30.14,10,58,BKN,BKN,M,M,10000,12000,M,6.33
0CO,12/17/23,4  7:55:00 AM,23,5,45.41,270,27,0,30.12,10,51,SCT,BKN,M,M,7000,8000,M,5.08
0CO,12/17/23,4  8:55:00 AM,23,5,45.41,280,45,0,30.06,10,63,SCT,OVC,M,M,6500,9000,M,1.25
0CO,12/17/23,4  9:55:00 AM,21.2,8.6,57.69,280,41,0,30.09,7,58,SCT,SCT,OVC,M,3200,3800,4400,-0.57
0CO,12/17/23,4  10:55:00 AM,17.6,12.2,79,280,26,0,30.12,1.25,45,BKN,OVC,M,M,1000,1400,M,-1.99
0CO,12/17/23,4  11:55:00 AM,15.8,10.4,78.84,270,22,0,30.11,3,33,SCT,BKN,OVC,M,700,3000,4500,-3.11
0CO,12/17/23,4  12:55:00 PM,15.8,10.4,78.84,280,17,0,30.12,4,32,BKN,OVC,M,M,2000,2800,M,-1.15
0CO,12/17/23,4  1:55:00 PM,14,12.2,92.38,270,25,0,30.11,1.75,35,BKN,BKN,OVC,M,1000,1400,2200,-6.56
0CO,12/17/23,4  2:55:00 PM,14,10.4,85.28,270,35,0,30.09,0.25,44,OVC,M,M,M,1000,M,M,-9.38
0CO,12/17/23,4  3:55:00 PM,14,10.4,85.28,270,32,0,30.1,0.25,44,OVC,M,M,M,800,M,M,-8.61
0CO,12/17/23,4  4:55:00 PM,14,10.4,85.28,280,30,0,30.13,0.5,43,BKN,BKN,OVC,M,500,1000,1700,-8.07
0CO,12/17/23,4  5:55:00 PM,14,10.4,85.28,280,30,0,30.14,0.5,48,BKN,OVC,M,M,800,1300,M,-8.07
0CO,12/17/23,4  6:55:00 PM,15.8,10.4,78.84,310,19,0,30.15,1,32,BKN,OVC,M,M,900,1500,M,-1.99
0CO,12/17/23,4  7:55:00 PM,14,12.2,92.38,300,23,0,30.13,0.25,35,OVC,M,M,M,500,M,M,-5.88
0CO,12/18/23,4  8:55:00 PM,14,12.2,92.38,M,M,0,30.13,0.25,M,OVC,M,M,M,300,M,M,M
0CO,12/18/23,4  9:55:00 PM,14,12.2,92.38,310,21,0,30.18,0.25,34,OVC,M,M,M,100,M,M,-5.15
0CO,12/18/23,4  10:55:00 PM,14,10.4,85.28,350,16,0,30.22,0.25,25,OVC,M,M,M,100,M,M,-3.04
0CO,12/18/23,4  11:55:00 PM,12.2,10.4,92.32,350,16,0,30.25,0.25,30,OVC,M,M,M,100,M,M,-5.39
0CO,12/18/23,4  12:55:00 AM,12.2,8.6,85.17,M,M,0,30.27,0.25,M,OVC,M,M,M,100,M,M,M
0CO,12/18/23,4  1:55:00 AM,12.2,8.6,85.17,M,M,0,30.31,0.25,M,OVC,M,M,M,100,M,M,M
0CO,12/18/23,4  2:55:00 AM,10.4,8.6,92.25,330,21,0,30.33,0.5,M,OVC,M,M,M,100,M,M,-9.96
0CO,12/18/23,4  3:55:00 AM,8.6,5,84.93,M,M,0,30.34,1,M,OVC,M,M,M,300,M,M,M
0CO,12/18/23,4  4:55:00 AM,8.6,5,84.93,M,M,0,30.36,0.75,M,OVC,M,M,M,300,M,M,M
0CO,12/18/23,4  5:55:00 AM,6.8,3.2,84.8,M,M,0,30.35,1,M,VV ,M,M,M,700,M,M,M
0CO,12/18/23,4  6:55:00 AM,6.8,3.2,84.8,330,22,0,30.35,0.5,27,OVC,M,M,M,100,M,M,-15.17
0CO,12/18/23,4  7:55:00 AM,6.8,3.2,84.8,330,22,0,30.34,0.5,27,OVC,M,M,M,100,M,M,-15.17
0CO,12/18/23,4  8:55:00 AM,6.8,3.2,84.8,330,23,0,30.36,1,29,OVC,M,M,M,100,M,M,-15.56
0CO,12/18/23,4  9:55:00 AM,6.8,3.2,84.8,320,23,0,30.38,M,27,OVC,M,M,M,100,M,M,-15.56
0CO,12/18/23,4  10:55:00 AM,6.8,3.2,84.8,330,24,0,30.38,M,30,BKN,M,M,M,100,M,M,-15.94
0CO,12/18/23,4  11:55:00 AM,8.6,3.2,78.18,340,27,0,30.38,M,36,OVC,M,M,M,100,M,M,-14.55
0CO,12/18/23,4  12:55:00 PM,6.8,3.2,84.8,340,29,0,30.41,M,M,M,M,M,M,M,M,M,-17.66
0CO,12/18/23,4  1:55:00 PM,8.6,5,84.93,340,24,0,30.41,M,36,M,M,M,M,M,M,M,-13.51
0CO,12/18/23,4  2:55:00 PM,8.6,5,84.93,330,27,0,30.4,M,38,M,M,M,M,M,M,M,-14.55
0CO,12/18/23,4  3:55:00 PM,12.2,8.6,85.17,310,35,0,30.4,M,48,M,M,M,M,M,M,M,-11.89
0CO,12/18/23,4  4:55:00 PM,14,12.2,92.38,310,29,0,30.43,2,38,CLR,M,M,M,M,M,M,-7.78
0CO,12/18/23,4  5:55:00 PM,17.6,15.8,92.5,300,29,0,30.42,2.5,38,CLR,M,M,M,M,M,M,-2.84
0CO,12/18/23,4  6:55:00 PM,19.4,19.4,100,310,31,0,30.38,0.75,39,VV ,M,M,M,500,M,M,-0.89
0CO,12/18/23,4  7:55:00 PM,21.2,19.4,92.63,300,31,0,30.35,0.75,41,VV ,M,M,M,500,M,M,1.59
0CO,12/19/23,4  8:55:00 PM,23,19.4,85.85,300,31,0,30.33,0.5,49,VV ,M,M,M,500,M,M,4.07
0CO,12/19/23,4  9:55:00 PM,23,17.6,79.47,310,36,0,30.34,0.5,49,VV ,M,M,M,500,M,M,2.96
0CO,12/19/23,4  10:55:00 PM,21.2,17.6,85.74,320,30,0,30.35,2,36,CLR,M,M,M,M,M,M,1.84
0CO,12/19/23,4  11:55:00 PM,21.2,14,73.32,300,40,0,30.32,0.5,50,VV ,M,M,M,500,M,M,-0.38
0CO,12/19/23,4  12:55:00 AM,23,8.6,53.47,300,37,0,30.29,2.5,52,CLR,M,M,M,M,M,M,2.75
0CO,12/19/23,4  1:55:00 AM,23,3.2,41.8,300,31,0,30.31,5,44,CLR,M,M,M,M,M,M,4.07
0CO,12/19/23,4  2:55:00 AM,21.2,3.2,45.1,310,26,0,30.34,10,38,CLR,M,M,M,M,M,M,2.9
0CO,12/19/23,4  3:55:00 AM,23,1.4,38.45,300,30,0,30.34,10,38,CLR,M,M,M,M,M,M,4.31
0CO,12/19/23,4  4:55:00 AM,17.6,10.4,72.93,310,25,0,30.38,10,30,CLR,M,M,M,M,M,M,-1.68
0CO,12/19/23,4  5:55:00 AM,19.4,8.6,62.28,310,29,0,30.39,10,34,CLR,M,M,M,M,M,M,-0.38
0CO,12/19/23,4  6:55:00 AM,19.4,6.8,57.41,310,23,0,30.4,10,32,CLR,M,M,M,M,M,M,1.38
0CO,12/19/23,4  7:55:00 AM,19.4,5,52.89,300,24,0,30.4,10,31,CLR,M,M,M,M,M,M,1.06
0CO,12/19/23,4  8:55:00 AM,19.4,3.2,48.69,300,31,0,30.38,10,39,CLR,M,M,M,M,M,M,-0.89
0CO,12/19/23,4  9:55:00 AM,19.4,-0.4,41.17,310,30,0,30.38,10,39,CLR,M,M,M,M,M,M,-0.64
0CO,12/19/23,4  10:55:00 AM,19.4,-4,34.71,300,40,0,30.35,7,56,CLR,M,M,M,M,M,M,-2.92
0CO,12/19/23,4  11:55:00 AM,19.4,-4,34.71,M,M,0,30.28,1.25,M,VV ,M,M,M,700,M,M,M
0CO,12/19/23,4  12:55:00 PM,19.4,-5.8,31.83,310,52,0,30.24,3,66,CLR,M,M,M,M,M,M,-5.09
0CO,12/19/23,4  1:55:00 PM,19.4,-7.6,29.17,310,52,0,30.26,5,60,CLR,M,M,M,M,M,M,-5.09
0CO,12/19/23,4  2:55:00 PM,19.4,-7.6,29.17,310,45,0,30.3,7,56,CLR,M,M,M,M,M,M,-3.88
0CO,12/19/23,4  3:55:00 PM,19.4,-7.6,29.17,310,40,0,30.34,10,56,CLR,M,M,M,M,M,M,-2.92
0CO,12/19/23,4  4:55:00 PM,21.2,-7.6,27.02,320,31,0,30.37,10,50,CLR,M,M,M,M,M,M,1.59
0CO,12/19/23,4  5:55:00 PM,21.2,-5.8,29.48,310,44,0,30.36,5,60,CLR,M,M,M,M,M,M,-1.14
0CO,12/19/23,4  6:55:00 PM,21.2,-7.6,27.02,310,40,0,30.37,10,47,CLR,M,M,M,M,M,M,-0.38
0CO,12/19/23,4  7:55:00 PM,21.2,-5.8,29.48,320,32,0,30.38,7,46,CLR,M,M,M,M,M,M,1.35
0CO,12/20/23,4  8:55:00 PM,21.2,-4,32.15,320,42,0,30.38,10,48,CLR,M,M,M,M,M,M,-0.77
0CO,12/20/23,4  9:55:00 PM,21.2,-5.8,29.48,310,47,0,30.35,10,52,CLR,M,M,M,M,M,M,-1.67
0CO,12/20/23,4  10:55:00 PM,21.2,-5.8,29.48,320,27,0,30.47,10,39,CLR,M,M,M,M,M,M,2.62
0CO,12/20/23,4  11:55:00 PM,19.4,-7.6,29.17,310,28,0,30.46,10,38,CLR,M,M,M,M,M,M,-0.11
0CO,12/20/23,4  12:55:00 AM,14,3.2,61.51,330,24,0,30.47,10,33,CLR,M,M,M,M,M,M,-6.22
0CO,12/20/23,4  1:55:00 AM,17.6,-7.6,31.51,310,25,0,30.48,10,31,CLR,M,M,M,M,M,M,-1.68
0CO,12/20/23,4  2:55:00 AM,17.6,-7.6,31.51,320,19,0,30.51,10,26,CLR,M,M,M,M,M,M,0.39
0CO,12/20/23,4  3:55:00 AM,19.4,-9.4,26.71,320,20,0,30.51,10,25,CLR,M,M,M,M,M,M,2.4
0CO,12/20/23,4  4:55:00 AM,21.2,-14.8,18.9,310,20,0,30.52,10,24,CLR,M,M,M,M,M,M,4.79
0CO,12/20/23,4  5:55:00 AM,21.2,-16.6,17.25,310,17,0,30.53,10,22,CLR,M,M,M,M,M,M,5.93
0CO,12/20/23,4  6:55:00 AM,21.2,-13,20.69,300,21,0,30.52,10,24,CLR,M,M,M,M,M,M,4.45
0CO,12/20/23,4  7:55:00 AM,23,-13,19.18,310,25,0,30.5,10,30,CLR,M,M,M,M,M,M,5.63
0CO,12/20/23,4  8:55:00 AM,23,-16.6,15.99,300,23,0,30.5,10,26,CLR,M,M,M,M,M,M,6.22
0CO,12/20/23,4  9:55:00 AM,24.8,-18.4,13.52,270,13,0,30.51,10,27,CLR,M,M,M,M,M,M,12.34
0CO,12/20/23,4  10:55:00 AM,26.6,-22,10.41,270,18,0,30.49,10,31,CLR,M,M,M,M,M,M,12.64
0CO,12/20/23,4  11:55:00 AM,26.6,-20.2,11.43,290,18,0,30.48,10,32,CLR,M,M,M,M,M,M,12.64
0CO,12/20/23,4  12:55:00 PM,26.6,-20.2,11.43,280,17,0,30.49,10,29,CLR,M,M,M,M,M,M,13
0CO,12/20/23,4  1:55:00 PM,26.6,-14.8,15.08,290,27,0,30.47,10,32,CLR,M,M,M,M,M,M,9.98
0CO,12/20/23,4  2:55:00 PM,26.6,-13,16.51,300,27,0,30.48,10,33,CLR,M,M,M,M,M,M,9.98
0CO,12/20/23,4  3:55:00 PM,26.6,-11.2,18.06,300,28,0,30.5,10,34,CLR,M,M,M,M,M,M,9.74
0CO,12/20/23,4  4:55:00 PM,26.6,-9.4,19.74,310,22,0,30.52,10,33,CLR,M,M,M,M,M,M,11.35
0CO,12/20/23,4  5:55:00 PM,28.4,-11.2,16.77,320,24,0,30.51,10,34,CLR,M,M,M,M,M,M,13.2
0CO,12/20/23,4  6:55:00 PM,28.4,-9.4,18.33,300,30,0,30.45,10,41,CLR,M,M,M,M,M,M,11.74
0CO,12/20/23,4  7:55:00 PM,26.6,-4,25.65,320,27,0,30.41,10,35,CLR,M,M,M,M,M,M,9.98
0CO,12/21/23,4  8:55:00 PM,26.6,-4,25.65,320,27,0,30.42,10,36,CLR,M,M,M,M,M,M,9.98
0CO,12/21/23,4  9:55:00 PM,24.8,-4,27.63,330,29,0,30.43,10,37,CLR,M,M,M,M,M,M,7.03
0CO,12/21/23,4  10:55:00 PM,24.8,-4,27.63,310,34,0,30.41,10,41,CLR,M,M,M,M,M,M,5.89
0CO,12/21/23,4  11:55:00 PM,24.8,-5.8,25.34,310,31,0,30.43,10,39,CLR,M,M,M,M,M,M,6.56
0CO,12/21/23,4  12:55:00 AM,24.8,-4,27.63,310,29,0,30.43,10,41,CLR,M,M,M,M,M,M,7.03
0CO,12/21/23,4  1:55:00 AM,24.8,-4,27.63,310,27,0,30.46,10,35,CLR,M,M,M,M,M,M,7.53
0CO,12/21/23,4  2:55:00 AM,23,-0.4,35.34,310,24,0,30.46,10,34,CLR,M,M,M,M,M,M,5.92
0CO,12/21/23,4  3:55:00 AM,23,1.4,38.45,320,26,0,30.46,10,33,CLR,M,M,M,M,M,M,5.35
0CO,12/21/23,4  4:55:00 AM,21.2,1.4,41.49,320,24,0,30.46,10,30,CLR,M,M,M,M,M,M,3.49
0CO,12/21/23,4  5:55:00 AM,21.2,1.4,41.49,320,21,0,30.48,10,26,CLR,M,M,M,M,M,M,4.45
0CO,12/21/23,4  6:55:00 AM,21.2,-0.4,38.13,330,22,0,30.47,10,31,CLR,M,M,M,M,M,M,4.12
0CO,12/21/23,4  7:55:00 AM,21.2,-0.4,38.13,320,16,0,30.49,10,M,CLR,M,M,M,M,M,M,6.34
0CO,12/21/23,4  8:55:00 AM,21.2,-0.4,38.13,330,17,0,30.48,10,M,CLR,M,M,M,M,M,M,5.93
0CO,12/21/23,4  9:55:00 AM,21.2,-4,32.15,340,13,0,30.49,10,20,CLR,M,M,M,M,M,M,7.73
0CO,12/21/23,4  10:55:00 AM,23,-5.8,27.33,320,19,0,30.48,10,24,CLR,M,M,M,M,M,M,7.54
0CO,12/21/23,4  11:55:00 AM,21.2,-4,32.15,330,15,0,30.47,10,M,CLR,M,M,M,M,M,M,6.78
0CO,12/21/23,4  12:55:00 PM,21.2,-4,32.15,330,15,0,30.47,10,18,CLR,M,M,M,M,M,M,6.78
0CO,12/21/23,4  1:55:00 PM,21.2,-5.8,29.48,340,15,0,30.47,10,22,CLR,M,M,M,M,M,M,6.78
0CO,12/21/23,4  2:55:00 PM,23,-5.8,27.33,330,15,0,30.47,10,22,CLR,M,M,M,M,M,M,9.11
0CO,12/21/23,4  3:55:00 PM,23,-7.6,25.04,320,11,0,30.47,10,19,CLR,M,M,M,M,M,M,11.09
0CO,12/21/23,4  4:55:00 PM,26.6,-7.6,21.55,330,13,0,30.48,10,25,CLR,M,M,M,M,M,M,14.65
0CO,12/21/23,4  5:55:00 PM,28.4,-7.6,20.01,280,14,0,30.47,10,19,CLR,M,M,M,M,M,M,16.52
0CO,12/21/23,4  6:55:00 PM,28.4,-5.8,21.84,280,12,0,30.44,10,21,CLR,M,M,M,M,M,M,17.42
0CO,12/21/23,4  7:55:00 PM,30.2,-5.8,20.29,280,18,0,30.41,10,32,CLR,M,M,M,M,M,M,17.38
0CO,12/22/23,4  8:55:00 PM,30.2,-0.4,26.25,300,12,0,30.41,10,24,CLR,M,M,M,M,M,M,19.71
0CO,12/22/23,4  9:55:00 PM,30.2,1.4,28.55,300,13,0,30.41,10,23,CLR,M,M,M,M,M,M,19.26
0CO,12/22/23,4  10:55:00 PM,28.4,1.4,30.73,300,19,0,30.4,10,28,CLR,M,M,M,M,M,M,14.68
0CO,12/22/23,4  11:55:00 PM,28.4,1.4,30.73,300,25,0,30.38,10,30,CLR,M,M,M,M,M,M,12.94
0CO,12/22/23,4  12:55:00 AM,24.8,1.4,35.66,320,19,0,30.37,10,27,CLR,M,M,M,M,M,M,9.92
0CO,12/22/23,4  1:55:00 AM,26.6,1.4,33.09,290,27,0,30.35,10,32,CLR,M,M,M,M,M,M,9.98
0CO,12/22/23,4  2:55:00 AM,28.4,1.4,30.73,290,19,0,30.35,10,35,CLR,M,M,M,M,M,M,14.68
0CO,12/22/23,4  3:55:00 AM,26.6,3.2,35.98,300,30,0,30.31,10,40,CLR,M,M,M,M,M,M,9.27
0CO,12/22/23,4  4:55:00 AM,26.6,5,39.08,290,31,0,30.32,10,38,CLR,M,M,M,M,M,M,9.04
0CO,12/22/23,4  5:55:00 AM,26.6,6.8,42.42,290,30,0,30.31,10,38,CLR,M,M,M,M,M,M,9.27
0CO,12/22/23,4  6:55:00 AM,26.6,6.8,42.42,300,29,0,30.28,10,41,CLR,M,M,M,M,M,M,9.5
0CO,12/22/23,4  7:55:00 AM,24.8,8.6,49.59,310,27,0,30.28,10,40,CLR,M,M,M,M,M,M,7.53
0CO,12/22/23,4  8:55:00 AM,23,8.6,53.47,310,26,0,30.27,10,34,CLR,M,M,M,M,M,M,5.35
0CO,12/22/23,4  9:55:00 AM,23,8.6,53.47,310,24,0,30.28,10,32,CLR,M,M,M,M,M,M,5.92
0CO,12/22/23,4  10:55:00 AM,21.2,8.6,57.69,320,29,0,30.25,10,34,CLR,M,M,M,M,M,M,2.09
0CO,12/22/23,4  11:55:00 AM,23,8.6,53.47,310,29,0,30.22,10,41,CLR,M,M,M,M,M,M,4.56
0CO,12/22/23,4  12:55:00 PM,23,8.6,53.47,300,29,0,30.22,10,39,CLR,M,M,M,M,M,M,4.56
0CO,12/22/23,4  1:55:00 PM,24.8,8.6,49.59,290,32,0,30.22,10,40,CLR,M,M,M,M,M,M,6.33
0CO,12/22/23,4  2:55:00 PM,23,8.6,53.47,310,30,0,30.24,10,39,CLR,M,M,M,M,M,M,4.31
0CO,12/22/23,4  3:55:00 PM,24.8,8.6,49.59,310,32,0,30.22,10,47,CLR,M,M,M,M,M,M,6.33
0CO,12/22/23,4  4:55:00 PM,24.8,10.4,53.75,320,26,0,30.26,10,37,CLR,M,M,M,M,M,M,7.79
0CO,12/22/23,4  5:55:00 PM,23,10.4,57.96,330,27,0,30.22,10,38,CLR,M,M,M,M,M,M,5.08
0CO,12/22/23,4  6:55:00 PM,23,10.4,57.96,330,22,0,30.22,10,33,CLR,M,M,M,M,M,M,6.53
0CO,12/22/23,4  7:55:00 PM,28.4,10.4,46.32,300,26,0,30.2,10,37,CLR,M,M,M,M,M,M,12.68
0CO,12/23/23,4  8:55:00 PM,28.4,12.2,50.17,310,25,0,30.18,10,35,CLR,M,M,M,M,M,M,12.94
0CO,12/23/23,4  9:55:00 PM,26.6,12.2,54.03,300,26,0,30.19,10,32,CLR,M,M,M,M,M,M,10.24
0CO,12/23/23,4  10:55:00 PM,24.8,8.6,49.59,310,25,0,30.2,10,32,CLR,M,M,M,M,M,M,8.07
0CO,12/23/23,4  11:55:00 PM,23,10.4,57.96,300,23,0,30.21,10,32,CLR,M,M,M,M,M,M,6.22
0CO,12/23/23,4  12:55:00 AM,23,6.8,49.29,300,24,0,30.21,10,35,CLR,M,M,M,M,M,M,5.92
0CO,12/23/23,4  1:55:00 AM,23,8.6,53.47,300,26,0,30.22,10,33,BKN,M,M,M,6500,M,M,5.35
0CO,12/23/23,4  2:55:00 AM,23,8.6,53.47,300,19,0,30.24,10,28,BKN,OVC,M,M,6000,10000,M,7.54
0CO,12/23/23,4  3:55:00 AM,23,8.6,53.47,300,17,0,30.24,10,28,OVC,M,M,M,4100,M,M,8.28
0CO,12/23/23,4  4:55:00 AM,23,10.4,57.96,300,19,0,30.24,10,26,SCT,OVC,M,M,4100,5500,M,7.54
0CO,12/23/23,4  5:55:00 AM,23,12.2,62.78,290,15,0,30.25,10,28,OVC,M,M,M,4300,M,M,9.11
0CO,12/23/23,4  6:55:00 AM,23,12.2,62.78,280,13,0,30.23,10,24,SCT,SCT,OVC,M,4900,7500,10000,10.04
0CO,12/23/23,4  7:55:00 AM,21.2,12.2,67.73,280,19,0,30.21,10,32,BKN,OVC,M,M,5500,7000,M,5.15
0CO,12/23/23,4  8:55:00 AM,19.4,10.4,67.51,290,20,0,30.2,10,25,OVC,M,M,M,9000,M,M,2.4
0CO,12/23/23,4  9:55:00 AM,19.4,12.2,73.13,300,18,0,30.2,10,29,CLR,M,M,M,M,M,M,3.16
0CO,12/23/23,4  10:55:00 AM,19.4,10.4,67.51,310,21,0,30.19,10,30,CLR,M,M,M,M,M,M,2.05
0CO,12/23/23,4  11:55:00 AM,17.6,12.2,79,320,20,0,30.17,10,28,OVC,M,M,M,1400,M,M,0.01
0CO,12/23/23,4  12:55:00 PM,17.6,14,85.51,310,19,0,30.19,7,23,OVC,M,M,M,900,M,M,0.39
0CO,12/23/23,4  1:55:00 PM,17.6,14,85.51,310,19,0,30.2,10,24,BKN,OVC,M,M,500,1100,M,0.39
0CO,12/23/23,4  2:55:00 PM,17.6,15.8,92.5,320,16,0,30.21,3,25,BKN,OVC,M,M,300,900,M,1.65
0CO,12/23/23,4  3:55:00 PM,14,12.2,92.38,330,19,0,30.22,0.25,24,OVC,M,M,M,100,M,M,-4.37
0CO,12/23/23,4  4:55:00 PM,17.6,15.8,92.5,300,18,0,30.24,0.25,24,OVC,M,M,M,100,M,M,0.79
0CO,12/23/23,4  5:55:00 PM,19.4,17.6,92.57,320,11,0,30.24,0.25,25,OVC,M,M,M,100,M,M,6.54
0CO,12/23/23,4  6:55:00 PM,19.4,17.6,92.57,300,9,0,30.23,0.75,19,OVC,M,M,M,100,M,M,7.85
0CO,12/23/23,4  7:55:00 PM,19.4,17.6,92.57,310,11,0,30.2,10,19,OVC,M,M,M,500,M,M,6.54
0CO,12/24/23,4  8:55:00 PM,19.4,17.6,92.57,310,13,0,30.19,5,17,OVC,M,M,M,700,M,M,5.43
0CO,12/24/23,4  9:55:00 PM,17.6,15.8,92.5,340,12,0,30.19,0.25,17,OVC,M,M,M,200,M,M,3.67
0CO,12/24/23,4  10:55:00 PM,17.6,15.8,92.5,320,12,0,30.2,0.25,18,OVC,M,M,M,200,M,M,3.67
0CO,12/24/23,4  11:55:00 PM,17.6,15.8,92.5,310,17,0,30.23,0.25,22,OVC,M,M,M,200,M,M,1.21
0CO,12/24/23,4  12:55:00 AM,19.4,17.6,92.57,320,19,0,30.24,0.25,24,OVC,M,M,M,200,M,M,2.77
0CO,12/24/23,4  1:55:00 AM,17.6,15.8,92.5,330,20,0,30.24,0.25,28,OVC,M,M,M,200,M,M,0.01
0CO,12/24/23,4  2:55:00 AM,17.6,15.8,92.5,330,23,0,30.25,0.75,M,OVC,M,M,M,200,M,M,-1.04
0CO,12/24/23,4  3:55:00 AM,17.6,15.8,92.5,330,22,0,30.25,0.25,34,OVC,M,M,M,200,M,M,-0.7
0CO,12/24/23,4  4:55:00 AM,17.6,15.8,92.5,340,23,0,30.28,M,29,OVC,M,M,M,200,M,M,-1.04
0CO,12/24/23,4  5:55:00 AM,17.6,15.8,92.5,340,21,0.02,30.28,M,31,OVC,M,M,M,200,M,M,-0.35
0CO,12/24/23,4  6:55:00 AM,17.6,14,85.51,330,22,0.01,30.29,M,29,OVC,M,M,M,200,M,M,-0.7
0CO,12/24/23,4  7:55:00 AM,17.6,14,85.51,330,18,0.01,30.26,M,27,OVC,M,M,M,200,M,M,0.79
0CO,12/24/23,4  8:55:00 AM,15.8,14,92.44,340,21,0,30.26,M,30,OVC,M,M,M,200,M,M,-2.75
0CO,12/24/23,4  9:55:00 AM,14,12.2,92.38,340,22,0,30.27,M,28,OVC,M,M,M,200,M,M,-5.52
0CO,12/24/23,4  10:55:00 AM,14,12.2,92.38,360,7,0,30.27,M,17,OVC,M,M,M,200,M,M,2.84
0CO,12/24/23,4  11:55:00 AM,14,10.4,85.28,350,8,0.01,30.27,0.5,22,OVC,M,M,M,200,M,M,1.94
0CO,12/24/23,4  12:55:00 PM,12.2,8.6,85.17,M,M,0,30.27,2,M,SCT,OVC,M,M,200,800,M,M
0CO,12/24/23,4  1:55:00 PM,12.2,8.6,85.17,350,12,0,30.27,0.75,22,OVC,M,M,M,200,M,M,-3.2
0CO,12/24/23,4  2:55:00 PM,12.2,8.6,85.17,330,9,0,30.27,0.25,M,BKN,M,M,M,100,M,M,-1.11
0CO,12/24/23,4  3:55:00 PM,12.2,10.4,92.32,330,9,0,30.28,0.25,M,VV ,M,M,M,200,M,M,-1.11
0CO,12/24/23,4  4:55:00 PM,14,10.4,85.28,130,8,0.01,30.27,10,M,CLR,M,M,M,M,M,M,1.94
0CO,12/24/23,4  5:55:00 PM,14,10.4,85.28,280,6,0,30.28,10,M,CLR,M,M,M,M,M,M,3.85
0CO,12/24/23,4  6:55:00 PM,15.8,14,92.44,260,8,0,30.24,10,M,CLR,M,M,M,M,M,M,4.16
0CO,12/24/23,4  7:55:00 PM,15.8,14,92.44,340,9,0,30.22,10,18,CLR,M,M,M,M,M,M,3.37
0CO,12/25/23,4  8:55:00 PM,17.6,14,85.51,340,18,0,30.2,0.25,25,OVC,M,M,M,100,M,M,0.79
0CO,12/25/23,4  9:55:00 PM,15.8,14,92.44,330,16,0.01,30.19,0.25,23,OVC,M,M,M,100,M,M,-0.7
0CO,12/25/23,4  10:55:00 PM,15.8,14,92.44,320,17,0,30.19,0.25,25,OVC,M,M,M,100,M,M,-1.15
0CO,12/25/23,4  11:55:00 PM,15.8,12.2,85.4,310,17,0.01,30.17,10,20,CLR,M,M,M,M,M,M,-1.15
0CO,12/25/23,4  12:55:00 AM,23,-7.6,25.04,260,12,0,30.17,10,16,CLR,M,M,M,M,M,M,10.55
0CO,12/25/23,4  1:55:00 AM,23,-7.6,25.04,320,9,0,30.15,10,19,CLR,M,M,M,M,M,M,12.32
0CO,12/25/23,4  2:55:00 AM,23,-7.6,25.04,310,14,0,30.14,10,M,CLR,M,M,M,M,M,M,9.56
0CO,12/25/23,4  3:55:00 AM,26.6,-11.2,18.06,320,14,0,30.12,10,M,CLR,M,M,M,M,M,M,14.2
0CO,12/25/23,4  4:55:00 AM,28.4,-18.4,11.65,290,18,0,30.09,10,22,CLR,M,M,M,M,M,M,15.01
0CO,12/25/23,4  5:55:00 AM,28.4,-20.2,10.62,260,13,0.01,30.08,10,19,CLR,M,M,M,M,M,M,16.96
0CO,12/25/23,4  6:55:00 AM,28.4,-9.4,18.33,270,13,0,30.05,10,22,CLR,M,M,M,M,M,M,16.96
0CO,12/25/23,4  7:55:00 AM,26.6,-14.8,15.08,320,8,0,30.03,10,19,SCT,M,M,M,12000,M,M,17.46
0CO,12/25/23,4  8:55:00 AM,24.8,-16.6,14.83,290,10,0,30.01,10,19,OVC,M,M,M,10000,M,M,13.94
0CO,12/25/23,4  9:55:00 AM,26.6,-18.4,12.55,310,9,0,30,10,19,OVC,M,M,M,7500,M,M,16.8
0CO,12/25/23,4  10:55:00 AM,21.2,-9.4,24.74,340,15,0,29.97,10,21,SCT,SCT,BKN,M,7500,8000,12000,6.78
0CO,12/25/23,4  11:55:00 AM,17.6,-4,37.5,350,11,0,29.96,10,22,SCT,BKN,BKN,M,7500,9000,12000,4.27
0CO,12/25/23,4  12:55:00 PM,17.6,-0.4,44.48,330,14,0,29.95,10,22,SCT,SCT,OVC,M,3100,4800,10000,2.6
0CO,12/25/23,4  1:55:00 PM,17.6,10.4,72.93,300,15,0,29.93,10,20,SCT,BKN,OVC,M,1900,8000,11000,2.11
0CO,12/25/23,4  2:55:00 PM,21.2,8.6,57.69,260,17,0,29.93,10,24,CLR,M,M,M,M,M,M,5.93
0CO,12/25/23,4  3:55:00 PM,23,10.4,57.96,250,9,0,29.94,10,16,CLR,M,M,M,M,M,M,12.32
0CO,12/25/23,4  4:55:00 PM,21.2,10.4,62.53,290,5,0,29.94,10,M,SCT,M,M,M,2800,M,M,13.57
0CO,12/25/23,4  5:55:00 PM,21.2,12.2,67.73,250,4,0,29.93,10,M,SCT,OVC,M,M,3600,4600,M,14.81
0CO,12/25/23,4  6:55:00 PM,19.4,14,79.16,280,7,0,29.9,0.5,M,OVC,M,M,M,700,M,M,9.42
0CO,12/25/23,4  7:55:00 PM,17.6,15.8,92.5,350,9,0,29.89,0.25,M,OVC,M,M,M,500,M,M,5.61
0CO,12/26/23,4  8:55:00 PM,17.6,14,85.51,290,7,0.01,29.89,0.25,M,OVC,M,M,M,100,M,M,7.23
0CO,12/26/23,4  9:55:00 PM,17.6,14,85.51,360,6,0.01,29.89,0.25,M,OVC,M,M,M,100,M,M,8.19
0CO,12/26/23,4  10:55:00 PM,17.6,14,85.51,340,17,0.04,29.91,0.25,21,OVC,M,M,M,100,M,M,1.21
0CO,12/26/23,4  11:55:00 PM,17.6,14,85.51,350,15,0.01,29.93,0.25,25,OVC,M,M,M,100,M,M,2.11
0CO,12/26/23,4  12:55:00 AM,15.8,14,92.44,350,11,0.01,29.95,0.25,24,OVC,M,M,M,100,M,M,1.99
0CO,12/26/23,4  1:55:00 AM,15.8,14,92.44,40,6,0.02,29.97,0.25,M,OVC,M,M,M,100,M,M,6.02
0CO,12/26/23,4  2:55:00 AM,15.8,14,92.44,360,8,0,29.98,0.25,20,OVC,M,M,M,100,M,M,4.16
0CO,12/26/23,4  3:55:00 AM,15.8,12.2,85.4,10,7,0,30,0.25,18,OVC,M,M,M,100,M,M,5.03
0CO,12/26/23,4  4:55:00 AM,14,12.2,92.38,330,15,0,30,0.25,27,OVC,M,M,M,100,M,M,-2.56
0CO,12/26/23,4  5:55:00 AM,14,12.2,92.38,320,17,0,30.01,0.5,25,OVC,M,M,M,100,M,M,-3.51
0CO,12/26/23,4  6:55:00 AM,14,12.2,92.38,340,14,0,30.02,0.5,23,OVC,M,M,M,100,M,M,-2.04
0CO,12/26/23,4  7:55:00 AM,14,12.2,92.38,340,19,0,30,0.5,26,OVC,M,M,M,100,M,M,-4.37
0CO,12/26/23,4  8:55:00 AM,14,10.4,85.28,350,10,0,30,0.5,21,OVC,M,M,M,100,M,M,0.4
0CO,12/26/23,4  9:55:00 AM,12.2,10.4,92.32,340,21,0,29.98,4,29,OVC,M,M,M,300,M,M,-7.55
0CO,12/26/23,4  10:55:00 AM,12.2,8.6,85.17,330,16,0,29.97,2,25,OVC,M,M,M,300,M,M,-5.39
0CO,12/26/23,4  11:55:00 AM,10.4,8.6,92.25,330,20,0,29.95,5,27,OVC,M,M,M,300,M,M,-9.55
0CO,12/26/23,4  12:55:00 PM,10.4,8.6,92.25,350,13,0,29.96,0.25,26,OVC,M,M,M,100,M,M,-6.1
0CO,12/26/23,4  1:55:00 PM,10.4,8.6,92.25,360,10,0,29.94,0.25,27,OVC,M,M,M,100,M,M,-4.12
0CO,12/26/23,4  2:55:00 PM,10.4,8.6,92.25,M,M,0,29.92,0.25,M,OVC,M,M,M,100,M,M,M
0CO,12/26/23,4  3:55:00 PM,10.4,8.6,92.25,340,22,0,29.9,M,34,OVC,M,M,M,100,M,M,-10.35
0CO,12/26/23,4  4:55:00 PM,10.4,8.6,92.25,360,16,0,29.92,M,33,BKN,BKN,M,M,100,11000,M,-7.74
0CO,12/26/23,4  5:55:00 PM,12.2,10.4,92.32,330,25,0,29.88,M,36,OVC,M,M,M,100,M,M,-8.99
0CO,12/26/23,4  6:55:00 PM,14,10.4,85.28,310,23,0,29.84,M,32,OVC,M,M,M,100,M,M,-5.88
0CO,12/26/23,4  7:55:00 PM,14,12.2,92.38,310,30,0,29.79,M,36,BKN,OVC,M,M,200,700,M,-8.07
0CO,12/27/23,4  8:55:00 PM,14,12.2,92.38,330,33,0,29.76,M,42,OVC,M,M,M,600,M,M,-8.87
0CO,12/27/23,4  9:55:00 PM,14,10.4,85.28,300,36,0,29.77,0.5,47,OVC,M,M,M,300,M,M,-9.62
0CO,12/27/23,4  10:55:00 PM,12.2,10.4,92.32,M,M,0,29.69,0.25,M,OVC,M,M,M,700,M,M,M
0CO,12/27/23,4  11:55:00 PM,10.4,8.6,92.25,330,37,0,29.73,0.75,M,BKN,OVC,M,M,700,1600,M,-14.9
0CO,12/27/23,4  12:55:00 AM,12.2,8.6,85.17,330,28,0,29.76,0.75,42,OVC,M,M,M,400,M,M,-9.95
0CO,12/27/23,4  1:55:00 AM,12.2,8.6,85.17,290,32,0,29.77,1.75,M,OVC,M,M,M,500,M,M,-11.1
0CO,12/27/23,4  2:55:00 AM,10.4,8.6,92.25,290,34,0,29.77,1.5,50,BKN,OVC,M,M,900,1300,M,-14.13
0CO,12/27/23,4  3:55:00 AM,10.4,8.6,92.25,M,M,0,29.77,2,M,SCT,BKN,OVC,M,500,1000,1600,M
0CO,12/27/23,4  4:55:00 AM,10.4,8.6,92.25,M,M,0,29.78,2.5,M,SCT,BKN,OVC,M,900,1500,2100,M
0CO,12/27/23,4  5:55:00 AM,10.4,8.6,92.25,M,M,0,29.77,1,M,OVC,M,M,M,400,M,M,M
0CO,12/27/23,4  6:55:00 AM,10.4,8.6,92.25,310,20,0,29.75,0.75,M,OVC,M,M,M,400,M,M,-9.55
0CO,12/27/23,4  7:55:00 AM,8.6,5,84.93,310,30,0,29.71,0.25,44,OVC,M,M,M,400,M,M,-15.49
0CO,12/27/23,4  8:55:00 AM,8.6,5,84.93,300,29,0,29.73,0.5,34,OVC,M,M,M,200,M,M,-15.19
0CO,12/27/23,4  9:55:00 AM,8.6,5,84.93,310,17,0,29.75,1,M,OVC,M,M,M,400,M,M,-10.58
0CO,12/27/23,4  10:55:00 AM,8.6,5,84.93,M,M,0,29.72,0.25,M,OVC,M,M,M,400,M,M,M
0CO,12/27/23,4  11:55:00 AM,5,3.2,92.06,310,29,0,29.7,0.25,38,OVC,M,M,M,400,M,M,-20.13
0CO,12/27/23,4  12:55:00 PM,5,1.4,84.68,M,M,0,29.72,0.5,M,OVC,M,M,M,600,M,M,M
0CO,12/27/23,4  1:55:00 PM,5,1.4,84.68,M,M,0,29.71,0.5,M,OVC,M,M,M,200,M,M,M
0CO,12/27/23,4  2:55:00 PM,5,1.4,84.68,M,M,0,29.72,0.5,M,OVC,M,M,M,600,M,M,M
0CO,12/27/23,4  3:55:00 PM,5,1.4,84.68,M,M,0,29.74,2.5,M,M,M,M,M,M,M,M,M
0CO,12/27/23,4  4:55:00 PM,5,1.4,84.68,M,M,0,29.74,0.5,M,BKN,BKN,OVC,M,100,500,12000,M
0CO,12/27/23,4  5:55:00 PM,5,3.2,92.06,290,42,0,29.66,0.25,M,VV ,M,M,M,0,M,M,-23.72
0CO,12/27/23,4  6:55:00 PM,8.6,5,84.93,320,26,0,29.68,0.75,M,VV ,M,M,M,500,M,M,-14.21
0CO,12/27/23,4  7:55:00 PM,10.4,8.6,92.25,M,M,0,29.66,0.5,M,OVC,M,M,M,6000,M,M,M
0CO,12/28/23,4  8:55:00 PM,12.2,10.4,92.32,290,29,0,29.67,1.5,38,SCT,M,M,M,1300,M,M,-10.25
0CO,12/28/23,4  9:55:00 PM,12.2,8.6,85.17,290,21,0,29.69,3,31,SCT,M,M,M,1000,M,M,-7.55
0CO,12/28/23,4  10:55:00 PM,12.2,10.4,92.32,300,17,0,29.71,10,27,SCT,SCT,M,M,900,1500,M,-5.86
0CO,12/28/23,4  11:55:00 PM,10.4,8.6,92.25,330,13,0,29.73,0.25,18,OVC,M,M,M,100,M,M,-6.1
0CO,12/28/23,4  12:55:00 AM,12.2,8.6,85.17,310,15,0,29.75,2.5,19,SCT,BKN,OVC,M,100,600,1700,-4.89
0CO,12/28/23,4  1:55:00 AM,12.2,10.4,92.32,320,19,0,29.77,1,M,OVC,M,M,M,600,M,M,-6.75
0CO,12/28/23,4  2:55:00 AM,12.2,10.4,92.32,M,M,0,29.79,1.25,M,BKN,OVC,M,M,400,1100,M,M
0CO,12/28/23,4  3:55:00 AM,12.2,10.4,92.32,330,19,0,29.81,0.5,23,OVC,M,M,M,200,M,M,-6.75
0CO,12/28/23,4  4:55:00 AM,12.2,10.4,92.32,M,M,0,29.81,0.5,M,OVC,M,M,M,200,M,M,M
0CO,12/28/23,4  5:55:00 AM,12.2,10.4,92.32,310,36,0,29.78,0.25,46,OVC,M,M,M,200,M,M,-12.14
0CO,12/28/23,4  6:55:00 AM,12.2,10.4,92.32,300,32,0,29.8,0.5,42,OVC,M,M,M,400,M,M,-11.1
0CO,12/28/23,4  7:55:00 AM,12.2,10.4,92.32,300,34,0,29.82,0.25,44,OVC,M,M,M,200,M,M,-11.63
0CO,12/28/23,4  8:55:00 AM,12.2,10.4,92.32,320,30,0,29.86,0.5,38,OVC,M,M,M,200,M,M,-10.54
0CO,12/28/23,4  9:55:00 AM,12.2,10.4,92.32,M,M,0,29.89,0.5,M,OVC,M,M,M,400,M,M,M
0CO,12/28/23,4  10:55:00 AM,12.2,10.4,92.32,M,M,0,29.91,1.75,M,SCT,BKN,OVC,M,1000,2100,2900,M
0CO,12/28/23,4  11:55:00 AM,12.2,10.4,92.32,310,26,0,29.93,0.5,M,OVC,M,M,M,100,M,M,-9.32
0CO,12/28/23,4  12:55:00 PM,12.2,8.6,85.17,330,26,0,29.94,0.5,34,OVC,M,M,M,100,M,M,-9.32
0CO,12/28/23,4  1:55:00 PM,10.4,8.6,92.25,310,27,0,29.94,M,34,OVC,M,M,M,100,M,M,-12.1
0CO,12/28/23,4  2:55:00 PM,10.4,8.6,92.25,310,28,0,29.96,0.75,36,OVC,M,M,M,200,M,M,-12.41
0CO,12/28/23,4  3:55:00 PM,10.4,8.6,92.25,330,22,0,29.99,M,30,OVC,M,M,M,200,M,M,-10.35
0CO,12/28/23,4  4:55:00 PM,12.2,8.6,85.17,330,20,0,30.01,M,M,OVC,M,M,M,200,M,M,-7.16
0CO,12/28/23,4  5:55:00 PM,12.2,10.4,92.32,M,M,0,30.01,M,M,OVC,M,M,M,200,M,M,M
0CO,12/28/23,4  6:55:00 PM,14,10.4,85.28,M,M,0,30,M,M,M,M,M,M,M,M,M,M
0CO,12/28/23,4  7:55:00 PM,14,12.2,92.38,M,M,0,29.97,M,M,BKN,OVC,M,M,1000,1300,M,M
0CO,12/29/23,4  8:55:00 PM,14,12.2,92.38,290,10,0,30,4,16,BKN,BKN,OVC,M,1100,1600,2400,0.4
0CO,12/29/23,4  9:55:00 PM,15.8,12.2,85.4,290,9,0,30,2.5,15,BKN,OVC,M,M,600,1000,M,3.37
0CO,12/29/23,4  10:55:00 PM,15.8,14,92.44,280,12,0,30,2,17,SCT,BKN,OVC,M,400,900,1300,1.38
0CO,12/29/23,4  11:55:00 PM,17.6,14,85.51,290,22,0,29.97,1,44,BKN,OVC,M,M,700,1500,M,-0.7
0CO,12/29/23,4  12:55:00 AM,17.6,14,85.51,310,30,0,29.97,0.75,38,OVC,M,M,M,200,M,M,-3.11
0CO,12/29/23,4  1:55:00 AM,17.6,15.8,92.5,290,34,0,29.99,0.75,45,OVC,M,M,M,600,M,M,-4.12
0CO,12/29/23,4  2:55:00 AM,17.6,15.8,92.5,M,M,0,30.01,0.75,M,OVC,M,M,M,400,M,M,M
0CO,12/29/23,4  3:55:00 AM,17.6,15.8,92.5,310,27,0,30.01,0.5,37,OVC,M,M,M,400,M,M,-2.28
0CO,12/29/23,4  4:55:00 AM,17.6,15.8,92.5,300,35,0,30.02,0.25,M,OVC,M,M,M,400,M,M,-4.36
0CO,12/29/23,4  5:55:00 AM,19.4,17.6,92.57,290,31,0,30.04,0.25,M,OVC,M,M,M,400,M,M,-0.89
0CO,12/29/23,4  6:55:00 AM,19.4,17.6,92.57,310,33,0,30.05,0.25,41,OVC,M,M,M,400,M,M,-1.38
0CO,12/29/23,4  7:55:00 AM,19.4,17.6,92.57,300,31,0,30.06,0.25,42,OVC,M,M,M,200,M,M,-0.89
0CO,12/29/23,4  8:55:00 AM,19.4,17.6,92.57,320,24,0,30.08,0.5,40,OVC,M,M,M,400,M,M,1.06
0CO,12/29/23,4  9:55:00 AM,19.4,17.6,92.57,300,31,0,30.09,0.5,40,OVC,M,M,M,200,M,M,-0.89
0CO,12/29/23,4  10:55:00 AM,19.4,17.6,92.57,300,25,0,30.09,0.75,36,OVC,M,M,M,200,M,M,0.75
0CO,12/29/23,4  11:55:00 AM,19.4,17.6,92.57,300,28,0,30.07,0.5,36,OVC,M,M,M,400,M,M,-0.11
0CO,12/29/23,4  12:55:00 PM,19.4,17.6,92.57,300,28,0,30.09,0.75,38,BKN,OVC,M,M,400,800,M,-0.11
0CO,12/29/23,4  1:55:00 PM,19.4,17.6,92.57,310,18,0,30.1,0.75,34,OVC,M,M,M,300,M,M,3.16
0CO,12/29/23,4  2:55:00 PM,19.4,19.4,100,310,23,0,30.11,1.25,33,BKN,OVC,M,M,800,1300,M,1.38
0CO,12/29/23,4  3:55:00 PM,21.2,19.4,92.63,290,21,0,30.11,1.25,34,SCT,BKN,OVC,M,400,800,1500,4.45
0CO,12/29/23,4  4:55:00 PM,21.2,19.4,92.63,280,31,0,30.07,0.5,48,BKN,BKN,OVC,M,600,1000,1700,1.59
0CO,12/29/23,4  5:55:00 PM,21.2,19.4,92.63,280,27,0,30.07,0.75,43,SCT,BKN,BKN,M,1400,2000,2600,2.62
0CO,12/29/23,4  6:55:00 PM,21.2,19.4,92.63,280,29,0,30.04,0.75,57,VV ,M,M,M,500,M,M,2.09
0CO,12/29/23,4  7:55:00 PM,19.4,17.6,92.57,280,27,0,30.01,0.5,54,VV ,M,M,M,500,M,M,0.17
0CO,12/30/23,4  8:55:00 PM,19.4,17.6,92.57,270,31,0,30,1,51,VV ,M,M,M,700,M,M,-0.89
0CO,12/30/23,4  9:55:00 PM,19.4,14,79.16,290,25,0,30,1,47,BKN,M,M,M,12000,M,M,0.75
0CO,12/30/23,4  10:55:00 PM,21.2,8.6,57.69,280,29,0,29.95,3,52,CLR,M,M,M,M,M,M,2.09
0CO,12/30/23,4  11:55:00 PM,23,8.6,53.47,280,18,0,29.93,7,39,OVC,M,M,M,7500,M,M,7.9
0CO,12/30/23,4  12:55:00 AM,23,6.8,49.29,280,20,0,29.9,7,34,BKN,BKN,BKN,M,5500,7500,12000,7.19
0CO,12/30/23,4  1:55:00 AM,23,10.4,57.96,290,17,0,29.87,10,30,OVC,M,M,M,4500,M,M,8.28
0CO,12/30/23,4  2:55:00 AM,23,10.4,57.96,280,22,0,29.84,10,31,SCT,BKN,OVC,M,3800,4400,5000,6.53
0CO,12/30/23,4  3:55:00 AM,21.2,15.8,79.31,290,21,0,29.8,1,32,BKN,OVC,M,M,900,1700,M,4.45
0CO,12/30/23,4  4:55:00 AM,19.4,17.6,92.57,280,31,0,29.77,0.25,41,OVC,M,M,M,400,M,M,-0.89
0CO,12/30/23,4  5:55:00 AM,19.4,17.6,92.57,290,29,0,29.75,0.25,45,OVC,M,M,M,300,M,M,-0.38
0CO,12/30/23,4  6:55:00 AM,17.6,15.8,92.5,M,M,0,29.68,0.25,M,OVC,M,M,M,300,M,M,M
0CO,12/30/23,4  7:55:00 AM,15.8,14,92.44,M,M,0,29.7,0.25,M,OVC,M,M,M,100,M,M,M
0CO,12/30/23,4  8:55:00 AM,14,12.2,92.38,M,M,0,29.71,0.25,M,OVC,M,M,M,100,M,M,M
0CO,12/30/23,4  9:55:00 AM,14,10.4,85.28,M,M,0,29.73,0.25,M,OVC,M,M,M,100,M,M,M
0CO,12/30/23,4  10:55:00 AM,10.4,8.6,92.25,M,M,0,29.73,0.25,M,OVC,M,M,M,100,M,M,M
0CO,12/30/23,4  11:55:00 AM,10.4,6.8,85.05,M,M,0,29.71,0.25,M,OVC,M,M,M,100,M,M,M
0CO,12/30/23,4  12:55:00 PM,8.6,5,84.93,M,M,0,29.72,0.25,M,OVC,M,M,M,300,M,M,M
0CO,12/30/23,4  1:55:00 PM,5,3.2,92.06,M,M,0,29.74,0.25,M,OVC,M,M,M,500,M,M,M
0CO,12/30/23,4  2:55:00 PM,5,3.2,92.06,M,M,0,29.7,0.25,M,OVC,M,M,M,300,M,M,M
0CO,12/30/23,4  3:55:00 PM,5,1.4,84.68,M,M,0,29.75,0.25,M,OVC,M,M,M,500,M,M,M
0CO,12/30/23,4  4:55:00 PM,5,1.4,84.68,M,M,0,29.8,0.25,M,OVC,M,M,M,500,M,M,M
0CO,12/30/23,4  5:55:00 PM,5,1.4,84.68,310,32,0,29.79,0.25,M,BKN,OVC,M,M,500,1100,M,-21.06
0CO,12/30/23,4  6:55:00 PM,5,1.4,84.68,300,30,0,29.81,0.25,43,BKN,OVC,M,M,200,700,M,-20.45
0CO,12/30/23,4  7:55:00 PM,5,1.4,84.68,M,M,0,29.79,0.25,M,OVC,M,M,M,100,M,M,M
0CO,12/31/23,4  8:55:00 PM,5,1.4,84.68,310,20,0,29.8,0.25,40,OVC,M,M,M,500,M,M,-16.72
0CO,12/31/23,4  9:55:00 PM,3.2,-0.4,84.56,340,26,0,29.79,0.25,M,OVC,M,M,M,100,M,M,-21.55
0CO,12/31/23,4  10:55:00 PM,1.4,-2.2,84.43,M,M,0,29.82,0.25,M,OVC,M,M,M,100,M,M,M
0CO,12/31/23,4  11:55:00 PM,1.4,-2.2,84.43,M,M,0,29.84,0.25,M,OVC,M,M,M,100,M,M,M
0CO,12/31/23,4  12:55:00 AM,1.4,-4,77.49,M,M,0,29.86,0.25,M,OVC,M,M,M,300,M,M,M
0CO,12/31/23,4  1:55:00 AM,1.4,-4,77.49,M,M,0,29.9,0.25,M,OVC,M,M,M,300,M,M,M
0CO,12/31/23,4  2:55:00 AM,-0.4,-5.8,77.32,M,M,0,29.93,0.5,M,BKN,OVC,M,M,300,700,M,M
0CO,12/31/23,4  3:55:00 AM,-2.2,-5.8,84.17,M,M,0,29.95,1,M,OVC,M,M,M,600,M,M,M
0CO,12/31/23,4  4:55:00 AM,-4,-7.6,84.04,300,21,0,29.95,2,26,SCT,M,M,M,400,M,M,-29.16
0CO,12/31/23,4  5:55:00 AM,-2.2,-5.8,84.17,290,22,0,29.94,3,33,BKN,BKN,M,M,8500,12000,M,-27.22
0CO,12/31/23,4  6:55:00 AM,-0.4,-5.8,77.32,290,29,0,29.91,2,39,CLR,M,M,M,M,M,M,-27.53
0CO,12/31/23,4  7:55:00 AM,-2.2,-5.8,84.17,300,28,0,29.91,2.5,37,CLR,M,M,M,M,M,M,-29.64
0CO,12/31/23,4  8:55:00 AM,-2.2,-5.8,84.17,300,26,0,29.9,10,30,CLR,M,M,M,M,M,M,-28.89
0CO,12/31/23,4  9:55:00 AM,-2.2,-5.8,84.17,300,17,0,29.91,10,25,CLR,M,M,M,M,M,M,-24.73
0CO,12/31/23,4  10:55:00 AM,-2.2,-7.6,77.14,310,16,0,29.9,10,M,CLR,M,M,M,M,M,M,-24.16
0CO,12/31/23,4  11:55:00 AM,-2.2,-5.8,84.17,320,16,0,29.89,10,19,CLR,M,M,M,M,M,M,-24.16
0CO,12/31/23,4  12:55:00 PM,-0.4,-5.8,77.32,320,15,0,29.88,10,21,CLR,M,M,M,M,M,M,-21.22
0CO,12/31/23,4  1:55:00 PM,-2.2,-5.8,84.17,320,11,0,29.9,10,M,OVC,M,M,M,10000,M,M,-20.75
0CO,12/31/23,4  2:55:00 PM,-4,-7.6,84.04,310,12,0,29.9,1.75,16,BKN,OVC,M,M,6000,7000,M,-23.82
0CO,12/31/23,4  3:55:00 PM,-0.4,-5.8,77.32,310,16,0.01,29.91,3,M,BKN,BKN,OVC,M,3800,4700,5500,-21.81
0CO,12/31/23,4  4:55:00 PM,1.4,-5.8,71.07,300,13,0.01,29.91,10,17,BKN,OVC,M,M,3500,4400,M,-17.63
0CO,12/31/23,4  5:55:00 PM,3.2,-7.6,59.91,290,14,0.01,29.9,10,M,CLR,M,M,M,M,M,M,-15.96
0CO,12/31/23,4  6:55:00 PM,1.4,-0.4,91.92,320,11,0,29.89,0.5,18,BKN,OVC,M,M,100,1800,M,-16.2
0CO,12/31/23,4  7:55:00 PM,1.4,-0.4,91.92,320,12,0,29.88,0.25,M,BKN,OVC,M,M,200,600,M,-16.94
0CO,1/1/24,4  8:55:00 PM,1.4,-4,77.49,320,14,0,29.88,5,21,SCT,OVC,M,M,900,1700,M,-18.28
0CO,1/1/24,4  9:55:00 PM,1.4,-4,77.49,340,20,0,29.89,10,23,BKN,BKN,BKN,M,100,900,1600,-21.5
0CO,1/1/24,4  10:55:00 PM,-0.4,-4,84.3,330,17,0,29.9,0.25,26,OVC,M,M,M,200,M,M,-22.37
0CO,1/1/24,4  11:55:00 PM,-0.4,-5.8,77.32,330,15,0,29.92,0.25,22,OVC,M,M,M,200,M,M,-21.22
0CO,1/1/24,12:55:00 AM,-2.2,-7.6,77.14,320,18,0,29.93,0.5,25,OVC,M,M,M,200,M,M,-25.27
0CO,1/1/24,1:55:00 AM,-4,-7.6,84.04,330,18,0,29.94,0.25,26,OVC,M,M,M,100,M,M,-27.64
0CO,1/1/24,2:55:00 AM,-5.8,-9.4,83.91,300,26,0,29.93,4,M,CLR,M,M,M,M,M,M,-33.78
0CO,1/1/24,3:55:00 AM,-5.8,-11.2,76.77,320,16,0,29.94,0.5,34,VV ,M,M,M,500,M,M,-28.85
0CO,1/1/24,4:55:00 AM,-5.8,-9.4,83.91,300,23,0,29.93,4,34,CLR,M,M,M,M,M,M,-32.5
0CO,1/1/24,5:55:00 AM,-5.8,-9.4,83.91,300,25,0,29.93,5,35,CLR,M,M,M,M,M,M,-33.36
0CO,1/1/24,6:55:00 AM,-5.8,-11.2,76.77,300,29,0,29.91,7,36,CLR,M,M,M,M,M,M,-34.94
0CO,1/1/24,7:55:00 AM,-5.8,-9.4,83.91,300,30,0,29.9,10,36,CLR,M,M,M,M,M,M,-35.3
0CO,1/1/24,8:55:00 AM,-5.8,-9.4,83.91,300,29,0,29.9,10,35,CLR,M,M,M,M,M,M,-34.94
0CO,1/1/24,9:55:00 AM,-5.8,-11.2,76.77,310,29,0,29.91,10,34,CLR,M,M,M,M,M,M,-34.94
0CO,1/1/24,10:55:00 AM,-5.8,-9.4,83.91,300,30,0,29.9,10,36,CLR,M,M,M,M,M,M,-35.3
0CO,1/1/24,11:55:00 AM,-4,-11.2,70.41,300,29,0,29.91,10,40,CLR,M,M,M,M,M,M,-32.47
0CO,1/1/24,12:55:00 PM,-0.4,-14.8,49.57,290,30,0,29.93,10,37,CLR,M,M,M,M,M,M,-27.87
0CO,1/1/24,1:55:00 PM,-0.4,-16.6,45.24,300,25,0,29.94,10,38,CLR,M,M,M,M,M,M,-26.05
0CO,1/1/24,2:55:00 PM,3.2,-16.6,38.25,310,22,0,29.95,10,38,CLR,M,M,M,M,M,M,-19.99
0CO,1/1/24,3:55:00 PM,3.2,-13,45.89,300,23,0,29.98,10,M,SCT,BKN,OVC,M,6500,7500,10000,-20.4
0CO,1/1/24,4:55:00 PM,5,-9.4,50.5,M,M,0,29.99,10,M,SCT,BKN,OVC,M,1900,2800,3500,M
0CO,1/1/24,5:55:00 PM,5,-0.4,77.84,300,19,0,30,1.75,28,BKN,OVC,M,M,1300,1900,M,-16.27
0CO,1/1/24,6:55:00 PM,5,-0.4,77.84,280,30,0,29.95,1.75,38,OVC,M,M,M,1800,M,M,-20.45
0CO,1/1/24,7:55:00 PM,5,1.4,84.68,300,19,0,29.94,0.75,29,SCT,OVC,M,M,200,700,M,-16.27
0CO,1/2/24,8:55:00 PM,6.8,3.2,84.8,280,26,0,29.94,0.25,44,OVC,M,M,M,900,M,M,-16.66
0CO,1/2/24,9:55:00 PM,6.8,3.2,84.8,290,18,0,29.96,0.75,27,BKN,OVC,M,M,700,1000,M,-13.42
0CO,1/2/24,10:55:00 PM,6.8,3.2,84.8,290,18,0,29.97,0.5,24,OVC,M,M,M,500,M,M,-13.42
0CO,1/2/24,11:55:00 PM,6.8,3.2,84.8,300,18,0,29.97,0.5,31,BKN,OVC,M,M,700,1500,M,-13.42
0CO,1/2/24,12:55:00 AM,8.6,5,84.93,280,24,0,29.95,1.25,30,BKN,OVC,M,M,300,800,M,-13.51
0CO,1/2/24,1:55:00 AM,8.6,5,84.93,270,23,0,29.94,0.5,41,BKN,BKN,OVC,M,400,1400,2200,-13.14
0CO,1/2/24,2:55:00 AM,8.6,5,84.93,280,38,0,29.91,0.25,44,OVC,M,M,M,400,M,M,-17.67
0CO,1/2/24,3:55:00 AM,10.4,8.6,92.25,300,31,0,29.93,0.25,50,OVC,M,M,M,400,M,M,-13.31
0CO,1/2/24,4:55:00 AM,10.4,8.6,92.25,290,37,0,29.92,0.25,47,OVC,M,M,M,400,M,M,-14.9
0CO,1/2/24,5:55:00 AM,10.4,8.6,92.25,M,M,0,29.89,0.25,M,OVC,M,M,M,600,M,M,M
0CO,1/2/24,6:55:00 AM,10.4,8.6,92.25,M,M,0,29.94,0.25,M,OVC,M,M,M,300,M,M,M
0CO,1/2/24,7:55:00 AM,12.2,8.6,85.17,300,28,0,29.97,0.25,50,OVC,M,M,M,300,M,M,-9.95
0CO,1/2/24,8:55:00 AM,12.2,10.4,92.32,M,M,0,29.98,0.25,M,OVC,M,M,M,300,M,M,M
0CO,1/2/24,9:55:00 AM,12.2,10.4,92.32,M,M,0,30.01,0.25,M,OVC,M,M,M,300,M,M,M
0CO,1/2/24,10:55:00 AM,12.2,10.4,92.32,300,23,0,30.03,0.25,37,OVC,M,M,M,300,M,M,-8.3
0CO,1/2/24,11:55:00 AM,12.2,10.4,92.32,300,19,0,30.03,0.5,M,OVC,M,M,M,300,M,M,-6.75
0CO,1/2/24,12:55:00 PM,12.2,8.6,85.17,M,M,0,30.03,0.25,M,OVC,M,M,M,300,M,M,M
0CO,1/2/24,1:55:00 PM,12.2,10.4,92.32,M,M,0,30,0.25,M,OVC,M,M,M,300,M,M,M
0CO,1/2/24,2:55:00 PM,12.2,10.4,92.32,M,M,0,30.03,0.25,M,OVC,M,M,M,300,M,M,M
0CO,1/2/24,3:55:00 PM,12.2,10.4,92.32,M,M,0,30.06,0.25,M,OVC,M,M,M,300,M,M,M
0CO,1/2/24,4:55:00 PM,12.2,10.4,92.32,M,M,0,30.12,0.25,M,OVC,M,M,M,300,M,M,M
0CO,1/2/24,5:55:00 PM,12.2,10.4,92.32,M,M,0,30.12,0.25,M,OVC,M,M,M,300,M,M,M
0CO,1/2/24,6:55:00 PM,14,10.4,85.28,M,M,0,30.14,0.25,M,OVC,M,M,M,100,M,M,M
0CO,1/2/24,7:55:00 PM,14,10.4,85.28,M,M,0,30.16,0.25,M,OVC,M,M,M,300,M,M,M
0CO,1/3/24,8:55:00 PM,12.2,10.4,92.32,300,32,0,30.18,0.25,M,OVC,M,M,M,500,M,M,-11.1
0CO,1/3/24,9:55:00 PM,14,10.4,85.28,M,M,0,30.22,0.25,M,OVC,M,M,M,500,M,M,M
0CO,1/3/24,10:55:00 PM,12.2,10.4,92.32,300,26,0,30.24,1.5,34,SCT,BKN,OVC,M,800,1300,2000,-9.32
0CO,1/3/24,11:55:00 PM,12.2,10.4,92.32,M,M,0,30.29,2,M,BKN,OVC,M,M,1200,2100,M,M
0CO,1/3/24,12:55:00 AM,12.2,10.4,92.32,290,31,0,30.29,1.75,49,SCT,BKN,BKN,M,900,1800,9000,-10.83
0CO,1/3/24,1:55:00 AM,12.2,10.4,92.32,290,30,0,30.3,1.25,45,VV ,M,M,M,700,M,M,-10.54
0CO,1/3/24,2:55:00 AM,12.2,10.4,92.32,330,23,0,30.31,7,35,SCT,SCT,M,M,800,1300,M,-8.3
0CO,1/3/24,3:55:00 AM,14,10.4,85.28,290,35,0,30.29,1,46,VV ,M,M,M,700,M,M,-9.38
0CO,1/3/24,4:55:00 AM,14,12.2,92.38,300,28,0,30.33,3,38,CLR,M,M,M,M,M,M,-7.49
0CO,1/3/24,5:55:00 AM,15.8,12.2,85.4,290,38,0,30.31,1.5,47,VV ,M,M,M,700,M,M,-7.56
0CO,1/3/24,6:55:00 AM,19.4,6.8,57.41,300,23,0,30.36,10,30,CLR,M,M,M,M,M,M,1.38
0CO,1/3/24,7:55:00 AM,21.2,3.2,45.1,290,28,0,30.32,4,42,CLR,M,M,M,M,M,M,2.35
0CO,1/3/24,8:55:00 AM,21.2,3.2,45.1,300,29,0,30.33,10,35,CLR,M,M,M,M,M,M,2.09
0CO,1/3/24,9:55:00 AM,21.2,1.4,41.49,290,30,0,30.33,2.5,49,CLR,M,M,M,M,M,M,1.84
0CO,1/3/24,10:55:00 AM,21.2,-0.4,38.13,300,33,0,30.29,7,43,CLR,M,M,M,M,M,M,1.11
0CO,1/3/24,11:55:00 AM,21.2,-0.4,38.13,310,29,0,30.29,10,40,CLR,M,M,M,M,M,M,2.09
0CO,1/3/24,12:55:00 PM,23,-0.4,35.34,310,27,0,30.29,10,41,CLR,M,M,M,M,M,M,5.08
0CO,1/3/24,1:55:00 PM,23,-4,29.8,310,30,0,30.27,10,48,CLR,M,M,M,M,M,M,4.31
0CO,1/3/24,2:55:00 PM,23,-4,29.8,310,32,0,30.27,10,42,CLR,M,M,M,M,M,M,3.84
0CO,1/3/24,3:55:00 PM,21.2,-0.4,38.13,310,34,0,30.27,10,41,CLR,M,M,M,M,M,M,0.89
0CO,1/3/24,4:55:00 PM,21.2,3.2,45.1,310,30,0,30.29,10,42,CLR,M,M,M,M,M,M,1.84
0CO,1/3/24,5:55:00 PM,23,6.8,49.29,310,29,0,30.28,10,35,CLR,M,M,M,M,M,M,4.56
0CO,1/3/24,6:55:00 PM,21.2,12.2,67.73,320,20,0,30.28,10,31,CLR,M,M,M,M,M,M,4.79
0CO,1/3/24,7:55:00 PM,21.2,12.2,67.73,330,19,0,30.26,10,27,CLR,M,M,M,M,M,M,5.15
0CO,1/4/24,8:55:00 PM,21.2,14,73.32,320,19,0,30.25,10,26,CLR,M,M,M,M,M,M,5.15
0CO,1/4/24,9:55:00 PM,23,14,67.96,320,22,0,30.25,10,27,CLR,M,M,M,M,M,M,6.53
0CO,1/4/24,10:55:00 PM,23,14,67.96,310,20,0,30.26,10,28,CLR,M,M,M,M,M,M,7.19
0CO,1/4/24,11:55:00 PM,23,10.4,57.96,310,20,0,30.25,10,24,SCT,BKN,OVC,M,7000,9000,11000,7.19
0CO,1/4/24,12:55:00 AM,23,5,45.41,300,18,0,30.24,10,28,OVC,M,M,M,8500,M,M,7.9
0CO,1/4/24,1:55:00 AM,24.8,3.2,38.77,280,25,0,30.21,10,35,CLR,M,M,M,M,M,M,8.07
0CO,1/4/24,2:55:00 AM,26.6,-5.8,23.52,280,23,0,30.19,10,37,SCT,M,M,M,11000,M,M,11.06
0CO,1/4/24,3:55:00 AM,26.6,-4,25.65,290,26,0,30.17,10,37,CLR,M,M,M,M,M,M,10.24
0CO,1/4/24,4:55:00 AM,28.4,-7.6,20.01,290,29,0,30.15,10,36,CLR,M,M,M,M,M,M,11.97
0CO,1/4/24,5:55:00 AM,26.6,-7.6,21.55,280,33,0,30.13,10,41,CLR,M,M,M,M,M,M,8.61
0CO,1/4/24,6:55:00 AM,26.6,-7.6,21.55,280,24,0,30.12,10,47,CLR,M,M,M,M,M,M,10.77
0CO,1/4/24,7:55:00 AM,26.6,-9.4,19.74,280,26,0,30.07,10,36,CLR,M,M,M,M,M,M,10.24
0CO,1/4/24,8:55:00 AM,26.6,-7.6,21.55,280,28,0,30.06,10,44,CLR,M,M,M,M,M,M,9.74
0CO,1/4/24,9:55:00 AM,24.8,-5.8,25.34,290,21,0,30.05,10,34,CLR,M,M,M,M,M,M,9.25
0CO,1/4/24,10:55:00 AM,24.8,-5.8,25.34,280,21,0,30.03,10,37,CLR,M,M,M,M,M,M,9.25
0CO,1/4/24,11:55:00 AM,23,-4,29.8,280,22,0,30,10,33,CLR,M,M,M,M,M,M,6.53
0CO,1/4/24,12:55:00 PM,23,-0.4,35.34,250,22,0,29.97,10,29,CLR,M,M,M,M,M,M,6.53
0CO,1/4/24,1:55:00 PM,21.2,1.4,41.49,260,23,0,29.94,10,34,CLR,M,M,M,M,M,M,3.8
0CO,1/4/24,2:55:00 PM,21.2,1.4,41.49,270,22,0,29.93,10,34,CLR,M,M,M,M,M,M,4.12
0CO,1/4/24,3:55:00 PM,23,1.4,38.45,250,31,0,29.89,10,47,CLR,M,M,M,M,M,M,4.07
0CO,1/4/24,4:55:00 PM,23,1.4,38.45,260,26,0,29.88,10,38,CLR,M,M,M,M,M,M,5.35
0CO,1/4/24,5:55:00 PM,23,3.2,41.8,240,27,0,29.85,10,33,CLR,M,M,M,M,M,M,5.08
0CO,1/4/24,6:55:00 PM,23,3.2,41.8,210,12,0,29.81,10,23,SCT,BKN,BKN,M,4600,5500,6500,10.55
0CO,1/4/24,7:55:00 PM,17.6,8.6,67.28,280,7,0,29.77,10,16,BKN,OVC,M,M,4300,5000,M,7.23
0CO,1/5/24,8:55:00 PM,14,12.2,92.38,360,8,0,29.75,3,28,SCT,SCT,BKN,M,1100,3400,4100,1.94
0CO,1/5/24,9:55:00 PM,14,12.2,92.38,310,12,0,29.75,0.25,16,OVC,M,M,M,100,M,M,-0.91
0CO,1/5/24,10:55:00 PM,14,12.2,92.38,350,11,0,29.76,0.25,19,OVC,M,M,M,100,M,M,-0.28
0CO,1/5/24,11:55:00 PM,12.2,8.6,85.17,310,29,0,29.74,0.25,M,OVC,M,M,M,300,M,M,-10.25
0CO,1/5/24,12:55:00 AM,10.4,8.6,92.25,310,20,0,29.76,1.25,32,OVC,M,M,M,300,M,M,-9.55
0CO,1/5/24,1:55:00 AM,10.4,8.6,92.25,M,M,0,29.77,0.25,M,OVC,M,M,M,100,M,M,M
0CO,1/5/24,2:55:00 AM,10.4,6.8,85.05,330,29,0.01,29.79,0.25,39,OVC,M,M,M,100,M,M,-12.72
0CO,1/5/24,3:55:00 AM,8.6,5,84.93,330,32,0,29.79,0.25,40,OVC,M,M,M,100,M,M,-16.08
0CO,1/5/24,4:55:00 AM,6.8,3.2,84.8,M,M,0,29.81,0.25,M,OVC,M,M,M,300,M,M,M
0CO,1/5/24,5:55:00 AM,5,3.2,92.06,330,28,0,29.84,0.25,36,OVC,M,M,M,100,M,M,-19.8
0CO,1/5/24,6:55:00 AM,5,1.4,84.68,320,25,0,29.85,0.25,34,OVC,M,M,M,300,M,M,-18.74
0CO,1/5/24,7:55:00 AM,5,1.4,84.68,320,25,0,29.84,0.25,34,OVC,M,M,M,100,M,M,-18.74
0CO,1/5/24,8:55:00 AM,5,1.4,84.68,320,31,0,29.86,0.25,37,OVC,M,M,M,100,M,M,-20.76
0CO,1/5/24,9:55:00 AM,5,1.4,84.68,M,M,0,29.87,0.25,M,OVC,M,M,M,100,M,M,M
0CO,1/5/24,10:55:00 AM,5,1.4,84.68,M,M,0,29.86,0.25,M,BKN,OVC,M,M,100,600,M,M
0CO,1/5/24,11:55:00 AM,3.2,1.4,91.99,330,27,0,29.89,0.25,33,OVC,M,M,M,200,M,M,-21.91
0CO,1/5/24,12:55:00 PM,3.2,-0.4,84.56,330,31,0,29.9,0.25,35,BKN,OVC,M,M,300,800,M,-23.24
0CO,1/5/24,1:55:00 PM,3.2,-0.4,84.56,320,28,0,29.92,0.25,35,OVC,M,M,M,100,M,M,-22.26
0CO,1/5/24,2:55:00 PM,3.2,-0.4,84.56,330,26,0,29.93,0.25,35,OVC,M,M,M,100,M,M,-21.55
0CO,1/5/24,3:55:00 PM,3.2,-0.4,84.56,340,20,0,29.96,0.25,32,OVC,M,M,M,100,M,M,-19.11
0CO,1/5/24,4:55:00 PM,3.2,1.4,91.99,350,24,0,29.98,0.25,35,OVC,M,M,M,100,M,M,-20.8
0CO,1/5/24,5:55:00 PM,5,1.4,84.68,350,16,0,29.99,0.25,34,OVC,M,M,M,100,M,M,-14.77
0CO,1/5/24,6:55:00 PM,5,1.4,84.68,360,14,0,29.98,0.25,34,OVC,M,M,M,300,M,M,-13.64
0CO,1/5/24,7:55:00 PM,5,3.2,92.06,20,8,0,29.98,0.25,24,OVC,M,M,M,100,M,M,-9.15
0CO,1/6/24,8:55:00 PM,5,3.2,92.06,10,8,0,29.98,0.25,24,OVC,M,M,M,100,M,M,-9.15
0CO,1/6/24,9:55:00 PM,5,3.2,92.06,360,10,0.01,30,0.25,31,OVC,M,M,M,300,M,M,-10.89
0CO,1/6/24,10:55:00 PM,5,1.4,84.68,10,7,0,30.02,0.25,33,OVC,M,M,M,100,M,M,-8.13
0CO,1/6/24,11:55:00 PM,3.2,-0.4,84.56,320,29,0,30,0.25,37,OVC,M,M,M,100,M,M,-22.59
0CO,1/6/24,12:55:00 AM,3.2,-0.4,84.56,330,28,0,30,0.25,34,OVC,M,M,M,100,M,M,-22.26
0CO,1/6/24,1:55:00 AM,3.2,-0.4,84.56,320,30,0,30.01,0.25,M,OVC,M,M,M,400,M,M,-22.92
0CO,1/6/24,2:55:00 AM,3.2,-0.4,84.56,320,33,0,30.02,0.5,40,BKN,BKN,OVC,M,600,1200,2000,-23.85
0CO,1/6/24,3:55:00 AM,3.2,1.4,91.99,320,31,0,30.02,0.25,36,OVC,M,M,M,400,M,M,-23.24
0CO,1/6/24,4:55:00 AM,5,1.4,84.68,320,24,0,30.05,0.25,33,OVC,M,M,M,200,M,M,-18.37
0CO,1/6/24,5:55:00 AM,5,1.4,84.68,320,26,0,30.07,0.25,31,OVC,M,M,M,200,M,M,-19.1
0CO,1/6/24,6:55:00 AM,5,1.4,84.68,320,19,0,30.06,0.25,27,OVC,M,M,M,200,M,M,-16.27
0CO,1/6/24,7:55:00 AM,5,1.4,84.68,M,M,0,30.06,0.75,M,OVC,M,M,M,800,M,M,M
0CO,1/6/24,8:55:00 AM,5,3.2,92.06,310,19,0,30.06,0.75,M,OVC,M,M,M,600,M,M,-16.27
0CO,1/6/24,9:55:00 AM,5,3.2,92.06,M,M,0,30.07,0.5,M,OVC,M,M,M,400,M,M,M
0CO,1/6/24,10:55:00 AM,5,3.2,92.06,M,M,0,30.05,0.75,M,BKN,OVC,M,M,300,900,M,M
0CO,1/6/24,11:55:00 AM,5,1.4,84.68,320,23,0,30.02,0.5,32,OVC,M,M,M,300,M,M,-17.98
0CO,1/6/24,12:55:00 PM,5,1.4,84.68,320,21,0,30.03,0.25,29,OVC,M,M,M,100,M,M,-17.16
0CO,1/6/24,1:55:00 PM,5,3.2,92.06,320,19,0,30.05,0.5,26,OVC,M,M,M,100,M,M,-16.27
0CO,1/6/24,2:55:00 PM,6.8,3.2,84.8,310,18,0,30.05,0.5,27,OVC,M,M,M,300,M,M,-13.42
0CO,1/6/24,3:55:00 PM,5,1.4,84.68,340,14,0,30.07,0.25,18,OVC,M,M,M,100,M,M,-13.64
0CO,1/6/24,4:55:00 PM,6.8,3.2,84.8,310,12,0,30.09,0.75,M,OVC,M,M,M,500,M,M,-10.07
0CO,1/6/24,5:55:00 PM,8.6,5,84.93,330,12,0,30.09,0.25,16,OVC,M,M,M,100,M,M,-7.78
0CO,1/6/24,6:55:00 PM,8.6,5,84.93,350,7,0,30.07,0.25,15,OVC,M,M,M,100,M,M,-3.74
0CO,1/6/24,7:55:00 PM,8.6,5,84.93,340,11,0,30.05,0.25,M,OVC,M,M,M,100,M,M,-7.1
0CO,1/7/24,8:55:00 PM,8.6,5,84.93,10,6,0,30.05,0.25,M,OVC,M,M,M,100,M,M,-2.65
0CO,1/7/24,9:55:00 PM,8.6,5,84.93,340,8,0,30.05,0.25,14,OVC,M,M,M,300,M,M,-4.71
0CO,1/7/24,10:55:00 PM,8.6,3.2,78.18,320,5,0.01,30.05,0.25,M,OVC,M,M,M,100,M,M,-1.39
0CO,1/7/24,11:55:00 PM,8.6,5,84.93,340,5,0.01,30.06,0.25,M,OVC,M,M,M,300,M,M,-1.39
0CO,1/7/24,12:55:00 AM,5,3.2,92.06,270,8,0,30.06,7,M,SCT,SCT,BKN,M,100,1200,5000,-9.15
0CO,1/7/24,1:55:00 AM,5,1.4,84.68,330,4,0,30.06,1.5,M,SCT,BKN,BKN,M,100,1200,5500,-4.11
0CO,1/7/24,2:55:00 AM,5,3.2,92.06,310,7,0,30.06,0.5,14,OVC,M,M,M,300,M,M,-8.13
0CO,1/7/24,3:55:00 AM,5,1.4,84.68,290,5,0,30.06,10,M,SCT,BKN,M,M,1100,12000,M,-5.67
0CO,1/7/24,4:55:00 AM,5,1.4,84.68,330,5,0,30.06,5,M,OVC,M,M,M,700,M,M,-5.67
0CO,1/7/24,5:55:00 AM,5,1.4,84.68,360,3,0,30.07,0.75,M,OVC,M,M,M,200,M,M,-2.18
0CO,1/7/24,6:55:00 AM,5,1.4,84.68,360,3,0,30.06,0.75,M,BKN,OVC,M,M,200,700,M,-2.18
0CO,1/7/24,7:55:00 AM,3.2,-0.4,84.56,220,6,0,30.05,10,M,SCT,OVC,M,M,500,7000,M,-9.16
0CO,1/7/24,8:55:00 AM,3.2,-0.4,84.56,190,8,0,30.05,10,M,OVC,M,M,M,7000,M,M,-11.36
0CO,1/7/24,9:55:00 AM,3.2,-0.4,84.56,170,9,0,30.06,10,M,OVC,M,M,M,7000,M,M,-12.3
0CO,1/7/24,10:55:00 AM,3.2,-0.4,84.56,200,7,0,30.05,1.25,M,OVC,M,M,M,7000,M,M,-10.33
0CO,1/7/24,11:55:00 AM,3.2,-0.4,84.56,140,15,0,30.06,0.25,M,OVC,M,M,M,100,M,M,-16.56
0CO,1/7/24,12:55:00 PM,1.4,-2.2,84.43,130,17,0,30.06,0.25,M,OVC,M,M,M,100,M,M,-20.01
0CO,1/7/24,1:55:00 PM,1.4,-2.2,84.43,130,18,0,30.07,0.25,M,OVC,M,M,M,100,M,M,-20.53
0CO,1/7/24,2:55:00 PM,1.4,-2.2,84.43,130,15,0,30.09,0.25,M,OVC,M,M,M,100,M,M,-18.89
0CO,1/7/24,3:55:00 PM,-0.4,-4,84.3,140,17,0,30.11,0.25,M,OVC,M,M,M,100,M,M,-22.37
0CO,1/7/24,4:55:00 PM,-0.4,-4,84.3,140,19,0,30.13,0.25,M,OVC,M,M,M,100,M,M,-23.41
0CO,1/7/24,5:55:00 PM,1.4,-4,77.49,140,18,0,30.14,0.25,M,OVC,M,M,M,100,M,M,-20.53
0CO,1/7/24,6:55:00 PM,1.4,-2.2,84.43,130,16,0,30.12,0.25,23,OVC,M,M,M,100,M,M,-19.47
0CO,1/7/24,7:55:00 PM,1.4,-2.2,84.43,150,9,0,30.12,0.25,16,OVC,M,M,M,100,M,M,-14.54
0CO,1/8/24,8:55:00 PM,1.4,-2.2,84.43,220,5,0,30.12,0.5,14,OVC,M,M,M,100,M,M,-9.95
0CO,1/8/24,9:55:00 PM,3.2,-0.4,84.56,280,6,0,30.12,10,M,SCT,SCT,SCT,M,100,800,1400,-9.16
0CO,1/8/24,10:55:00 PM,3.2,-0.4,84.56,0,0,0,30.14,10,M,OVC,M,M,M,1400,M,M,3.2
0CO,1/8/24,11:55:00 PM,3.2,-0.4,84.56,330,3,0,30.15,1,M,BKN,OVC,M,M,300,800,M,-4.24
0CO,1/8/24,12:55:00 AM,1.4,-2.2,84.43,280,3,0,30.17,0.25,M,OVC,M,M,M,100,M,M,-6.29
0CO,1/8/24,1:55:00 AM,1.4,-4,77.49,340,5,0,30.19,0.25,M,OVC,M,M,M,100,M,M,-9.95
0CO,1/8/24,2:55:00 AM,-0.4,-4,84.3,340,6,0,30.19,0.25,M,OVC,M,M,M,100,M,M,-13.49
0CO,1/8/24,3:55:00 AM,-0.4,-4,84.3,310,8,0,30.2,10,M,SCT,M,M,M,100,M,M,-15.8
0CO,1/8/24,4:55:00 AM,-0.4,-4,84.3,300,8,0,30.21,10,M,CLR,M,M,M,M,M,M,-15.8
0CO,1/8/24,5:55:00 AM,-0.4,-4,84.3,310,8,0,30.21,10,M,CLR,M,M,M,M,M,M,-15.8
0CO,1/8/24,6:55:00 AM,-0.4,-5.8,77.32,330,9,0.01,30.2,10,M,CLR,M,M,M,M,M,M,-16.77
0CO,1/8/24,7:55:00 AM,-0.4,-5.8,77.32,360,5,0,30.19,10,M,CLR,M,M,M,M,M,M,-12.08
0CO,1/8/24,8:55:00 AM,-2.2,-7.6,77.14,340,15,0,30.18,10,18,CLR,M,M,M,M,M,M,-23.56
0CO,1/8/24,9:55:00 AM,-2.2,-5.8,84.17,360,8,0,30.18,10,18,CLR,M,M,M,M,M,M,-18.02
0CO,1/8/24,10:55:00 AM,-4,-7.6,84.04,350,13,0,30.17,10,16,CLR,M,M,M,M,M,M,-24.55
0CO,1/8/24,11:55:00 AM,-2.2,-7.6,77.14,340,21,0,30.16,10,M,CLR,M,M,M,M,M,M,-26.76
0CO,1/8/24,12:55:00 PM,-4,-7.6,84.04,330,19,0,30.16,10,24,CLR,M,M,M,M,M,M,-28.17
0CO,1/8/24,1:55:00 PM,-2.2,-5.8,84.17,340,18,0,30.17,7,33,CLR,M,M,M,M,M,M,-25.27
0CO,1/8/24,2:55:00 PM,-2.2,-5.8,84.17,350,17,0,30.17,7,34,CLR,M,M,M,M,M,M,-24.73
0CO,1/8/24,3:55:00 PM,-0.4,-5.8,77.32,330,17,0,30.19,10,27,CLR,M,M,M,M,M,M,-22.37
0CO,1/8/24,4:55:00 PM,-0.4,-4,84.3,330,17,0,30.19,10,M,CLR,M,M,M,M,M,M,-22.37
0CO,1/8/24,5:55:00 PM,1.4,-4,77.49,330,17,0,30.19,10,M,CLR,M,M,M,M,M,M,-20.01
0CO,1/8/24,6:55:00 PM,3.2,-4,71.29,340,18,0,30.16,10,24,CLR,M,M,M,M,M,M,-18.16
0CO,1/8/24,7:55:00 PM,3.2,-4,71.29,350,13,0,30.11,10,20,CLR,M,M,M,M,M,M,-15.33
0CO,1/9/24,8:55:00 PM,5,-4,65.62,350,15,0,30.08,10,22,CLR,M,M,M,M,M,M,-14.22
0CO,1/9/24,9:55:00 PM,3.2,-5.8,65.38,360,10,0,30.06,2.5,23,CLR,M,M,M,M,M,M,-13.15
0CO,1/9/24,10:55:00 PM,3.2,-9.4,54.86,340,28,0,30.03,7,33,CLR,M,M,M,M,M,M,-22.26
0CO,1/9/24,11:55:00 PM,3.2,-11.2,50.19,330,25,0,30,7,34,CLR,M,M,M,M,M,M,-21.18
0CO,1/9/24,12:55:00 AM,5,-14.8,38.58,340,25,0,29.97,10,31,CLR,M,M,M,M,M,M,-18.74
0CO,1/9/24,1:55:00 AM,1.4,-7.6,65.13,10,10,0,29.97,7,30,CLR,M,M,M,M,M,M,-15.4
0CO,1/9/24,2:55:00 AM,5,-9.4,50.5,330,25,0,29.96,10,33,BKN,BKN,M,M,8000,11000,M,-18.74
0CO,1/9/24,3:55:00 AM,5,-5.8,60.18,340,19,0,29.96,7,29,SCT,OVC,M,M,8000,9000,M,-16.27
0CO,1/9/24,4:55:00 AM,1.4,-0.4,91.92,340,21,0,29.94,1.25,31,SCT,OVC,M,M,200,1000,M,-21.96
0CO,1/9/24,5:55:00 AM,1.4,-0.4,91.92,50,5,0,29.94,1,18,BKN,OVC,M,M,300,700,M,-9.95
0CO,1/9/24,6:55:00 AM,1.4,-2.2,84.43,360,13,0,29.91,0.5,30,OVC,M,M,M,100,M,M,-17.63
0CO,1/9/24,7:55:00 AM,1.4,-4,77.49,10,7,0,29.91,0.25,M,OVC,M,M,M,100,M,M,-12.52
0CO,1/9/24,8:55:00 AM,-0.4,-4,84.3,350,16,0,29.9,0.25,27,OVC,M,M,M,100,M,M,-21.81
0CO,1/9/24,9:55:00 AM,-0.4,-4,84.3,10,5,0,29.92,1,M,SCT,BKN,OVC,M,200,600,1400,-12.08
0CO,1/9/24,10:55:00 AM,-0.4,-5.8,77.32,20,4,0,29.92,0.75,M,OVC,M,M,M,500,M,M,-10.42
0CO,1/9/24,11:55:00 AM,-0.4,-5.8,77.32,360,5,0.01,29.92,1,M,OVC,M,M,M,1000,M,M,-12.08
0CO,1/9/24,12:55:00 PM,-0.4,-5.8,77.32,30,3,0,29.93,1.25,M,OVC,M,M,M,1000,M,M,-8.35
0CO,1/9/24,1:55:00 PM,-0.4,-5.8,77.32,20,3,0.01,29.95,1,M,OVC,M,M,M,600,M,M,-8.35
0CO,1/9/24,2:55:00 PM,-0.4,-5.8,77.32,40,5,0,29.98,0.5,M,BKN,BKN,OVC,M,600,1200,1800,-12.08
0CO,1/9/24,3:55:00 PM,1.4,-4,77.49,100,16,0,30,0.5,25,OVC,M,M,M,600,M,M,-19.47
0CO,1/9/24,4:55:00 PM,-0.4,-5.8,77.32,80,11,0,30.03,0.25,23,OVC,M,M,M,600,M,M,-18.48
0CO,1/9/24,5:55:00 PM,-0.4,-5.8,77.32,90,10,0.01,30.03,0.25,18,BKN,OVC,M,M,200,800,M,-17.66
0CO,1/9/24,6:55:00 PM,-0.4,-5.8,77.32,90,12,0,30.01,0.75,18,OVC,M,M,M,600,M,M,-19.23
0CO,1/9/24,7:55:00 PM,-0.4,-4,84.3,120,7,0,30,1.25,M,BKN,OVC,M,M,600,1500,M,-14.71
0CO,1/10/24,8:55:00 PM,1.4,-4,77.49,110,6,0,30,0.5,M,OVC,M,M,M,200,M,M,-11.32
0CO,1/10/24,9:55:00 PM,1.4,-4,77.49,100,9,0.01,30.01,0.25,15,OVC,M,M,M,400,M,M,-14.54
0CO,1/10/24,10:55:00 PM,1.4,-4,77.49,120,8,0.01,30.03,0.5,14,OVC,M,M,M,200,M,M,-13.58
0CO,1/10/24,11:55:00 PM,-0.4,-4,84.3,30,5,0.01,30.05,0.25,M,OVC,M,M,M,200,M,M,-12.08
0CO,1/10/24,12:55:00 AM,-2.2,-5.8,84.17,30,6,0.02,30.07,0.5,M,OVC,M,M,M,200,M,M,-15.66
0CO,1/10/24,1:55:00 AM,-4,-9.4,76.96,340,8,0,30.07,2.5,M,BKN,OVC,M,M,200,900,M,-20.23
0CO,1/10/24,2:55:00 AM,-5.8,-9.4,83.91,350,10,0,30.07,0.5,16,OVC,M,M,M,200,M,M,-24.43
0CO,1/10/24,3:55:00 AM,-5.8,-11.2,76.77,360,5,0.01,30.08,0.5,18,OVC,M,M,M,200,M,M,-18.5
0CO,1/10/24,4:55:00 AM,-5.8,-11.2,76.77,350,9,0,30.07,0.5,19,OVC,M,M,M,200,M,M,-23.49
0CO,1/10/24,5:55:00 AM,-7.6,-13,76.59,330,13,0,30.05,0.5,21,OVC,M,M,M,200,M,M,-29.16
0CO,1/10/24,6:55:00 AM,-7.6,-13,76.59,350,13,0,30.03,0.25,23,OVC,M,M,M,200,M,M,-29.16
0CO,1/10/24,7:55:00 AM,-7.6,-13,76.59,360,11,0,30.01,0.25,26,OVC,M,M,M,200,M,M,-27.58
0CO,1/10/24,8:55:00 AM,-7.6,-13,76.59,350,12,0,30.01,0.25,25,OVC,M,M,M,200,M,M,-28.4
0CO,1/10/24,9:55:00 AM,-7.6,-13,76.59,330,23,0,30,0.25,31,OVC,M,M,M,200,M,M,-34.92
0CO,1/10/24,10:55:00 AM,-7.6,-13,76.59,350,16,0,29.99,0.25,31,OVC,M,M,M,200,M,M,-31.2
0CO,1/10/24,11:55:00 AM,-7.6,-13,76.59,10,8,0,30,0.25,31,OVC,M,M,M,200,M,M,-24.67
0CO,1/10/24,12:55:00 PM,-7.6,-13,76.59,350,14,0,30,0.25,26,OVC,M,M,M,200,M,M,-29.88
0CO,1/10/24,1:55:00 PM,-9.4,-14.8,76.4,350,18,0,30,0.25,27,OVC,M,M,M,200,M,M,-34.75
0CO,1/10/24,2:55:00 PM,-7.6,-13,76.59,350,15,0,30,M,26,OVC,M,M,M,200,M,M,-30.56
0CO,1/10/24,3:55:00 PM,-7.6,-13,76.59,340,21,0,30.01,M,29,OVC,M,M,M,200,M,M,-33.96
0CO,1/10/24,4:55:00 PM,-5.8,-9.4,83.91,340,24,0,30.03,2.5,34,CLR,M,M,M,M,M,M,-32.94
0CO,1/10/24,5:55:00 PM,-4,-7.6,84.04,360,13,0,30.04,2,20,CLR,M,M,M,M,M,M,-24.55
0CO,1/10/24,6:55:00 PM,-0.4,-5.8,77.32,340,21,0,30.01,1.5,27,VV ,M,M,M,700,M,M,-24.36
0CO,1/10/24,7:55:00 PM,1.4,-4,77.49,340,19,0,30,5,24,CLR,M,M,M,M,M,M,-21.03
0CO,1/11/24,8:55:00 PM,1.4,-2.2,84.43,360,14,0,29.98,0.25,37,BKN,OVC,M,M,100,3000,M,-18.28
0CO,1/11/24,9:55:00 PM,1.4,-2.2,84.43,330,28,0,29.95,0.25,37,OVC,M,M,M,100,M,M,-24.72
0CO,1/11/24,10:55:00 PM,5,1.4,84.68,340,26,0,29.96,1.5,36,VV ,M,M,M,700,M,M,-19.1
0CO,1/11/24,11:55:00 PM,1.4,-2.2,84.43,340,22,0,29.96,1.25,31,VV ,M,M,M,700,M,M,-22.4
0CO,1/11/24,12:55:00 AM,5,1.4,84.68,320,29,0,29.96,3,37,CLR,M,M,M,M,M,M,-20.13
0CO,1/11/24,1:55:00 AM,8.6,5,84.93,310,39,0,29.9,0.75,49,OVC,M,M,M,400,M,M,-17.92
0CO,1/11/24,2:55:00 AM,8.6,5,84.93,M,M,0,29.9,0.25,M,OVC,M,M,M,200,M,M,M
0CO,1/11/24,3:55:00 AM,14,12.2,92.38,M,M,0,29.9,0.25,M,OVC,M,M,M,200,M,M,M
0CO,1/11/24,4:55:00 AM,17.6,14,85.51,M,M,0,29.85,0.5,M,OVC,M,M,M,200,M,M,M
0CO,1/11/24,5:55:00 AM,19.4,17.6,92.57,310,36,0,29.86,0.5,50,OVC,M,M,M,200,M,M,-2.07
0CO,1/11/24,6:55:00 AM,19.4,19.4,100,300,34,0,29.82,0.5,42,OVC,M,M,M,200,M,M,-1.62
0CO,1/11/24,7:55:00 AM,21.2,19.4,92.63,290,24,0,29.81,10,34,SCT,BKN,M,M,700,5000,M,3.49
0CO,1/11/24,8:55:00 AM,5,1.4,84.68,320,27,0,29.79,0.25,33,OVC,M,M,M,200,M,M,-19.46
0CO,1/11/24,9:55:00 AM,14,10.4,85.28,290,28,0,29.78,0.25,45,OVC,M,M,M,400,M,M,-7.49
0CO,1/11/24,10:55:00 AM,12.2,8.6,85.17,290,33,0,29.77,0.25,45,OVC,M,M,M,400,M,M,-11.37
0CO,1/11/24,11:55:00 AM,10.4,8.6,92.25,300,29,0,29.75,0.5,45,OVC,M,M,M,400,M,M,-12.72
0CO,1/11/24,12:55:00 PM,10.4,6.8,85.05,M,M,0,29.73,0.75,M,BKN,OVC,M,M,400,900,M,M
0CO,1/11/24,1:55:00 PM,8.6,5,84.93,320,22,0,29.72,0.5,M,OVC,M,M,M,400,M,M,-12.76
0CO,1/11/24,2:55:00 PM,8.6,3.2,78.18,M,M,0,29.71,0.25,M,OVC,M,M,M,200,M,M,M
0CO,1/11/24,3:55:00 PM,5,3.2,92.06,300,32,0,29.72,0.25,40,OVC,M,M,M,200,M,M,-21.06
0CO,1/11/24,4:55:00 PM,5,1.4,84.68,310,19,0,29.74,0.25,27,OVC,M,M,M,200,M,M,-16.27
0CO,1/11/24,5:55:00 PM,3.2,1.4,91.99,310,17,0,29.72,0.25,27,OVC,M,M,M,600,M,M,-17.65
0CO,1/11/24,6:55:00 PM,3.2,-0.4,84.56,310,18,0,29.7,0.5,M,BKN,OVC,M,M,400,1000,M,-18.16
0CO,1/11/24,7:55:00 PM,1.4,-2.2,84.43,330,22,0,29.67,0.25,32,OVC,M,M,M,200,M,M,-22.4
0CO,1/12/24,8:55:00 PM,3.2,-0.4,84.56,340,14,0,29.69,0.25,21,OVC,M,M,M,200,M,M,-15.96
0CO,1/12/24,9:55:00 PM,1.4,-2.2,84.43,330,20,0,29.71,0.5,30,BKN,OVC,M,M,200,800,M,-21.5
0CO,1/12/24,10:55:00 PM,1.4,-4,77.49,310,20,0,29.71,0.5,M,BKN,BKN,OVC,M,400,800,1300,-21.5
0CO,1/12/24,11:55:00 PM,1.4,-4,77.49,330,18,0,29.73,0.75,30,SCT,BKN,OVC,M,300,800,2300,-20.53
0CO,1/12/24,12:55:00 AM,1.4,-4,77.49,320,29,0,29.73,0.25,38,OVC,M,M,M,300,M,M,-25.06
0CO,1/12/24,1:55:00 AM,1.4,-4,77.49,340,24,0,29.75,0.25,40,OVC,M,M,M,100,M,M,-23.22
0CO,1/12/24,2:55:00 AM,-0.4,-4,84.3,350,16,0,29.76,0.25,35,OVC,M,M,M,100,M,M,-21.81
0CO,1/12/24,3:55:00 AM,-0.4,-4,84.3,340,23,0,29.77,0.25,28,OVC,M,M,M,100,M,M,-25.24
0CO,1/12/24,4:55:00 AM,-0.4,-5.8,77.32,350,18,0,29.78,0.25,28,OVC,M,M,M,100,M,M,-22.9
0CO,1/12/24,5:55:00 AM,-0.4,-5.8,77.32,350,17,0,29.8,0.5,24,OVC,M,M,M,100,M,M,-22.37
0CO,1/12/24,6:55:00 AM,-0.4,-4,84.3,10,9,0,29.79,0.25,28,OVC,M,M,M,300,M,M,-16.77
0CO,1/12/24,7:55:00 AM,-0.4,-5.8,77.32,330,15,0,29.79,0.5,27,OVC,M,M,M,300,M,M,-21.22
0CO,1/12/24,8:55:00 AM,-0.4,-5.8,77.32,350,15,0,29.79,0.25,22,OVC,M,M,M,100,M,M,-21.22
0CO,1/12/24,9:55:00 AM,-0.4,-5.8,77.32,10,7,0,29.8,0.5,28,OVC,M,M,M,300,M,M,-14.71
0CO,1/12/24,10:55:00 AM,-2.2,-7.6,77.14,340,19,0,29.78,0.5,24,OVC,M,M,M,100,M,M,-25.79
0CO,1/12/24,11:55:00 AM,-4,-7.6,84.04,340,19,0,29.78,0.5,26,BKN,BKN,OVC,M,100,600,1900,-28.17
0CO,1/12/24,12:55:00 PM,-2.2,-5.8,84.17,340,18,0,29.8,0.75,28,BKN,OVC,M,M,300,1400,M,-25.27
0CO,1/12/24,1:55:00 PM,-4,-7.6,84.04,340,17,0,29.81,0.5,23,BKN,OVC,M,M,100,700,M,-27.09
0CO,1/12/24,2:55:00 PM,-4,-7.6,84.04,340,17,0,29.81,0.25,23,OVC,M,M,M,100,M,M,-27.09
0CO,1/12/24,3:55:00 PM,-2.2,-5.8,84.17,340,21,0,29.84,0.25,26,OVC,M,M,M,100,M,M,-26.76
0CO,1/12/24,4:55:00 PM,-2.2,-5.8,84.17,330,11,0,29.87,1.25,18,OVC,M,M,M,300,M,M,-20.75
0CO,1/12/24,5:55:00 PM,-0.4,-4,84.3,330,11,0,29.87,0.5,20,OVC,M,M,M,300,M,M,-18.48
0CO,1/12/24,6:55:00 PM,1.4,-4,77.49,350,9,0,29.86,0.25,18,OVC,M,M,M,100,M,M,-14.54
0CO,1/12/24,7:55:00 PM,1.4,-4,77.49,350,9,0,29.85,0.25,17,OVC,M,M,M,100,M,M,-14.54
0CO,1/13/24,8:55:00 PM,1.4,-4,77.49,350,9,0,29.85,0.5,14,BKN,OVC,M,M,300,1000,M,-14.54
0CO,1/13/24,9:55:00 PM,-0.4,-4,84.3,330,11,0,29.86,0.25,14,OVC,M,M,M,100,M,M,-18.48
0CO,1/13/24,10:55:00 PM,-0.4,-4,84.3,350,7,0.01,29.88,0.5,M,BKN,OVC,M,M,200,700,M,-14.71
0CO,1/13/24,11:55:00 PM,-2.2,-5.8,84.17,330,8,0,29.89,2.5,M,SCT,BKN,OVC,M,100,1900,2700,-18.02
0CO,1/13/24,12:55:00 AM,-4,-7.6,84.04,310,11,0,29.89,10,M,SCT,SCT,M,M,1900,2500,M,-23.03
0CO,1/13/24,1:55:00 AM,-4,-7.6,84.04,300,12,0,29.9,10,M,CLR,M,M,M,M,M,M,-23.82
0CO,1/13/24,2:55:00 AM,-4,-7.6,84.04,320,11,0,29.91,10,M,SCT,M,M,M,1800,M,M,-23.03
0CO,1/13/24,3:55:00 AM,-2.2,-7.6,77.14,320,8,0,29.93,2.5,M,SCT,SCT,OVC,M,200,500,1500,-18.02
0CO,1/13/24,4:55:00 AM,-4,-7.6,84.04,330,6,0,29.94,10,M,BKN,OVC,M,M,900,1300,M,-17.83
0CO,1/13/24,5:55:00 AM,-4,-7.6,84.04,330,7,0,29.95,7,M,SCT,OVC,M,M,200,700,M,-19.1
0CO,1/13/24,6:55:00 AM,-4,-7.6,84.04,360,3,0,29.95,10,M,BKN,OVC,M,M,1000,1800,M,-12.47
0CO,1/13/24,7:55:00 AM,-4,-7.6,84.04,330,9,0,29.94,1.75,17,SCT,SCT,M,M,100,8500,M,-21.25
0CO,1/13/24,8:55:00 AM,-5.8,-9.4,83.91,330,10,0,29.94,10,M,CLR,M,M,M,M,M,M,-24.43
0CO,1/13/24,9:55:00 AM,-5.8,-9.4,83.91,320,9,0,29.95,10,14,CLR,M,M,M,M,M,M,-23.49
0CO,1/13/24,10:55:00 AM,-5.8,-9.4,83.91,330,9,0,29.94,10,14,SCT,M,M,M,1800,M,M,-23.49
0CO,1/13/24,11:55:00 AM,-5.8,-9.4,83.91,300,10,0,29.92,10,M,CLR,M,M,M,M,M,M,-24.43
0CO,1/13/24,12:55:00 PM,-4,-9.4,76.96,290,12,0,29.92,10,M,CLR,M,M,M,M,M,M,-23.82
0CO,1/13/24,1:55:00 PM,-5.8,-9.4,83.91,300,12,0,29.91,10,M,CLR,M,M,M,M,M,M,-26.11
0CO,1/13/24,2:55:00 PM,-4,-7.6,84.04,300,14,0,29.92,10,21,CLR,M,M,M,M,M,M,-25.24
0CO,1/13/24,3:55:00 PM,-4,-7.6,84.04,300,16,0,29.92,7,20,CLR,M,M,M,M,M,M,-26.5
0CO,1/13/24,4:55:00 PM,-4,-7.6,84.04,300,17,0,29.93,7,28,CLR,M,M,M,M,M,M,-27.09
0CO,1/13/24,5:55:00 PM,-2.2,-5.8,84.17,M,M,0,29.91,5,M,CLR,M,M,M,M,M,M,M
0CO,1/13/24,6:55:00 PM,-0.4,-5.8,77.32,310,19,0,29.89,1.25,30,SCT,BKN,M,M,800,1400,M,-23.41
0CO,1/13/24,7:55:00 PM,-2.2,-5.8,84.17,350,17,0,29.89,0.25,29,OVC,M,M,M,100,M,M,-24.73
0CO,1/14/24,8:55:00 PM,-2.2,-7.6,77.14,330,17,0,29.9,0.25,28,OVC,M,M,M,100,M,M,-24.73
0CO,1/14/24,9:55:00 PM,-2.2,-5.8,84.17,310,20,0,29.9,0.25,35,BKN,OVC,M,M,300,1200,M,-26.29
0CO,1/14/24,10:55:00 PM,-0.4,-5.8,77.32,330,24,0,29.91,0.25,36,OVC,M,M,M,100,M,M,-25.65
0CO,1/14/24,11:55:00 PM,-4,-7.6,84.04,300,14,0,29.91,0.25,25,OVC,M,M,M,100,M,M,-25.24
0CO,1/14/24,12:55:00 AM,-4,-9.4,76.96,340,22,0,29.91,0.25,28,OVC,M,M,M,300,M,M,-29.63
0CO,1/14/24,1:55:00 AM,-4,-9.4,76.96,340,22,0,29.91,0.25,34,OVC,M,M,M,300,M,M,-29.63
0CO,1/14/24,2:55:00 AM,-5.8,-9.4,83.91,350,16,0,29.95,0.25,29,OVC,M,M,M,100,M,M,-28.85
0CO,1/14/24,3:55:00 AM,-5.8,-9.4,83.91,350,22,0,29.95,0.25,29,OVC,M,M,M,100,M,M,-32.04
0CO,1/14/24,4:55:00 AM,-5.8,-9.4,83.91,360,13,0,29.96,0.25,27,OVC,M,M,M,100,M,M,-26.86
0CO,1/14/24,5:55:00 AM,-5.8,-9.4,83.91,10,10,0,29.98,0.25,23,OVC,M,M,M,100,M,M,-24.43
0CO,1/14/24,6:55:00 AM,-5.8,-9.4,83.91,360,12,0,30,0.25,29,OVC,M,M,M,100,M,M,-26.11
0CO,1/14/24,7:55:00 AM,-7.6,-11.2,83.78,350,16,0,29.99,0.25,28,OVC,M,M,M,100,M,M,-31.2
0CO,1/14/24,8:55:00 AM,-7.6,-13,76.59,350,17,0,29.99,0.25,30,OVC,M,M,M,100,M,M,-31.8
0CO,1/14/24,9:55:00 AM,-7.6,-13,76.59,320,23,0,29.98,0.25,27,OVC,M,M,M,100,M,M,-34.92
0CO,1/14/24,10:55:00 AM,-7.6,-13,76.59,310,25,0,29.96,0.75,31,OVC,M,M,M,100,M,M,-35.8
0CO,1/14/24,11:55:00 AM,-7.6,-11.2,83.78,330,20,0,29.98,2,29,SCT,BKN,M,M,100,5500,M,-33.46
0CO,1/14/24,12:55:00 PM,-7.6,-13,76.59,340,17,0,30.02,1.25,25,BKN,OVC,M,M,1100,4200,M,-31.8
0CO,1/14/24,1:55:00 PM,-7.6,-13,76.59,350,13,0,30.04,1.25,28,SCT,SCT,OVC,M,200,900,1400,-29.16
0CO,1/14/24,2:55:00 PM,-7.6,-13,76.59,320,16,0,30.05,1.25,28,SCT,BKN,OVC,M,200,1500,2200,-31.2
0CO,1/14/24,3:55:00 PM,-5.8,-11.2,76.77,360,11,0,30.06,1.25,20,SCT,BKN,OVC,M,300,2000,2700,-25.3
0CO,1/14/24,4:55:00 PM,-4,-7.6,84.04,330,12,0,30.1,5,21,OVC,M,M,M,2000,M,M,-23.82
0CO,1/14/24,5:55:00 PM,-0.4,-5.8,77.32,350,5,0,30.11,7,M,SCT,M,M,M,3200,M,M,-12.08
0CO,1/14/24,6:55:00 PM,-0.4,-5.8,77.32,20,7,0,30.1,0.25,M,OVC,M,M,M,100,M,M,-14.71
0CO,1/14/24,7:55:00 PM,-0.4,-5.8,77.32,320,13,0,30.08,0.5,22,BKN,OVC,M,M,100,2100,M,-19.94
0CO,1/15/24,8:55:00 PM,-0.4,-4,84.3,340,15,0,30.08,0.25,24,OVC,M,M,M,100,M,M,-21.22
0CO,1/15/24,9:55:00 PM,-0.4,-4,84.3,350,13,0,30.08,0.25,23,OVC,M,M,M,100,M,M,-19.94
0CO,1/15/24,10:55:00 PM,-0.4,-5.8,77.32,340,14,0,30.1,0.25,21,OVC,M,M,M,300,M,M,-20.6
0CO,1/15/24,11:55:00 PM,-0.4,-5.8,77.32,340,20,0,30.09,0.25,26,OVC,M,M,M,100,M,M,-23.89
0CO,1/15/24,12:55:00 AM,-2.2,-5.8,84.17,330,25,0,30.1,0.25,31,OVC,M,M,M,100,M,M,-28.49
0CO,1/15/24,1:55:00 AM,-2.2,-5.8,84.17,330,20,0,30.13,0.5,27,OVC,M,M,M,100,M,M,-26.29
0CO,1/15/24,2:55:00 AM,-2.2,-5.8,84.17,330,21,0,30.12,0.75,31,BKN,OVC,M,M,500,1000,M,-26.76
0CO,1/15/24,3:55:00 AM,-2.2,-5.8,84.17,330,17,0,30.12,2.5,27,BKN,OVC,M,M,500,1000,M,-24.73
0CO,1/15/24,4:55:00 AM,-0.4,-5.8,77.32,330,23,0,30.12,0.75,33,OVC,M,M,M,300,M,M,-25.24
0CO,1/15/24,5:55:00 AM,-0.4,-5.8,77.32,330,23,0,30.13,0.5,31,OVC,M,M,M,300,M,M,-25.24
0CO,1/15/24,6:55:00 AM,-2.2,-5.8,84.17,330,22,0,30.12,0.5,29,OVC,M,M,M,100,M,M,-27.22
0CO,1/15/24,7:55:00 AM,-4,-7.6,84.04,350,22,0,30.1,M,35,OVC,M,M,M,100,M,M,-29.63
0CO,1/15/24,8:55:00 AM,-4,-7.6,84.04,330,24,0,30.11,0.5,34,OVC,M,M,M,100,M,M,-30.51
0CO,1/15/24,9:55:00 AM,-4,-7.6,84.04,340,23,0,30.13,0.5,32,OVC,M,M,M,600,M,M,-30.08
0CO,1/15/24,10:55:00 AM,-4,-7.6,84.04,350,17,0,30.15,0.5,31,OVC,M,M,M,200,M,M,-27.09
0CO,1/15/24,11:55:00 AM,-4,-7.6,84.04,340,20,0,30.17,M,32,BKN,OVC,M,M,200,800,M,-28.68
0CO,1/15/24,12:55:00 PM,-2.2,-5.8,84.17,340,25,0,30.21,0.25,33,OVC,M,M,M,100,M,M,-28.49
0CO,1/15/24,1:55:00 PM,-0.4,-5.8,77.32,350,18,0,30.25,2,28,BKN,M,M,M,100,M,M,-22.9
0CO,1/15/24,2:55:00 PM,-0.4,-5.8,77.32,360,10,0,30.27,2,27,CLR,M,M,M,M,M,M,-17.66
0CO,1/15/24,3:55:00 PM,1.4,-2.2,84.43,20,6,0,30.31,10,18,CLR,M,M,M,M,M,M,-11.32
0CO,1/15/24,4:55:00 PM,3.2,1.4,91.99,10,9,0,30.36,10,16,CLR,M,M,M,M,M,M,-12.3
0CO,1/15/24,5:55:00 PM,6.8,3.2,84.8,360,4,0,30.38,10,M,CLR,M,M,M,M,M,M,-2.01
0CO,1/15/24,6:55:00 PM,8.6,5,84.93,10,7,0,30.39,10,M,CLR,M,M,M,M,M,M,-3.74
0CO,1/15/24,7:55:00 PM,10.4,8.6,92.25,350,12,0,30.38,10,18,CLR,M,M,M,M,M,M,-5.49
0CO,1/16/24,8:55:00 PM,14,12.2,92.38,340,8,0,30.38,10,14,CLR,M,M,M,M,M,M,1.94
0CO,1/16/24,9:55:00 PM,17.6,14,85.51,360,8,0,30.4,10,21,CLR,M,M,M,M,M,M,6.37
0CO,1/16/24,10:55:00 PM,17.6,14,85.51,340,13,0,30.43,10,18,CLR,M,M,M,M,M,M,3.12
0CO,1/16/24,11:55:00 PM,15.8,14,92.44,340,14,0,30.43,10,22,CLR,M,M,M,M,M,M,0.28
0CO,1/16/24,12:55:00 AM,17.6,14,85.51,10,6,0,30.46,10,M,CLR,M,M,M,M,M,M,8.19
0CO,1/16/24,1:55:00 AM,17.6,15.8,92.5,330,13,0,30.47,10,19,CLR,M,M,M,M,M,M,3.12
0CO,1/16/24,2:55:00 AM,17.6,15.8,92.5,330,16,0,30.48,10,M,CLR,M,M,M,M,M,M,1.65
0CO,1/16/24,3:55:00 AM,17.6,15.8,92.5,330,15,0,30.48,10,M,CLR,M,M,M,M,M,M,2.11
0CO,1/16/24,4:55:00 AM,17.6,15.8,92.5,330,15,0,30.48,10,M,CLR,M,M,M,M,M,M,2.11
0CO,1/16/24,5:55:00 AM,19.4,14,79.16,330,13,0,30.49,10,20,CLR,M,M,M,M,M,M,5.43
0CO,1/16/24,6:55:00 AM,19.4,12.2,73.13,320,12,0,30.48,10,19,CLR,M,M,M,M,M,M,5.97
0CO,1/16/24,7:55:00 AM,21.2,12.2,67.73,320,17,0,30.46,10,21,CLR,M,M,M,M,M,M,5.93
0CO,1/16/24,8:55:00 AM,19.4,10.4,67.51,340,11,0,30.45,10,22,CLR,M,M,M,M,M,M,6.54
0CO,1/16/24,9:55:00 AM,19.4,8.6,62.28,330,15,0,30.43,10,21,CLR,M,M,M,M,M,M,4.45
0CO,1/16/24,10:55:00 AM,19.4,10.4,67.51,330,15,0,30.41,10,25,CLR,M,M,M,M,M,M,4.45
0CO,1/16/24,11:55:00 AM,21.2,10.4,62.53,310,22,0,30.37,7,29,CLR,M,M,M,M,M,M,4.12
0CO,1/16/24,12:55:00 PM,19.4,8.6,62.28,330,18,0,30.38,10,24,CLR,M,M,M,M,M,M,3.16
0CO,1/16/24,1:55:00 PM,21.2,8.6,57.69,320,20,0,30.37,10,27,CLR,M,M,M,M,M,M,4.79
0CO,1/16/24,2:55:00 PM,21.2,8.6,57.69,320,20,0,30.36,10,29,CLR,M,M,M,M,M,M,4.79
0CO,1/16/24,3:55:00 PM,23,8.6,53.47,310,21,0,30.35,10,27,CLR,M,M,M,M,M,M,6.85
0CO,1/16/24,4:55:00 PM,24.8,8.6,49.59,310,21,0,30.34,10,31,CLR,M,M,M,M,M,M,9.25
0CO,1/16/24,5:55:00 PM,23,12.2,62.78,320,18,0,30.32,10,24,CLR,M,M,M,M,M,M,7.9
0CO,1/16/24,6:55:00 PM,24.8,12.2,58.22,310,20,0,30.28,10,27,CLR,M,M,M,M,M,M,9.58
0CO,1/16/24,7:55:00 PM,26.6,12.2,54.03,310,18,0,30.25,10,27,CLR,M,M,M,M,M,M,12.64
0CO,1/17/24,8:55:00 PM,23,14,67.96,320,17,0,30.2,10,21,CLR,M,M,M,M,M,M,8.28
0CO,1/17/24,9:55:00 PM,24.8,10.4,53.75,300,18,0,30.19,10,28,CLR,M,M,M,M,M,M,10.27
0CO,1/17/24,10:55:00 PM,23,8.6,53.47,310,23,0,30.15,10,29,CLR,M,M,M,M,M,M,6.22
0CO,1/17/24,11:55:00 PM,21.2,8.6,57.69,310,24,0,30.12,10,29,CLR,M,M,M,M,M,M,3.49
0CO,1/17/24,12:55:00 AM,19.4,6.8,57.41,320,22,0,30.1,10,29,CLR,M,M,M,M,M,M,1.71
0CO,1/17/24,1:55:00 AM,15.8,6.8,67.05,320,20,0,30.07,10,28,CLR,M,M,M,M,M,M,-2.38
0CO,1/17/24,2:55:00 AM,17.6,3.2,52.6,320,22,0,30.03,10,30,CLR,M,M,M,M,M,M,-0.7
0CO,1/17/24,3:55:00 AM,14,1.4,56.58,320,25,0,30.01,10,32,CLR,M,M,M,M,M,M,-6.56
0CO,1/17/24,4:55:00 AM,15.8,-4,40.53,320,29,0,29.98,10,36,CLR,M,M,M,M,M,M,-5.31
0CO,1/17/24,5:55:00 AM,15.8,-7.6,34.07,300,30,0,29.96,7,43,CLR,M,M,M,M,M,M,-5.59
0CO,1/17/24,6:55:00 AM,15.8,-9.4,31.19,300,37,0,29.92,5,42,CLR,M,M,M,M,M,M,-7.34
0CO,1/17/24,7:55:00 AM,14,-9.4,33.74,300,33,0,29.88,7,47,CLR,M,M,M,M,M,M,-8.87
0CO,1/17/24,8:55:00 AM,14,-9.4,33.74,300,31,0,29.86,7,40,CLR,M,M,M,M,M,M,-8.34
0CO,1/17/24,9:55:00 AM,10.4,-5.8,47.15,M,M,0,29.85,10,M,CLR,M,M,M,M,M,M,M
0CO,1/17/24,10:55:00 AM,8.6,-5.8,51.11,330,22,0,29.84,10,30,CLR,M,M,M,M,M,M,-12.76
0CO,1/17/24,11:55:00 AM,5,-4,65.62,330,23,0,29.83,10,31,CLR,M,M,M,M,M,M,-17.98
0CO,1/17/24,12:55:00 PM,6.8,-5.8,55.44,320,23,0,29.81,10,36,CLR,M,M,M,M,M,M,-15.56
0CO,1/17/24,1:55:00 PM,10.4,-7.6,43.21,310,32,0,29.77,7,41,CLR,M,M,M,M,M,M,-13.59
0CO,1/17/24,2:55:00 PM,10.4,-4,51.41,300,33,0,29.76,4,41,CLR,M,M,M,M,M,M,-13.87
0CO,1/17/24,3:55:00 PM,8.6,-0.4,66.11,320,26,0,29.76,10,36,SCT,M,M,M,1000,M,M,-14.21
0CO,1/17/24,4:55:00 PM,5,-0.4,77.84,340,28,0,29.77,10,35,BKN,M,M,M,1100,M,M,-19.8
0CO,1/17/24,5:55:00 PM,12.2,8.6,85.17,320,30,0,29.77,2,36,OVC,M,M,M,700,M,M,-10.54
0CO,1/17/24,6:55:00 PM,12.2,6.8,78.51,310,19,0,29.77,7,38,BKN,BKN,M,M,1100,1900,M,-6.75
0CO,1/17/24,7:55:00 PM,12.2,5,72.33,M,M,0,29.74,5,M,SCT,SCT,SCT,M,2000,2400,3000,M
0CO,1/18/24,8:55:00 PM,12.2,5,72.33,320,25,0,29.73,10,34,SCT,SCT,M,M,2200,2800,M,-8.99
0CO,1/18/24,9:55:00 PM,10.4,5,78.35,350,9,0,29.77,7,17,OVC,M,M,M,2000,M,M,-3.34
0CO,1/18/24,10:55:00 PM,8.6,5,84.93,350,11,0,29.76,0.5,M,BKN,BKN,OVC,M,100,500,2000,-7.1
0CO,1/18/24,11:55:00 PM,8.6,5,84.93,340,8,0,29.76,0.25,M,OVC,M,M,M,100,M,M,-4.71
0CO,1/18/24,12:55:00 AM,8.6,5,84.93,310,12,0,29.75,0.5,M,SCT,BKN,OVC,M,100,1400,1800,-7.78
0CO,1/18/24,1:55:00 AM,8.6,5,84.93,280,16,0,29.74,1,23,BKN,BKN,OVC,M,300,900,2000,-10.08
0CO,1/18/24,2:55:00 AM,8.6,5,84.93,280,20,0,29.72,0.75,40,BKN,OVC,M,M,800,1200,M,-11.94
0CO,1/18/24,3:55:00 AM,8.6,5,84.93,290,36,0,29.69,0.25,M,OVC,M,M,M,500,M,M,-17.17
0CO,1/18/24,4:55:00 AM,6.8,3.2,84.8,350,9,0,29.72,0.25,18,OVC,M,M,M,100,M,M,-7.82
0CO,1/18/24,5:55:00 AM,1.4,-2.2,84.43,330,12,0,29.72,0.75,22,OVC,M,M,M,300,M,M,-16.94
0CO,1/18/24,6:55:00 AM,-0.4,-4,84.3,10,9,0,29.7,0.5,25,OVC,M,M,M,100,M,M,-16.77
0CO,1/18/24,7:55:00 AM,-2.2,-5.8,84.17,320,26,0,29.65,0.25,39,OVC,M,M,M,300,M,M,-28.89
0CO,1/18/24,8:55:00 AM,-2.2,-7.6,77.14,330,22,0,29.66,0.5,32,OVC,M,M,M,500,M,M,-27.22
0CO,1/18/24,9:55:00 AM,-4,-7.6,84.04,330,20,0,29.65,0.5,29,OVC,M,M,M,500,M,M,-28.68
0CO,1/18/24,10:55:00 AM,-4,-7.6,84.04,340,20,0,29.64,0.5,31,BKN,OVC,M,M,300,700,M,-28.68
0CO,1/18/24,11:55:00 AM,-5.8,-9.4,83.91,330,21,0,29.64,0.5,31,OVC,M,M,M,500,M,M,-31.56
0CO,1/18/24,12:55:00 PM,-5.8,-11.2,76.77,320,22,0,29.65,1,31,SCT,BKN,OVC,M,400,1000,1700,-32.04
0CO,1/18/24,1:55:00 PM,-5.8,-11.2,76.77,320,19,0,29.66,0.5,28,OVC,M,M,M,400,M,M,-30.55
0CO,1/18/24,2:55:00 PM,-7.6,-13,76.59,320,16,0,29.67,0.5,26,OVC,M,M,M,400,M,M,-31.2
0CO,1/18/24,3:55:00 PM,-7.6,-13,76.59,360,8,0,29.69,0.5,19,OVC,M,M,M,500,M,M,-24.67
0CO,1/18/24,4:55:00 PM,-9.4,-14.8,76.4,330,14,0,29.71,0.5,28,OVC,M,M,M,500,M,M,-32.2
0CO,1/18/24,5:55:00 PM,-9.4,-14.8,76.4,340,17,0,29.72,0.25,26,OVC,M,M,M,300,M,M,-34.16
0CO,1/18/24,6:55:00 PM,-9.4,-14.8,76.4,10,7,0,29.71,0.25,21,OVC,M,M,M,400,M,M,-25.68
0CO,1/18/24,7:55:00 PM,-9.4,-14.8,76.4,320,18,0,29.69,0.25,27,OVC,M,M,M,600,M,M,-34.75
0CO,1/19/24,8:55:00 PM,-11.2,-16.6,76.21,340,19,0,29.69,0.25,28,OVC,M,M,M,400,M,M,-37.69
0CO,1/19/24,9:55:00 PM,-13,-16.6,83.37,310,20,0,29.69,0.25,35,OVC,M,M,M,400,M,M,-40.63
0CO,1/19/24,10:55:00 PM,-13,-18.4,76.02,320,21,0,29.72,0.25,35,OVC,M,M,M,600,M,M,-41.16
0CO,1/19/24,11:55:00 PM,-14.8,-20.2,75.83,320,27,0,29.72,0.25,35,OVC,M,M,M,400,M,M,-46.44
0CO,1/19/24,12:55:00 AM,-14.8,-20.2,75.83,310,30,0,29.72,0.25,35,OVC,M,M,M,400,M,M,-47.68
0CO,1/19/24,1:55:00 AM,-16.6,-22,75.63,310,27,0,29.75,0.25,34,OVC,M,M,M,400,M,M,-48.89
0CO,1/19/24,2:55:00 AM,-16.6,-22,75.63,310,33,0,29.72,0.25,44,OVC,M,M,M,400,M,M,-51.32
0CO,1/19/24,3:55:00 AM,-16.6,-22,75.63,310,30,0,29.73,0.5,M,OVC,M,M,M,400,M,M,-50.16
0CO,1/19/24,4:55:00 AM,-18.4,-23.8,75.44,310,31,0,29.73,0.5,41,OVC,M,M,M,400,M,M,-53.04
0CO,1/19/24,5:55:00 AM,-18.4,-23.8,75.44,310,34,0,29.73,0.5,40,OVC,M,M,M,400,M,M,-54.19
0CO,1/19/24,6:55:00 AM,-18.4,-23.8,75.44,M,M,0,29.71,0.5,M,OVC,M,M,M,400,M,M,M
0CO,1/19/24,7:55:00 AM,-18.4,-23.8,75.44,M,M,0,29.69,0.5,M,OVC,M,M,M,600,M,M,M
0CO,1/19/24,8:55:00 AM,-18.4,-23.8,75.44,M,M,0,29.67,0.5,M,VV ,M,M,M,500,M,M,M
0CO,1/19/24,9:55:00 AM,-18.4,-23.8,75.44,M,M,0,29.67,0.25,M,OVC,M,M,M,800,M,M,M
0CO,1/19/24,10:55:00 AM,-16.6,-23.8,68.79,M,M,0,29.64,0.5,M,OVC,M,M,M,800,M,M,M
0CO,1/19/24,11:55:00 AM,-18.4,-23.8,75.44,320,31,0,29.65,0.5,45,OVC,M,M,M,600,M,M,-53.04
0CO,1/19/24,12:55:00 PM,-18.4,-23.8,75.44,320,32,0,29.65,0.5,41,OVC,M,M,M,600,M,M,-53.43
0CO,1/19/24,1:55:00 PM,-18.4,-23.8,75.44,320,29,0,29.65,0.5,38,OVC,M,M,M,400,M,M,-52.22
0CO,1/19/24,2:55:00 PM,-18.4,-23.8,75.44,320,28,0,29.67,0.25,35,OVC,M,M,M,300,M,M,-51.79
0CO,1/19/24,3:55:00 PM,-16.6,-22,75.63,310,30,0,29.68,0.5,42,BKN,BKN,BKN,M,100,4300,5000,-50.16
0CO,1/19/24,4:55:00 PM,-14.8,-18.4,83.23,300,23,0,29.69,7,38,CLR,M,M,M,M,M,M,-44.59
0CO,1/19/24,5:55:00 PM,-13,-18.4,76.02,300,27,0,29.67,3,M,CLR,M,M,M,M,M,M,-43.99
0CO,1/19/24,6:55:00 PM,-11.2,-16.6,76.21,310,17,0,29.65,0.25,27,OVC,M,M,M,100,M,M,-36.52
0CO,1/19/24,7:55:00 PM,-9.4,-14.8,76.4,330,19,0,29.64,0.25,35,OVC,M,M,M,100,M,M,-35.31
0CO,1/20/24,8:55:00 PM,-11.2,-16.6,76.21,320,22,0,29.62,0.25,32,OVC,M,M,M,200,M,M,-39.27
0CO,1/20/24,9:55:00 PM,-9.4,-14.8,76.4,300,27,0,29.62,0.5,37,BKN,OVC,M,M,400,1200,M,-39.08
0CO,1/20/24,10:55:00 PM,-9.4,-14.8,76.4,330,18,0,29.63,0.25,32,OVC,M,M,M,200,M,M,-34.75
0CO,1/20/24,11:55:00 PM,-11.2,-16.6,76.21,330,19,0,29.63,0.25,28,OVC,M,M,M,400,M,M,-37.69
0CO,1/20/24,12:55:00 AM,-13,-18.4,76.02,350,14,0,29.64,0.5,27,OVC,M,M,M,200,M,M,-36.84
0CO,1/20/24,1:55:00 AM,-13,-18.4,76.02,340,20,0,29.64,0.75,26,BKN,OVC,M,M,200,600,M,-40.63
0CO,1/20/24,2:55:00 AM,-13,-18.4,76.02,340,18,0,29.65,0.5,26,OVC,M,M,M,200,M,M,-39.49
0CO,1/20/24,3:55:00 AM,-13,-18.4,76.02,340,14,0,29.66,1.25,17,OVC,M,M,M,600,M,M,-36.84
0CO,1/20/24,4:56:00 AM,-13,-18.4,76.02,340,15,0,29.67,1,M,OVC,M,M,M,600,M,M,-37.56
0CO,1/20/24,5:55:00 AM,-13,-18.4,76.02,330,11,0,29.67,1,M,OVC,M,M,M,600,M,M,-34.4
0CO,1/20/24,6:55:00 AM,-13,-18.4,76.02,330,4,0,29.67,1.25,M,OVC,M,M,M,800,M,M,-25.13
0CO,1/20/24,7:55:00 AM,-14.8,-20.2,75.83,230,5,0,29.65,2,M,OVC,M,M,M,1000,M,M,-29.18
0CO,1/20/24,8:55:00 AM,-14.8,-18.4,83.23,290,11,0,29.64,3,M,SCT,BKN,OVC,M,1000,2300,2900,-36.68
0CO,1/20/24,9:55:00 AM,-14.8,-18.4,83.23,290,18,0,29.62,2.5,23,OVC,M,M,M,1400,M,M,-41.86
0CO,1/20/24,10:55:00 AM,-13,-18.4,76.02,320,13,0,29.62,2,25,BKN,OVC,M,M,700,1500,M,-36.08
0CO,1/20/24,11:55:00 AM,-16.6,-22,75.63,330,10,0,29.62,1,20,OVC,M,M,M,500,M,M,-37.98
0CO,1/20/24,12:55:00 PM,-16.6,-22,75.63,320,19,0,29.62,1,26,OVC,M,M,M,500,M,M,-44.83
0CO,1/20/24,1:55:00 PM,-16.6,-23.8,68.79,310,17,0,29.64,1,26,OVC,M,M,M,400,M,M,-43.59
0CO,1/20/24,2:55:00 PM,-18.4,-25.6,68.55,350,12,0,29.67,0.25,22,OVC,M,M,M,400,M,M,-42.14
0CO,1/20/24,3:55:00 PM,-20.2,-25.6,75.24,310,23,0,29.67,0.5,28,OVC,M,M,M,600,M,M,-51.85
0CO,1/20/24,4:55:00 PM,-18.4,-25.6,68.55,320,21,0,29.68,0.25,28,BKN,OVC,M,M,400,1000,M,-48.37
0CO,1/20/24,5:55:00 PM,-20.2,-27.4,68.31,360,8,0,29.71,0.25,23,OVC,M,M,M,400,M,M,-40.19
0CO,1/20/24,6:55:00 PM,-22,-27.4,75.04,340,19,0,29.71,0.25,26,OVC,M,M,M,400,M,M,-51.97
0CO,1/20/24,7:55:00 PM,-20.2,-27.4,68.31,320,24,0,29.69,0.5,30,BKN,OVC,M,M,400,1300,M,-52.36
0CO,1/21/24,8:55:00 PM,-18.4,-25.6,68.55,340,19,0,29.68,0.25,32,OVC,M,M,M,200,M,M,-47.21
0CO,1/21/24,9:55:00 PM,-18.4,-25.6,68.55,330,22,0,29.7,0.75,28,SCT,BKN,BKN,M,300,800,1500,-48.91
0CO,1/21/24,10:55:00 PM,-18.4,-25.6,68.55,M,M,0,29.69,0.25,M,BKN,OVC,M,M,100,800,M,M
0CO,1/21/24,11:55:00 PM,-22,-27.4,75.04,320,29,0,29.74,0.5,35,BKN,BKN,M,M,200,900,M,-57.16
0CO,1/21/24,12:55:00 AM,-23.8,-31,67.81,M,M,0,29.77,1,M,BKN,BKN,M,M,100,500,M,M
0CO,1/21/24,1:55:00 AM,-23.8,-29.2,74.83,330,27,0,29.81,1.75,M,VV ,M,M,M,700,M,M,-58.71
0CO,1/21/24,2:55:00 AM,-23.8,-31,67.81,M,M,0,29.82,2.5,M,CLR,M,M,M,M,M,M,M
0CO,1/21/24,3:55:00 AM,-23.8,-31,67.81,M,M,0,29.85,10,M,CLR,M,M,M,M,M,M,M
0CO,1/21/24,4:55:00 AM,-22,-27.4,75.04,310,30,0,29.87,10,M,CLR,M,M,M,M,M,M,-57.59
0CO,1/21/24,5:55:00 AM,-22,-27.4,75.04,300,16,0,29.92,10,25,CLR,M,M,M,M,M,M,-49.97
0CO,1/21/24,6:55:00 AM,-23.8,-31,67.81,M,M,0,29.92,10,M,CLR,M,M,M,M,M,M,M
0CO,1/21/24,7:55:00 AM,-23.8,-31,67.81,M,M,0,29.93,10,M,CLR,M,M,M,M,M,M,M
0CO,1/21/24,8:55:00 AM,-23.8,-29.2,74.83,M,M,0,29.94,10,M,CLR,M,M,M,M,M,M,M
0CO,1/21/24,9:55:00 AM,-22,-27.4,75.04,340,27,0,29.95,7,34,CLR,M,M,M,M,M,M,-56.25
0CO,1/21/24,10:55:00 AM,-20.2,-27.4,68.31,M,M,0,29.97,10,M,CLR,M,M,M,M,M,M,M
0CO,1/21/24,11:55:00 AM,-22,-27.4,75.04,330,28,0,29.97,7,M,CLR,M,M,M,M,M,M,-56.71
0CO,1/21/24,12:55:00 PM,-16.6,-22,75.63,330,26,0,29.98,10,36,CLR,M,M,M,M,M,M,-48.45
0CO,1/21/24,1:55:00 PM,-14.8,-18.4,83.23,320,28,0,30.01,5,37,CLR,M,M,M,M,M,M,-46.87
0CO,1/21/24,2:55:00 PM,-9.4,-14.8,76.4,330,23,0,30.05,7,32,CLR,M,M,M,M,M,M,-37.33
0CO,1/21/24,3:55:00 PM,-9.4,-14.8,76.4,320,27,0,30.06,2.5,39,CLR,M,M,M,M,M,M,-39.08
0CO,1/21/24,4:55:00 PM,-4,-7.6,84.04,310,43,0,30.01,0.5,50,VV ,M,M,M,500,M,M,-36.74
0CO,1/21/24,5:55:00 PM,-7.6,-13,76.59,310,31,0,30.08,7,45,CLR,M,M,M,M,M,M,-38.14
0CO,1/21/24,6:55:00 PM,1.4,-2.2,84.43,300,35,0,30.08,4,50,CLR,M,M,M,M,M,M,-26.95
0CO,1/21/24,7:55:00 PM,5,1.4,84.68,300,38,0,30.03,10,48,SCT,SCT,BKN,M,7500,9000,12000,-22.73
0CO,1/22/24,8:55:00 PM,5,-4,65.62,300,35,0,30,3,52,SCT,M,M,M,12000,M,M,-21.93
0CO,1/22/24,9:55:00 PM,6.8,-9.4,46.52,310,20,0,30.04,7,42,CLR,M,M,M,M,M,M,-14.33
0CO,1/22/24,10:55:00 PM,8.6,-13,35.87,290,30,0,30.01,10,42,SCT,SCT,M,M,6500,11000,M,-15.49
0CO,1/22/24,11:55:00 PM,5,-14.8,38.58,280,29,0,29.98,10,40,OVC,M,M,M,6500,M,M,-20.13
0CO,1/22/24,12:55:00 AM,5,-14.8,38.58,280,24,0,29.96,10,46,BKN,OVC,M,M,6500,7500,M,-18.37
0CO,1/22/24,1:55:00 AM,3.2,-13,45.89,290,34,0,29.93,7,53,OVC,M,M,M,4800,M,M,-24.15
0CO,1/22/24,2:55:00 AM,3.2,-13,45.89,300,30,0,29.93,7,38,BKN,OVC,M,M,3800,4400,M,-22.92
0CO,1/22/24,3:55:00 AM,1.4,-9.4,59.64,290,44,0,29.86,3,52,OVC,M,M,M,3500,M,M,-29.32
0CO,1/22/24,4:55:00 AM,1.4,-7.6,65.13,M,M,0,29.84,1.5,M,OVC,M,M,M,3100,M,M,M
0CO,1/22/24,5:55:00 AM,-0.4,-7.6,70.85,310,44,0,29.84,0.75,M,OVC,M,M,M,2500,M,M,-31.88
0CO,1/22/24,6:55:00 AM,-0.4,-7.6,70.85,M,M,0,29.85,1.5,M,OVC,M,M,M,2300,M,M,M
0CO,1/22/24,7:55:00 AM,-2.2,-7.6,77.14,300,41,0,29.83,1.75,51,OVC,M,M,M,2300,M,M,-33.67
0CO,1/22/24,8:55:00 AM,-4,-7.6,84.04,300,45,0,29.8,2,57,OVC,M,M,M,1900,M,M,-37.25
0CO,1/22/24,9:55:00 AM,-4,-7.6,84.04,320,43,0,29.79,0.75,M,BKN,OVC,M,M,1000,1500,M,-36.74
0CO,1/22/24,10:55:00 AM,-5.8,-9.4,83.91,320,31,0,29.83,0.5,43,BKN,OVC,M,M,600,1200,M,-35.66
0CO,1/22/24,11:55:00 AM,-5.8,-9.4,83.91,M,M,0,29.8,0.5,M,OVC,M,M,M,600,M,M,M
0CO,1/22/24,12:55:00 PM,-5.8,-9.4,83.91,M,M,0,29.79,0.25,M,OVC,M,M,M,400,M,M,M
0CO,1/22/24,1:55:00 PM,-5.8,-11.2,76.77,320,31,0,29.84,0.25,47,OVC,M,M,M,400,M,M,-35.66
0CO,1/22/24,2:55:00 PM,-7.6,-13,76.59,M,M,0,29.82,0.25,M,OVC,M,M,M,400,M,M,M
0CO,1/22/24,3:55:00 PM,-7.6,-13,76.59,330,35,0,29.85,0.25,M,OVC,M,M,M,400,M,M,-39.5
0CO,1/22/24,4:55:00 PM,-7.6,-13,76.59,310,33,0,29.9,0.25,44,OVC,M,M,M,600,M,M,-38.84
0CO,1/22/24,5:55:00 PM,-7.6,-13,76.59,320,33,0,29.91,0.25,M,OVC,M,M,M,400,M,M,-38.84
0CO,1/22/24,6:55:00 PM,-7.6,-13,76.59,310,32,0,29.91,0.5,39,OVC,M,M,M,1000,M,M,-38.49
0CO,1/22/24,7:55:00 PM,-7.6,-13,76.59,330,27,0,29.92,0.25,35,OVC,M,M,M,900,M,M,-36.63
0CO,1/23/24,8:55:00 PM,-9.4,-14.8,76.4,320,27,0,29.94,0.25,38,OVC,M,M,M,400,M,M,-39.08
0CO,1/23/24,9:55:00 PM,-7.6,-13,76.59,330,20,0,29.95,0.25,33,OVC,M,M,M,400,M,M,-33.46
0CO,1/23/24,10:55:00 PM,-7.6,-14.8,69.96,320,26,0,29.96,0.25,36,OVC,M,M,M,600,M,M,-36.22
0CO,1/23/24,11:55:00 PM,-9.4,-14.8,76.4,320,28,0,29.98,0.25,36,OVC,M,M,M,400,M,M,-39.48
0CO,1/23/24,12:55:00 AM,-11.2,-16.6,76.21,320,29,0,29.99,0.75,38,BKN,OVC,M,M,500,900,M,-42.34
0CO,1/23/24,1:55:00 AM,-11.2,-16.6,76.21,330,33,0,29.97,0.75,43,OVC,M,M,M,300,M,M,-43.83
0CO,1/23/24,2:55:00 AM,-13,-16.6,83.37,340,35,0,29.97,1,42,OVC,M,M,M,600,M,M,-47.03
0CO,1/23/24,3:55:00 AM,-11.2,-16.6,76.21,330,16,0,30.01,7,33,BKN,M,M,M,2400,M,M,-35.89
0CO,1/23/24,4:55:00 AM,-11.2,-16.6,76.21,340,20,0,30.02,2,32,OVC,M,M,M,2200,M,M,-38.24
0CO,1/23/24,5:55:00 AM,-9.4,-14.8,76.4,330,14,0,30.04,7,21,BKN,OVC,M,M,2800,3200,M,-32.2
0CO,1/23/24,6:55:00 AM,-11.2,-16.6,76.21,350,15,0,30.05,0.75,21,OVC,M,M,M,200,M,M,-35.22
0CO,1/23/24,7:55:00 AM,-11.2,-16.6,76.21,330,12,0,30.06,2,24,OVC,M,M,M,500,M,M,-32.98
0CO,1/23/24,8:55:00 AM,-11.2,-16.6,76.21,350,15,0,30.05,1,22,BKN,OVC,M,M,300,800,M,-35.22
0CO,1/23/24,9:55:00 AM,-11.2,-16.6,76.21,340,15,0,30.05,1.25,18,OVC,M,M,M,300,M,M,-35.22
0CO,1/23/24,10:55:00 AM,-11.2,-16.6,76.21,330,16,0,30.03,0.25,29,OVC,M,M,M,100,M,M,-35.89
0CO,1/23/24,11:55:00 AM,-11.2,-16.6,76.21,350,12,0,30.06,0.5,24,OVC,M,M,M,300,M,M,-32.98
0CO,1/23/24,12:55:00 PM,-11.2,-16.6,76.21,340,16,0,30.06,0.5,31,OVC,M,M,M,100,M,M,-35.89
0CO,1/23/24,1:55:00 PM,-11.2,-16.6,76.21,340,20,0,30.08,0.5,32,OVC,M,M,M,200,M,M,-38.24
0CO,1/23/24,2:55:00 PM,-11.2,-16.6,76.21,330,24,0,30.08,0.5,33,BKN,BKN,OVC,M,300,700,1200,-40.22
0CO,1/23/24,3:55:00 PM,-11.2,-16.6,76.21,330,23,0,30.1,0.5,31,BKN,BKN,OVC,M,300,800,1300,-39.75
0CO,1/23/24,4:55:00 PM,-9.4,-14.8,76.4,350,15,0,30.12,0.5,27,OVC,M,M,M,300,M,M,-32.89
0CO,1/23/24,5:55:00 PM,-9.4,-14.8,76.4,340,21,0,30.13,0.5,32,BKN,OVC,M,M,300,700,M,-36.36
0CO,1/23/24,6:55:00 PM,-7.6,-13,76.59,350,17,0,30.11,0.25,32,OVC,M,M,M,100,M,M,-31.8
0CO,1/23/24,7:55:00 PM,-7.6,-13,76.59,360,11,0,30.1,0.25,27,OVC,M,M,M,100,M,M,-27.58
0CO,1/24/24,8:55:00 PM,-7.6,-13,76.59,360,12,0,30.09,0.25,32,OVC,M,M,M,100,M,M,-28.4
0CO,1/24/24,9:55:00 PM,-7.6,-13,76.59,30,12,0,30.1,0.5,33,BKN,OVC,M,M,100,700,M,-28.4
0CO,1/24/24,10:55:00 PM,-7.6,-13,76.59,340,22,0,30.11,0.25,31,OVC,M,M,M,100,M,M,-34.45
0CO,1/24/24,11:55:00 PM,-7.6,-13,76.59,340,18,0,30.11,0.25,30,OVC,M,M,M,100,M,M,-32.38
0CO,1/24/24,12:55:00 AM,-9.4,-14.8,76.4,340,20,0,30.1,0.25,31,OVC,M,M,M,100,M,M,-35.85
0CO,1/24/24,1:55:00 AM,-7.6,-13,76.59,360,15,0,30.09,0.5,29,BKN,M,M,M,100,M,M,-30.56
0CO,1/24/24,2:55:00 AM,-7.6,-13,76.59,320,30,0,30.07,10,38,CLR,M,M,M,M,M,M,-37.78
0CO,1/24/24,3:55:00 AM,-5.8,-9.4,83.91,320,35,0,30.06,4,45,CLR,M,M,M,M,M,M,-36.99
0CO,1/24/24,4:55:00 AM,-4,-7.6,84.04,310,40,0,30.04,7,48,OVC,M,M,M,1500,M,M,-35.94
0CO,1/24/24,5:55:00 AM,-4,-7.6,84.04,310,40,0,30.01,10,47,OVC,M,M,M,1300,M,M,-35.94
0CO,1/24/24,6:55:00 AM,-2.2,-5.8,84.17,310,42,0,30,2,54,OVC,M,M,M,1600,M,M,-33.93
0CO,1/24/24,7:55:00 AM,1.4,-2.2,84.43,310,45,0,29.98,1.75,61,VV ,M,M,M,700,M,M,-29.55
0CO,1/24/24,8:55:00 AM,3.2,-0.4,84.56,310,37,0,30.01,10,50,BKN,M,M,M,800,M,M,-24.99
0CO,1/24/24,9:55:00 AM,5,1.4,84.68,310,37,0,30.02,10,47,OVC,M,M,M,800,M,M,-22.47
0CO,1/24/24,10:55:00 AM,6.8,3.2,84.8,300,34,0,30.01,10,42,OVC,M,M,M,800,M,M,-19.14
0CO,1/24/24,11:55:00 AM,8.6,5,84.93,300,38,0,29.97,1.75,59,OVC,M,M,M,800,M,M,-17.67
0CO,1/24/24,12:55:00 PM,8.6,5,84.93,300,43,0,29.95,7,56,SCT,M,M,M,1000,M,M,-18.85
0CO,1/24/24,1:55:00 PM,6.8,3.2,84.8,300,34,0,30,10,49,CLR,M,M,M,M,M,M,-19.14
0CO,1/24/24,2:55:00 PM,8.6,3.2,78.18,290,31,0,29.97,10,41,SCT,SCT,BKN,M,1700,5000,6000,-15.79
0CO,1/24/24,3:55:00 PM,10.4,8.6,92.25,300,32,0,29.95,10,42,CLR,M,M,M,M,M,M,-13.59
0CO,1/24/24,4:55:00 PM,12.2,8.6,85.17,300,24,0,29.96,10,37,SCT,SCT,BKN,M,4700,5000,9000,-8.65
0CO,1/24/24,5:55:00 PM,15.8,8.6,72.73,280,27,0,29.96,10,40,BKN,BKN,M,M,9000,12000,M,-4.74
0CO,1/24/24,6:55:00 PM,14,8.6,78.68,300,22,0,29.94,2,34,BKN,OVC,M,M,1600,2100,M,-5.52
0CO,1/25/24,7:55:00 PM,14,10.4,85.28,M,M,0,29.9,0.25,M,OVC,M,M,M,600,M,M,M
0CO,1/25/24,8:55:00 PM,14,10.4,85.28,280,23,0,29.87,0.5,44,BKN,BKN,OVC,M,600,1000,1400,-5.88
0CO,1/25/24,9:55:00 PM,12.2,10.4,92.32,280,25,0,29.86,0.25,34,OVC,M,M,M,500,M,M,-8.99
0CO,1/25/24,10:55:00 PM,12.2,10.4,92.32,290,20,0,29.87,1,29,OVC,M,M,M,500,M,M,-7.16
0CO,1/25/24,11:55:00 PM,10.4,6.8,85.05,300,15,0,29.88,0.25,25,OVC,M,M,M,300,M,M,-7.22
0CO,1/25/24,12:55:00 AM,10.4,6.8,85.05,290,18,0,29.89,0.75,26,OVC,M,M,M,500,M,M,-8.69
0CO,1/25/24,1:55:00 AM,8.6,5,84.93,280,18,0,29.89,1.25,24,SCT,OVC,M,M,300,700,M,-11.05
0CO,1/25/24,2:55:00 AM,8.6,5,84.93,280,19,0,29.88,1.25,28,SCT,OVC,M,M,200,1000,M,-11.51
0CO,1/25/24,3:55:00 AM,8.6,3.2,78.18,280,19,0,29.88,1.5,27,SCT,BKN,OVC,M,200,600,900,-11.51
0CO,1/25/24,4:55:00 AM,6.8,3.2,84.8,300,15,0,29.88,2.5,29,SCT,BKN,OVC,M,700,1400,2800,-11.89
0CO,1/25/24,5:55:00 AM,6.8,3.2,84.8,280,17,0,29.88,5,23,SCT,BKN,OVC,M,1300,3000,3900,-12.94
0CO,1/25/24,6:55:00 AM,6.8,3.2,84.8,280,13,0,29.87,7,20,SCT,BKN,OVC,M,1600,4700,6500,-10.72
0CO,1/25/24,7:55:00 AM,8.6,3.2,78.18,260,16,0,29.86,2,21,SCT,BKN,OVC,M,400,1500,2000,-10.08
0CO,1/25/24,8:55:00 AM,8.6,5,84.93,260,16,0,29.86,1.25,26,OVC,M,M,M,900,M,M,-10.08
0CO,1/25/24,9:55:00 AM,8.6,5,84.93,240,14,0,29.87,3,M,BKN,OVC,M,M,1300,1800,M,-9
0CO,1/25/24,10:55:00 AM,8.6,5,84.93,230,15,0,29.86,1.5,M,OVC,M,M,M,900,M,M,-9.56
0CO,1/25/24,11:55:00 AM,8.6,6.8,92.19,230,15,0,29.85,2,M,OVC,M,M,M,1000,M,M,-9.56
0CO,1/25/24,12:55:00 PM,8.6,5,84.93,210,10,0,29.84,2.5,M,OVC,M,M,M,1300,M,M,-6.38
0CO,1/25/24,1:55:00 PM,5,1.4,84.68,200,10,0,29.84,0.75,M,OVC,M,M,M,600,M,M,-10.89
0CO,1/25/24,2:55:00 PM,1.4,-4,77.49,160,12,0,29.85,0.75,M,OVC,M,M,M,600,M,M,-16.94
0CO,1/25/24,3:55:00 PM,8.6,5,84.93,210,10,0,29.86,1,19,OVC,M,M,M,800,M,M,-6.38
0CO,1/25/24,4:55:00 PM,6.8,3.2,84.8,200,11,0,29.86,10,19,SCT,SCT,BKN,M,2700,3800,4300,-9.38
0CO,1/25/24,5:55:00 PM,3.2,-0.4,84.56,180,14,0,29.87,1.25,17,BKN,OVC,M,M,3300,3800,M,-15.96
0CO,1/25/24,6:55:00 PM,3.2,-0.4,84.56,180,12,0,29.85,1.5,18,BKN,OVC,M,M,3300,3900,M,-14.65
0CO,1/26/24,7:55:00 PM,10.4,6.8,85.05,210,10,0,29.84,2,22,BKN,OVC,M,M,1400,2200,M,-4.12
0CO,1/26/24,8:55:00 PM,6.8,3.2,84.8,230,10,0,29.84,1.75,M,OVC,M,M,M,1200,M,M,-8.63
0CO,1/26/24,9:55:00 PM,8.6,5,84.93,240,12,0,29.86,7,17,SCT,SCT,OVC,M,900,1400,3300,-7.78
0CO,1/26/24,10:55:00 PM,8.6,3.2,78.18,240,13,0,29.86,4,20,SCT,BKN,OVC,M,1600,2100,2800,-8.41
0CO,1/26/24,11:55:00 PM,8.6,6.8,92.19,280,10,0,29.88,0.75,16,OVC,M,M,M,700,M,M,-6.38
0CO,1/26/24,12:55:00 AM,10.4,6.8,85.05,260,14,0,29.9,1.75,21,OVC,M,M,M,900,M,M,-6.68
0CO,1/26/24,1:55:00 AM,8.6,5,84.93,260,18,0,29.92,1.25,23,OVC,M,M,M,700,M,M,-11.05
0CO,1/26/24,2:55:00 AM,8.6,5,84.93,250,12,0,29.92,3,23,SCT,BKN,OVC,M,700,1800,2300,-7.78
0CO,1/26/24,3:55:00 AM,8.6,5,84.93,270,12,0,29.93,4,24,SCT,BKN,OVC,M,1100,1700,3100,-7.78
0CO,1/26/24,4:55:00 AM,8.6,5,84.93,270,16,0,29.93,10,25,SCT,BKN,OVC,M,1400,7000,8000,-10.08
0CO,1/26/24,5:55:00 AM,8.6,5,84.93,270,11,0,29.94,7,24,BKN,OVC,M,M,900,1600,M,-7.1
0CO,1/26/24,6:55:00 AM,8.6,5,84.93,290,17,0,29.93,3,24,SCT,BKN,OVC,M,700,1100,2500,-10.58
0CO,1/26/24,7:55:00 AM,8.6,5,84.93,300,16,0,29.93,2.5,25,SCT,BKN,OVC,M,200,3800,5500,-10.08
0CO,1/26/24,8:55:00 AM,8.6,5,84.93,280,24,0,29.92,4,35,SCT,BKN,OVC,M,2800,3500,6000,-13.51
0CO,1/26/24,9:55:00 AM,8.6,5,84.93,270,29,0,29.92,3,39,SCT,SCT,OVC,M,3300,4400,5500,-15.19
0CO,1/26/24,10:55:00 AM,8.6,5,84.93,270,31,0,29.91,2,49,SCT,BKN,OVC,M,1700,6000,9000,-15.79
0CO,1/26/24,11:55:00 AM,8.6,5,84.93,280,26,0,29.92,2,43,SCT,BKN,M,M,900,1700,M,-14.21
0CO,1/26/24,12:55:00 PM,6.8,3.2,84.8,280,27,0,29.91,4,42,CLR,M,M,M,M,M,M,-17
0CO,1/26/24,1:55:00 PM,6.8,3.2,84.8,280,31,0,29.93,2.5,44,M,M,M,M,M,M,M,-18.27
0CO,1/26/24,2:55:00 PM,8.6,5,84.93,280,28,0,29.94,2.5,42,M,M,M,M,M,M,M,-14.87
0CO,1/26/24,3:55:00 PM,6.8,3.2,84.8,320,19,0,29.98,0.25,27,OVC,M,M,M,100,M,M,-13.89
0CO,1/26/24,4:55:00 PM,8.6,5,84.93,320,18,0,30.01,0.25,28,OVC,M,M,M,100,M,M,-11.05
0CO,1/26/24,5:55:00 PM,10.4,5,78.35,330,19,0,30.03,0.25,26,OVC,M,M,M,100,M,M,-9.13
0CO,1/26/24,6:55:00 PM,10.4,6.8,85.05,310,23,0,30.02,0.25,31,OVC,M,M,M,100,M,M,-10.72
0CO,1/27/24,7:55:00 PM,10.4,6.8,85.05,310,21,0,30.02,1,27,BKN,OVC,M,M,800,1400,M,-9.96
0CO,1/27/24,8:55:00 PM,10.4,6.8,85.05,320,20,0,30.03,2,28,BKN,OVC,M,M,1500,2100,M,-9.55
0CO,1/27/24,9:55:00 PM,12.2,5,72.33,330,22,0,30.05,5,29,BKN,OVC,M,M,1900,2500,M,-7.93
0CO,1/27/24,10:55:00 PM,10.4,8.6,92.25,310,17,0,30.07,0.25,24,OVC,M,M,M,100,M,M,-8.22
0CO,1/27/24,11:55:00 PM,8.6,5,84.93,290,21,0,30.07,10,26,SCT,M,M,M,100,M,M,-12.36
0CO,1/27/24,12:55:00 AM,8.6,3.2,78.18,310,17,0,30.09,10,22,CLR,M,M,M,M,M,M,-10.58
0CO,1/27/24,1:55:00 AM,6.8,1.4,78.01,300,18,0,30.09,10,M,CLR,M,M,M,M,M,M,-13.42
0CO,1/27/24,2:55:00 AM,6.8,-0.4,71.71,290,15,0,30.1,10,M,CLR,M,M,M,M,M,M,-11.89
0CO,1/27/24,3:55:00 AM,6.8,-0.4,71.71,310,15,0,30.11,10,25,CLR,M,M,M,M,M,M,-11.89
0CO,1/27/24,4:55:00 AM,5,1.4,84.68,330,11,0,30.12,10,20,SCT,SCT,M,M,100,500,M,-11.65
0CO,1/27/24,5:55:00 AM,5,-0.4,77.84,320,16,0,30.13,10,22,CLR,M,M,M,M,M,M,-14.77
0CO,1/27/24,6:55:00 AM,3.2,1.4,91.99,340,15,0,30.14,10,20,CLR,M,M,M,M,M,M,-16.56
0CO,1/27/24,7:55:00 AM,5,-0.4,77.84,330,21,0,30.12,10,25,CLR,M,M,M,M,M,M,-17.16
0CO,1/27/24,8:55:00 AM,5,-0.4,77.84,330,17,0,30.13,10,24,CLR,M,M,M,M,M,M,-15.3
0CO,1/27/24,9:55:00 AM,5,-2.2,71.5,330,17,0,30.13,10,21,CLR,M,M,M,M,M,M,-15.3
0CO,1/27/24,10:55:00 AM,6.8,-4,60.45,320,18,0,30.12,10,M,CLR,M,M,M,M,M,M,-13.42
0CO,1/27/24,11:55:00 AM,8.6,-4,55.73,330,15,0,30.12,10,21,CLR,M,M,M,M,M,M,-9.56
0CO,1/27/24,12:55:00 PM,6.8,-4,60.45,330,18,0,30.12,10,21,CLR,M,M,M,M,M,M,-13.42
0CO,1/27/24,1:55:00 PM,8.6,-4,55.73,340,18,0,30.13,10,23,CLR,M,M,M,M,M,M,-11.05
0CO,1/27/24,2:55:00 PM,8.6,-4,55.73,330,17,0,30.14,10,M,CLR,M,M,M,M,M,M,-10.58
0CO,1/27/24,3:55:00 PM,8.6,-4,55.73,350,14,0,30.15,10,19,CLR,M,M,M,M,M,M,-9
0CO,1/27/24,4:55:00 PM,10.4,-4,51.41,360,9,0,30.17,10,15,CLR,M,M,M,M,M,M,-3.34
0CO,1/27/24,5:55:00 PM,12.2,-2.2,51.71,360,10,0,30.17,10,14,CLR,M,M,M,M,M,M,-1.86
0CO,1/27/24,6:55:00 PM,14,-0.4,52.01,330,8,0,30.15,10,15,CLR,M,M,M,M,M,M,1.94
0CO,1/28/24,7:55:00 PM,15.8,-5.8,37.17,320,10,0,30.13,10,M,CLR,M,M,M,M,M,M,2.65
0CO,1/28/24,8:55:00 PM,15.8,1.4,52.31,330,9,0,30.11,10,M,CLR,M,M,M,M,M,M,3.37
0CO,1/28/24,9:55:00 PM,17.6,1.4,48.39,10,6,0,30.11,10,M,CLR,M,M,M,M,M,M,8.19
0CO,1/28/24,10:55:00 PM,17.6,-4,37.5,160,10,0,30.11,10,14,CLR,M,M,M,M,M,M,4.91
0CO,1/28/24,11:55:00 PM,14,-7.6,36.85,110,5,0,30.11,10,M,CLR,M,M,M,M,M,M,5.02
0CO,1/28/24,12:55:00 AM,12.2,-11.2,33.42,130,11,0,30.11,10,19,CLR,M,M,M,M,M,M,-2.56
0CO,1/28/24,1:55:00 AM,12.2,-13,30.55,120,20,0,30.11,10,M,CLR,M,M,M,M,M,M,-7.16
0CO,1/28/24,2:55:00 AM,10.4,-2.2,56.02,120,16,0,30.12,10,23,CLR,M,M,M,M,M,M,-7.74
0CO,1/28/24,3:55:00 AM,10.4,-4,51.41,140,15,0,30.13,10,M,CLR,M,M,M,M,M,M,-7.22
0CO,1/28/24,4:55:00 AM,12.2,-9.4,36.53,170,14,0,30.14,10,M,CLR,M,M,M,M,M,M,-4.36
0CO,1/28/24,5:55:00 AM,14,-11.2,30.87,170,14,0,30.14,10,M,CLR,M,M,M,M,M,M,-2.04
0CO,1/28/24,6:55:00 AM,14,-9.4,33.74,200,13,0,30.14,10,20,CLR,M,M,M,M,M,M,-1.49
0CO,1/28/24,7:55:00 AM,14,-7.6,36.85,220,6,0,30.13,10,M,CLR,M,M,M,M,M,M,3.85
0CO,1/28/24,8:55:00 AM,12.2,-5.8,43.53,250,15,0,30.11,10,M,CLR,M,M,M,M,M,M,-4.89
0CO,1/28/24,9:55:00 AM,12.2,-5.8,43.53,250,17,0,30.11,10,M,CLR,M,M,M,M,M,M,-5.86
0CO,1/28/24,10:55:00 AM,12.2,-5.8,43.53,280,9,0,30.1,10,15,CLR,M,M,M,M,M,M,-1.11
0CO,1/28/24,11:55:00 AM,12.2,-4,47.46,270,12,0,30.08,10,23,CLR,M,M,M,M,M,M,-3.2
0CO,1/28/24,12:55:00 PM,14,-5.8,40.21,250,15,0,30.08,10,21,CLR,M,M,M,M,M,M,-2.56
0CO,1/28/24,1:55:00 PM,14,-5.8,40.21,250,14,0,30.09,10,18,CLR,M,M,M,M,M,M,-2.04
0CO,1/28/24,2:55:00 PM,14,-4,43.85,250,17,0,30.09,10,M,CLR,M,M,M,M,M,M,-3.51
0CO,1/28/24,3:55:00 PM,17.6,-9.4,28.86,270,8,0,30.11,10,M,CLR,M,M,M,M,M,M,6.37
0CO,1/28/24,4:55:00 PM,17.6,-7.6,31.51,180,7,0,30.13,10,15,CLR,M,M,M,M,M,M,7.23
0CO,1/28/24,5:55:00 PM,19.4,-7.6,29.17,160,12,0,30.13,10,17,CLR,M,M,M,M,M,M,5.97
0CO,1/28/24,6:55:00 PM,21.2,-7.6,27.02,140,9,0,30.11,10,14,CLR,M,M,M,M,M,M,10.08
0CO,1/29/24,7:55:00 PM,19.4,17.6,92.57,340,19,0,30.49,M,25,BKN,M,M,M,100,M,M,2.77
0CO,1/29/24,8:55:00 PM,19.4,19.4,100,330,16,0,30.5,M,26,M,M,M,M,M,M,M,4
0CO,1/29/24,9:55:00 PM,21.2,19.4,92.63,330,16,0.01,30.5,M,23,M,M,M,M,M,M,M,6.34
0CO,1/29/24,10:55:00 PM,21.2,19.4,92.63,340,17,0,30.52,M,23,M,M,M,M,M,M,M,5.93
0CO,1/29/24,11:55:00 PM,19.4,17.6,92.57,340,13,0.05,30.53,M,25,M,M,M,M,M,M,M,5.43
0CO,1/29/24,12:55:00 AM,17.6,14,85.51,350,10,0.01,30.54,M,20,M,M,M,M,M,M,M,4.91
0CO,1/29/24,1:55:00 AM,17.6,14,85.51,350,7,0,30.53,M,20,M,M,M,M,M,M,M,7.23
0CO,1/29/24,2:55:00 AM,17.6,14,85.51,330,10,0,30.52,M,17,M,M,M,M,M,M,M,4.91
0CO,1/29/24,3:55:00 AM,17.6,14,85.51,330,19,0,30.51,M,M,M,M,M,M,M,M,M,0.39
0CO,1/29/24,4:55:00 AM,17.6,14,85.51,340,22,0,30.51,M,27,M,M,M,M,M,M,M,-0.7
0CO,1/29/24,5:55:00 AM,17.6,14,85.51,360,9,0,30.52,M,25,M,M,M,M,M,M,M,5.61
0CO,1/29/24,6:54:00 AM,17.6,15.8,92.5,350,14,0,30.52,M,23,M,M,M,M,M,M,M,2.6
0CO,1/29/24,7:54:00 AM,17.6,15.8,92.5,350,14,0.01,30.5,M,25,M,M,M,M,M,M,M,2.6
0CO,1/29/24,8:54:00 AM,17.6,15.8,92.5,360,7,0,30.51,M,22,OVC,M,M,M,100,M,M,7.23
0CO,1/29/24,9:54:00 AM,17.6,15.8,92.5,360,8,0,30.5,M,24,OVC,M,M,M,100,M,M,6.37
0CO,1/29/24,10:55:00 AM,17.6,15.8,92.5,350,15,0,30.49,M,25,OVC,M,M,M,100,M,M,2.11
0CO,1/29/24,11:54:00 AM,17.6,14,85.51,M,M,0,30.49,M,M,OVC,M,M,M,100,M,M,M
0CO,1/29/24,12:55:00 PM,17.6,14,85.51,M,M,0,30.49,M,M,OVC,M,M,M,100,M,M,M
0CO,1/29/24,1:55:00 PM,17.6,15.8,92.5,340,12,0,30.5,M,22,OVC,M,M,M,100,M,M,3.67
0CO,1/29/24,2:55:00 PM,19.4,17.6,92.57,340,14,0,30.49,M,21,OVC,M,M,M,300,M,M,4.92
0CO,1/29/24,3:55:00 PM,19.4,17.6,92.57,350,9,0,30.51,M,24,OVC,M,M,M,100,M,M,7.85
0CO,1/29/24,4:55:00 PM,19.4,17.6,92.57,360,12,0.01,30.51,M,22,OVC,M,M,M,100,M,M,5.97
0CO,1/29/24,5:55:00 PM,19.4,19.4,100,340,18,0,30.52,M,24,OVC,M,M,M,100,M,M,3.16
0CO,1/29/24,6:55:00 PM,19.4,17.6,92.57,350,11,0,30.49,M,22,OVC,M,M,M,100,M,M,6.54
0CO,1/30/24,7:55:00 PM,21.2,19.4,92.63,330,8,0,30.47,M,21,OVC,M,M,M,100,M,M,10.81
0CO,1/30/24,8:55:00 PM,21.2,19.4,92.63,350,10,0.03,30.47,M,18,OVC,M,M,M,100,M,M,9.42
0CO,1/30/24,9:55:00 PM,21.2,19.4,92.63,330,9,0,30.47,M,14,M,M,M,M,M,M,M,10.08
0CO,1/30/24,10:55:00 PM,23,21.2,92.69,290,5,0.01,30.47,M,M,M,M,M,M,M,M,M,15.71
0CO,1/30/24,11:55:00 PM,21.2,19.4,92.63,230,4,0,30.47,M,M,M,M,M,M,M,M,M,14.81
0CO,1/30/24,12:55:00 AM,19.4,17.6,92.57,240,4,0,30.48,M,M,M,M,M,M,M,M,M,12.71
0CO,1/30/24,1:55:00 AM,19.4,17.6,92.57,280,4,0,30.49,M,M,M,M,M,M,M,M,M,12.71
0CO,1/30/24,2:55:00 AM,19.4,17.6,92.57,240,5,0,30.49,M,M,M,M,M,M,M,M,M,11.43
0CO,1/30/24,3:55:00 AM,19.4,17.6,92.57,230,4,0,30.49,M,M,M,M,M,M,M,M,M,12.71
0CO,1/30/24,4:55:00 AM,19.4,17.6,92.57,280,13,0,30.48,M,M,M,M,M,M,M,M,M,5.43
0CO,1/30/24,5:55:00 AM,19.4,17.6,92.57,300,10,0,30.47,M,M,M,M,M,M,M,M,M,7.17
0CO,1/30/24,6:54:00 AM,19.4,17.6,92.57,300,13,0,30.47,M,M,M,M,M,M,M,M,M,5.43
0CO,1/30/24,7:54:00 AM,17.6,15.8,92.5,310,10,0,30.46,M,M,M,M,M,M,M,M,M,4.91
0CO,1/30/24,8:55:00 AM,17.6,15.8,92.5,310,11,0,30.46,M,M,M,M,M,M,M,M,M,4.27
0CO,1/30/24,9:55:00 AM,17.6,15.8,92.5,330,14,0,30.44,M,20,M,M,M,M,M,M,M,2.6
0CO,1/30/24,10:55:00 AM,17.6,14,85.51,340,17,0,30.43,M,M,M,M,M,M,M,M,M,1.21
0CO,1/30/24,11:55:00 AM,17.6,14,85.51,330,13,0.05,30.43,M,M,M,M,M,M,M,M,M,3.12
0CO,1/30/24,12:55:00 PM,17.6,14,85.51,330,14,0,30.42,M,19,M,M,M,M,M,M,M,2.6
0CO,1/30/24,1:55:00 PM,17.6,14,85.51,340,15,0.01,30.42,M,22,M,M,M,M,M,M,M,2.11
0CO,1/30/24,2:55:00 PM,17.6,14,85.51,340,16,0,30.44,M,23,M,M,M,M,M,M,M,1.65
0CO,1/30/24,3:55:00 PM,19.4,14,79.16,340,14,0.01,30.46,M,22,CLR,M,M,M,M,M,M,4.92
0CO,1/30/24,4:55:00 PM,21.2,12.2,67.73,350,9,0,30.47,M,18,CLR,M,M,M,M,M,M,10.08
0CO,1/30/24,5:55:00 PM,24.8,8.6,49.59,340,7,0,30.47,M,16,CLR,M,M,M,M,M,M,16
0CO,1/30/24,6:55:00 PM,26.6,3.2,35.98,300,7,0,30.46,M,M,CLR,M,M,M,M,M,M,18.2
0CO,1/31/24,7:55:00 PM,26.6,8.6,46.02,310,7,0,30.44,M,M,CLR,M,M,M,M,M,M,18.2
0CO,1/31/24,8:55:00 PM,26.6,12.2,54.03,330,9,0,30.44,M,14,CLR,M,M,M,M,M,M,16.8
0CO,1/31/24,9:55:00 PM,26.6,14,58.49,330,8,0,30.44,M,15,CLR,M,M,M,M,M,M,17.46
0CO,1/31/24,10:55:00 PM,26.6,14,58.49,290,5,0,30.44,M,M,CLR,M,M,M,M,M,M,19.98
0CO,1/31/24,11:55:00 PM,26.6,12.2,54.03,310,5,0,30.43,M,M,CLR,M,M,M,M,M,M,19.98
0CO,1/31/24,12:55:00 AM,26.6,8.6,46.02,140,5,0,30.43,M,M,CLR,M,M,M,M,M,M,19.98
0CO,1/31/24,1:55:00 AM,26.6,1.4,33.09,250,3,0,30.43,M,M,CLR,M,M,M,M,M,M,22.52
0CO,1/31/24,2:55:00 AM,26.6,3.2,35.98,240,11,0,30.44,M,M,CLR,M,M,M,M,M,M,15.64
0CO,1/31/24,3:55:00 AM,24.8,3.2,38.77,250,12,0,30.44,M,M,CLR,M,M,M,M,M,M,12.84
0CO,1/31/24,4:55:00 AM,24.8,5,42.11,290,11,0,30.41,M,M,CLR,M,M,M,M,M,M,13.37
0CO,1/31/24,5:55:00 AM,23,3.2,41.8,300,11,0,30.41,M,17,CLR,M,M,M,M,M,M,11.09
0CO,1/31/24,6:54:00 AM,23,-0.4,35.34,310,9,0,30.41,M,18,CLR,M,M,M,M,M,M,12.32
0CO,1/31/24,7:54:00 AM,21.2,-0.4,38.13,340,15,0,30.4,M,18,CLR,M,M,M,M,M,M,6.78
0CO,1/31/24,8:55:00 AM,21.2,1.4,41.49,310,14,0,30.38,M,M,CLR,M,M,M,M,M,M,7.24
0CO,1/31/24,9:54:00 AM,21.2,3.2,45.1,340,16,0,30.36,M,M,CLR,M,M,M,M,M,M,6.34
0CO,1/31/24,10:55:00 AM,21.2,3.2,45.1,340,16,0,30.36,M,23,CLR,M,M,M,M,M,M,6.34
0CO,1/31/24,11:55:00 AM,19.4,5,52.89,350,12,0,30.35,M,22,CLR,M,M,M,M,M,M,5.97
0CO,1/31/24,12:55:00 PM,19.4,5,52.89,340,18,0,30.34,M,24,CLR,M,M,M,M,M,M,3.16
0CO,1/31/24,1:55:00 PM,19.4,3.2,48.69,320,20,0,30.33,M,25,CLR,M,M,M,M,M,M,2.4
0CO,1/31/24,2:55:00 PM,21.2,3.2,45.1,330,15,0,30.36,M,M,CLR,M,M,M,M,M,M,6.78
0CO,1/31/24,3:55:00 PM,23,3.2,41.8,320,17,0,30.35,M,23,CLR,M,M,M,M,M,M,8.28
0CO,1/31/24,4:55:00 PM,23,5,45.41,340,18,0,30.36,M,22,CLR,M,M,M,M,M,M,7.9
0CO,1/31/24,5:55:00 PM,24.8,5,42.11,330,14,0,30.34,M,23,CLR,M,M,M,M,M,M,11.88
0CO,1/31/24,6:55:00 PM,26.6,8.6,46.02,350,8,0,30.31,M,17,CLR,M,M,M,M,M,M,17.46
0CO,2/1/24,7:55:00 PM,26.6,8.6,46.02,320,6,0,30.29,M,18,CLR,M,M,M,M,M,M,19.03
0CO,2/1/24,8:55:00 PM,24.8,10.4,53.75,350,12,0,30.27,M,23,CLR,M,M,M,M,M,M,12.84
0CO,2/1/24,9:55:00 PM,23,10.4,57.96,340,21,0,30.25,M,24,CLR,M,M,M,M,M,M,6.85
0CO,2/1/24,10:55:00 PM,23,10.4,57.96,360,11,0,30.23,M,17,SCT,SCT,M,M,10000,12000,M,11.09
0CO,2/1/24,11:55:00 PM,21.2,10.4,62.53,350,10,0,30.23,M,20,CLR,M,M,M,M,M,M,9.42
0CO,2/1/24,12:55:00 AM,21.2,8.6,57.69,340,16,0,30.23,M,20,SCT,SCT,M,M,10000,12000,M,6.34
0CO,2/1/24,1:55:00 AM,21.2,8.6,57.69,350,11,0,30.22,M,20,CLR,M,M,M,M,M,M,8.82
0CO,2/1/24,2:55:00 AM,21.2,8.6,57.69,300,3,0,30.22,M,M,BKN,M,M,M,11000,M,M,16.34
0CO,2/1/24,3:55:00 AM,19.4,10.4,67.51,330,5,0,30.2,M,M,SCT,BKN,OVC,M,5000,6000,8500,11.43
0CO,2/1/24,4:55:00 AM,19.4,10.4,67.51,340,15,0,30.19,M,23,SCT,M,M,M,10000,M,M,4.45
0CO,2/1/24,5:55:00 AM,17.6,10.4,72.93,340,5,0,30.19,M,M,CLR,M,M,M,M,M,M,9.29
0CO,2/1/24,6:54:00 AM,19.4,12.2,73.13,340,14,0,30.18,M,19,BKN,OVC,M,M,7000,8000,M,4.92
0CO,2/1/24,7:55:00 AM,17.6,12.2,79,340,16,0,30.16,M,M,SCT,SCT,BKN,M,6000,8000,12000,1.65
0CO,2/1/24,8:55:00 AM,17.6,12.2,79,350,12,0,30.15,M,17,OVC,M,M,M,8000,M,M,3.67
0CO,2/1/24,9:55:00 AM,15.8,12.2,85.4,360,12,0,30.13,M,17,M,M,M,M,M,M,M,1.38
0CO,2/1/24,10:55:00 AM,15.8,12.2,85.4,360,9,0,30.12,M,17,M,M,M,M,M,M,M,3.37
0CO,2/1/24,11:55:00 AM,14,12.2,92.38,10,7,0,30.11,M,18,BKN,M,M,M,9000,M,M,2.84
0CO,2/1/24,12:55:00 PM,14,12.2,92.38,360,8,0,30.1,M,16,M,M,M,M,M,M,M,1.94
0CO,2/1/24,1:55:00 PM,14,12.2,92.38,360,7,0,30.1,M,15,M,M,M,M,M,M,M,2.84
0CO,2/1/24,2:55:00 PM,14,12.2,92.38,360,11,0,30.1,M,19,M,M,M,M,M,M,M,-0.28
0CO,2/1/24,3:55:00 PM,15.8,12.2,85.4,350,12,0,30.09,M,23,M,M,M,M,M,M,M,1.38
0CO,2/1/24,4:55:00 PM,17.6,12.2,79,340,15,0,30.09,M,23,M,M,M,M,M,M,M,2.11
0CO,2/1/24,5:55:00 PM,17.6,12.2,79,320,15,0,30.09,M,23,CLR,M,M,M,M,M,M,2.11
0CO,2/1/24,6:55:00 PM,19.4,10.4,67.51,330,14,0,30.07,M,24,CLR,M,M,M,M,M,M,4.92
0CO,2/2/24,7:55:00 PM,19.4,12.2,73.13,340,12,0,30.06,M,23,CLR,M,M,M,M,M,M,5.97
0CO,2/2/24,8:55:00 PM,21.2,12.2,67.73,310,16,0,30.03,M,21,CLR,M,M,M,M,M,M,6.34
0CO,2/2/24,9:55:00 PM,21.2,12.2,67.73,320,6,0,30.03,M,16,CLR,M,M,M,M,M,M,12.52
0CO,2/2/24,10:55:00 PM,21.2,14,73.32,330,12,0,30.03,M,18,CLR,M,M,M,M,M,M,8.26
0CO,2/2/24,11:55:00 PM,19.4,14,79.16,310,9,0,30.03,M,M,CLR,M,M,M,M,M,M,7.85
0CO,2/2/24,12:55:00 AM,19.4,14,79.16,290,10,0,30.03,M,M,CLR,M,M,M,M,M,M,7.17
0CO,2/2/24,1:55:00 AM,21.2,14,73.32,250,9,0,30.03,M,14,SCT,M,M,M,4700,M,M,10.08
0CO,2/2/24,2:55:00 AM,21.2,12.2,67.73,240,11,0,30.01,M,M,BKN,M,M,M,5000,M,M,8.82
0CO,2/2/24,3:55:00 AM,21.2,12.2,67.73,240,5,0,30,M,M,SCT,M,M,M,5000,M,M,13.57
0CO,2/2/24,4:55:00 AM,21.2,12.2,67.73,170,13,0,29.98,M,17,SCT,M,M,M,7000,M,M,7.73
0CO,2/2/24,5:55:00 AM,21.2,10.4,62.53,170,11,0,29.97,M,17,SCT,M,M,M,8000,M,M,8.82
0CO,2/2/24,6:55:00 AM,19.4,10.4,67.51,170,15,0,29.95,M,23,CLR,M,M,M,M,M,M,4.45
0CO,2/2/24,7:55:00 AM,21.2,12.2,67.73,180,12,0,29.92,M,17,SCT,OVC,M,M,6000,7000,M,8.26
0CO,2/2/24,8:55:00 AM,19.4,10.4,67.51,170,12,0,29.9,M,18,OVC,M,M,M,6000,M,M,5.97
0CO,2/2/24,9:55:00 AM,19.4,12.2,73.13,150,21,0,29.86,M,M,OVC,M,M,M,10000,M,M,2.05
0CO,2/2/24,10:55:00 AM,19.4,14,79.16,140,22,0,29.84,M,M,OVC,M,M,M,10000,M,M,1.71
0CO,2/2/24,11:55:00 AM,19.4,14,79.16,140,21,0,29.84,M,M,SCT,SCT,OVC,M,3700,4400,5000,2.05
0CO,2/2/24,12:55:00 PM,19.4,14,79.16,140,21,0,29.81,M,M,BKN,BKN,OVC,M,3900,4600,7000,2.05
0CO,2/2/24,1:55:00 PM,19.4,15.8,85.63,140,22,0,29.8,M,M,M,M,M,M,M,M,M,1.71
0CO,2/2/24,2:55:00 PM,19.4,15.8,85.63,130,19,0,29.78,M,M,OVC,M,M,M,4400,M,M,2.77
0CO,2/2/24,3:55:00 PM,19.4,17.6,92.57,120,28,0,29.76,M,31,M,M,M,M,M,M,M,-0.11
0CO,2/2/24,4:55:00 PM,19.4,17.6,92.57,120,33,0,29.74,M,40,OVC,M,M,M,200,M,M,-1.38
0CO,2/2/24,5:55:00 PM,19.4,17.6,92.57,130,28,0,29.73,M,40,BKN,BKN,OVC,M,500,1000,11000,-0.11
0CO,2/2/24,6:55:00 PM,21.2,19.4,92.63,130,17,0,29.7,M,24,BKN,OVC,M,M,700,1200,M,5.93
0CO,2/3/24,7:55:00 PM,21.2,17.6,85.74,160,19,0,29.67,M,29,SCT,BKN,OVC,M,700,1400,2300,5.15
0CO,2/3/24,8:55:00 PM,21.2,17.6,85.74,110,12,0,29.64,M,20,M,M,M,M,M,M,M,8.26
0CO,2/3/24,9:55:00 PM,19.4,17.6,92.57,120,18,0,29.63,M,29,BKN,OVC,M,M,600,1500,M,3.16
0CO,2/3/24,10:55:00 PM,19.4,17.6,92.57,130,16,0,29.62,M,22,OVC,M,M,M,200,M,M,4
0CO,2/3/24,11:55:00 PM,19.4,17.6,92.57,120,17,0,29.62,M,26,OVC,M,M,M,200,M,M,3.57
0CO,2/3/24,12:55:00 AM,19.4,17.6,92.57,120,26,0,29.62,M,32,OVC,M,M,M,200,M,M,0.46
0CO,2/3/24,1:55:00 AM,17.6,14,85.51,120,19,0,29.61,M,M,OVC,M,M,M,200,M,M,0.39
0CO,2/3/24,2:55:00 AM,17.6,15.8,92.5,130,22,0,29.6,M,27,OVC,M,M,M,200,M,M,-0.7
0CO,2/3/24,3:55:00 AM,17.6,14,85.51,120,18,0,29.6,M,25,OVC,M,M,M,200,M,M,0.79
0CO,2/3/24,4:55:00 AM,17.6,14,85.51,130,20,0,29.58,M,M,OVC,M,M,M,200,M,M,0.01
0CO,2/3/24,5:55:00 AM,17.6,14,85.51,130,16,0,29.58,M,M,OVC,M,M,M,200,M,M,1.65
0CO,2/3/24,6:55:00 AM,17.6,14,85.51,170,3,0,29.58,M,M,OVC,M,M,M,400,M,M,12.23
0CO,2/3/24,7:55:00 AM,17.6,14,85.51,340,7,0.03,29.57,M,M,OVC,M,M,M,400,M,M,7.23
0CO,2/3/24,8:55:00 AM,17.6,14,85.51,10,3,0.03,29.57,M,M,OVC,M,M,M,200,M,M,12.23
0CO,2/3/24,9:55:00 AM,17.6,14,85.51,280,5,0.04,29.57,M,M,OVC,M,M,M,200,M,M,9.29
0CO,2/3/24,10:55:00 AM,15.8,12.2,85.4,320,11,0,29.55,M,21,OVC,M,M,M,200,M,M,1.99
0CO,2/3/24,11:55:00 AM,14,12.2,92.38,330,19,0.01,29.56,M,31,OVC,M,M,M,200,M,M,-4.37
0CO,2/3/24,12:55:00 PM,14,12.2,92.38,M,M,0,29.56,M,M,OVC,M,M,M,200,M,M,M
0CO,2/3/24,1:55:00 PM,14,12.2,92.38,M,M,0.01,29.56,M,M,OVC,M,M,M,200,M,M,M
0CO,2/3/24,2:55:00 PM,14,12.2,92.38,360,13,0.03,29.57,M,22,OVC,M,M,M,200,M,M,-1.49
0CO,2/3/24,3:55:00 PM,14,10.4,85.28,360,12,0.01,29.55,M,M,OVC,M,M,M,200,M,M,-0.91
0CO,2/3/24,4:55:00 PM,14,10.4,85.28,360,11,0.01,29.55,M,28,OVC,M,M,M,200,M,M,-0.28
0CO,2/3/24,5:55:00 PM,12.2,10.4,92.32,350,20,0.01,29.55,M,34,OVC,M,M,M,200,M,M,-7.16
0CO,2/3/24,6:55:00 PM,12.2,8.6,85.17,330,24,0,29.53,M,36,OVC,M,M,M,200,M,M,-8.65
0CO,2/4/24,7:55:00 PM,12.2,8.6,85.17,340,24,0,29.51,M,41,OVC,M,M,M,200,M,M,-8.65
0CO,2/4/24,8:55:00 PM,10.4,8.6,92.25,340,24,0,29.52,M,34,OVC,M,M,M,200,M,M,-11.08
0CO,2/4/24,9:55:00 PM,10.4,8.6,92.25,360,11,0,29.55,M,32,OVC,M,M,M,200,M,M,-4.83
0CO,2/4/24,10:55:00 PM,10.4,6.8,85.05,330,21,0,29.57,M,30,OVC,M,M,M,200,M,M,-9.96
0CO,2/4/24,11:55:00 PM,8.6,5,84.93,340,16,0,29.6,M,27,OVC,M,M,M,200,M,M,-10.08
0CO,2/4/24,12:55:00 AM,8.6,5,84.93,330,21,0,29.62,M,26,OVC,M,M,M,200,M,M,-12.36
0CO,2/4/24,1:55:00 AM,8.6,5,84.93,350,12,0,29.64,M,26,OVC,M,M,M,200,M,M,-7.78
0CO,2/4/24,2:55:00 AM,8.6,5,84.93,340,20,0,29.66,M,29,OVC,M,M,M,200,M,M,-11.94
0CO,2/4/24,3:55:00 AM,8.6,5,84.93,350,18,0,29.69,M,29,OVC,M,M,M,200,M,M,-11.05
0CO,2/4/24,4:55:00 AM,8.6,5,84.93,340,25,0,29.7,M,29,OVC,M,M,M,200,M,M,-13.87
0CO,2/4/24,5:55:00 AM,8.6,5,84.93,350,14,0,29.72,M,22,OVC,M,M,M,200,M,M,-9
0CO,2/4/24,6:55:00 AM,8.6,5,84.93,350,11,0.02,29.75,M,20,OVC,M,M,M,200,M,M,-7.1
0CO,2/4/24,7:55:00 AM,6.8,3.2,84.8,360,8,0,29.76,M,22,OVC,M,M,M,200,M,M,-6.93
0CO,2/4/24,8:55:00 AM,6.8,3.2,84.8,360,5,0,29.78,M,9,OVC,M,M,M,200,M,M,-3.53
0CO,2/4/24,9:55:00 AM,5,3.2,92.06,350,9,0,29.8,M,17,OVC,M,M,M,200,M,M,-10.06
0CO,2/4/24,10:55:00 AM,5,3.2,92.06,360,7,0,29.82,M,20,OVC,M,M,M,200,M,M,-8.13
0CO,2/4/24,11:55:00 AM,5,1.4,84.68,10,5,0,29.84,M,18,OVC,M,M,M,200,M,M,-5.67
0CO,2/4/24,12:55:00 PM,5,1.4,84.68,10,7,0,29.86,M,M,OVC,M,M,M,200,M,M,-8.13
0CO,2/4/24,1:55:00 PM,5,1.4,84.68,10,6,0,29.89,M,21,OVC,M,M,M,200,M,M,-6.99
0CO,2/4/24,2:55:00 PM,5,1.4,84.68,340,15,0,29.92,M,20,OVC,M,M,M,200,M,M,-14.22
0CO,2/4/24,3:55:00 PM,5,1.4,84.68,340,12,0,29.96,M,16,M,M,M,M,M,M,M,-12.36
0CO,2/4/24,4:55:00 PM,6.8,3.2,84.8,M,M,0,30,M,M,M,M,M,M,M,M,M,M
0CO,2/4/24,5:55:00 PM,8.6,3.2,78.18,340,11,0,30.01,M,15,BKN,BKN,M,M,100,500,M,-7.1
0CO,2/4/24,6:55:00 PM,8.6,5,84.93,340,10,0,30,M,M,M,M,M,M,M,M,M,-6.38
0CO,2/5/24,7:55:00 PM,10.4,8.6,92.25,250,8,0,30,M,M,M,M,M,M,M,M,M,-2.49
0CO,2/5/24,8:55:00 PM,10.4,8.6,92.25,330,8,0,30.01,M,M,M,M,M,M,M,M,M,-2.49
0CO,2/5/24,9:55:00 PM,12.2,10.4,92.32,260,16,0,30.04,M,20,M,M,M,M,M,M,M,-5.39
0CO,2/5/24,10:55:00 PM,12.2,10.4,92.32,230,9,0,30.06,M,M,M,M,M,M,M,M,M,-1.11
0CO,2/5/24,11:55:00 PM,10.4,8.6,92.25,250,14,0.02,30.07,M,19,M,M,M,M,M,M,M,-6.68
0CO,2/5/24,12:55:00 AM,8.6,5,84.93,270,12,0,30.09,M,15,M,M,M,M,M,M,M,-7.78
0CO,2/5/24,1:55:00 AM,8.6,5,84.93,270,10,0,30.11,M,16,M,M,M,M,M,M,M,-6.38
0CO,2/5/24,2:55:00 AM,8.6,3.2,78.18,300,17,0,30.11,M,23,M,M,M,M,M,M,M,-10.58
0CO,2/5/24,3:55:00 AM,8.6,3.2,78.18,330,12,0,30.14,M,21,M,M,M,M,M,M,M,-7.78
0CO,2/5/24,4:55:00 AM,10.4,5,78.35,320,13,0,30.14,M,18,CLR,M,M,M,M,M,M,-6.1
0CO,2/5/24,5:55:00 AM,10.4,-5.8,47.15,320,13,0,30.13,M,21,CLR,M,M,M,M,M,M,-6.1
0CO,2/5/24,6:55:00 AM,14,-5.8,40.21,320,12,0,30.14,M,24,CLR,M,M,M,M,M,M,-0.91
0CO,2/5/24,7:55:00 AM,15.8,-4,40.53,310,13,0,30.13,M,18,CLR,M,M,M,M,M,M,0.81
0CO,2/5/24,8:55:00 AM,19.4,1.4,44.79,290,17,0,30.13,M,M,CLR,M,M,M,M,M,M,3.57
0CO,2/5/24,9:55:00 AM,19.4,6.8,57.41,290,19,0.01,30.12,M,28,CLR,M,M,M,M,M,M,2.77
0CO,2/5/24,10:55:00 AM,19.4,8.6,62.28,300,15,0,30.14,M,27,CLR,M,M,M,M,M,M,4.45
0CO,2/5/24,11:55:00 AM,14,-2.2,47.77,330,15,0,30.13,M,20,CLR,M,M,M,M,M,M,-2.56
0CO,2/5/24,12:55:00 PM,15.8,5,61.77,310,14,0,30.16,M,19,CLR,M,M,M,M,M,M,0.28
0CO,2/5/24,1:55:00 PM,17.6,10.4,72.93,310,15,0,30.17,M,20,CLR,M,M,M,M,M,M,2.11
0CO,2/5/24,2:55:00 PM,21.2,14,73.32,310,16,0,30.19,M,21,CLR,M,M,M,M,M,M,6.34
0CO,2/5/24,3:55:00 PM,21.2,14,73.32,310,11,0,30.2,M,17,CLR,M,M,M,M,M,M,8.82
0CO,2/5/24,4:55:00 PM,23,14,67.96,300,10,0,30.22,M,14,CLR,M,M,M,M,M,M,11.68
0CO,2/5/24,5:55:00 PM,23,14,67.96,290,15,0,30.22,M,23,CLR,M,M,M,M,M,M,9.11
0CO,2/5/24,6:55:00 PM,26.6,14,58.49,280,19,0,30.2,M,28,CLR,M,M,M,M,M,M,12.3
0CO,2/6/24,7:55:00 PM,26.6,14,58.49,270,15,0,30.19,M,24,CLR,M,M,M,M,M,M,13.78
0CO,2/6/24,8:55:00 PM,28.4,14,54.31,260,18,0,30.18,M,31,CLR,M,M,M,M,M,M,15.01
0CO,2/6/24,9:55:00 PM,28.4,14,54.31,260,21,0,30.17,M,31,CLR,M,M,M,M,M,M,14.05
0CO,2/6/24,10:55:00 PM,30.2,12.2,46.62,250,22,0,30.19,M,27,CLR,M,M,M,M,M,M,16.17
0CO,2/6/24,11:55:00 PM,28.4,6.8,39.39,250,14,0,30.2,M,24,SCT,M,M,M,12000,M,M,16.52
0CO,2/6/24,12:55:00 AM,26.6,3.2,35.98,250,16,0,30.2,M,20,CLR,M,M,M,M,M,M,13.38
0CO,2/6/24,1:55:00 AM,26.6,3.2,35.98,240,10,0,30.21,M,16,CLR,M,M,M,M,M,M,16.2
0CO,2/6/24,2:55:00 AM,26.6,-0.4,30.42,240,20,0,30.21,M,28,CLR,M,M,M,M,M,M,11.97
0CO,2/6/24,3:55:00 AM,26.6,1.4,33.09,250,21,0,30.21,M,26,BKN,BKN,M,M,8000,12000,M,11.65
0CO,2/6/24,4:55:00 AM,26.6,1.4,33.09,250,14,0,30.2,M,22,CLR,M,M,M,M,M,M,14.2
0CO,2/6/24,5:55:00 AM,24.8,1.4,35.66,240,8,0,30.21,M,16,CLR,M,M,M,M,M,M,15.24
0CO,2/6/24,6:55:00 AM,24.8,-2.2,30.11,250,18,0,30.2,M,24,CLR,M,M,M,M,M,M,10.27
0CO,2/6/24,7:55:00 AM,26.6,-5.8,23.52,250,17,0,30.19,M,30,CLR,M,M,M,M,M,M,13
0CO,2/6/24,8:55:00 AM,24.8,-5.8,25.34,250,22,0,30.18,M,26,CLR,M,M,M,M,M,M,8.94
0CO,2/6/24,9:55:00 AM,26.6,-7.6,21.55,240,21,0,30.17,M,29,CLR,M,M,M,M,M,M,11.65
0CO,2/6/24,10:55:00 AM,26.6,-7.6,21.55,250,22,0,30.17,M,30,CLR,M,M,M,M,M,M,11.35
0CO,2/6/24,11:55:00 AM,26.6,-5.8,23.52,250,23,0,30.15,M,30,CLR,M,M,M,M,M,M,11.06
0CO,2/6/24,12:55:00 PM,26.6,-4,25.65,250,27,0,30.14,M,32,CLR,M,M,M,M,M,M,9.98
0CO,2/6/24,1:55:00 PM,26.6,-0.4,30.42,250,27,0,30.13,M,34,CLR,M,M,M,M,M,M,9.98
0CO,2/6/24,2:55:00 PM,26.6,5,39.08,250,34,0,30.12,M,41,CLR,M,M,M,M,M,M,8.4
0CO,2/6/24,3:55:00 PM,26.6,8.6,46.02,250,30,0,30.11,M,41,CLR,M,M,M,M,M,M,9.27
0CO,2/6/24,4:55:00 PM,26.6,12.2,54.03,250,23,0,30.11,M,41,CLR,M,M,M,M,M,M,11.06
0CO,2/6/24,5:55:00 PM,26.6,12.2,54.03,260,18,0,30.1,M,37,CLR,M,M,M,M,M,M,12.64
0CO,2/6/24,6:55:00 PM,28.4,14,54.31,260,25,0,30.09,M,40,CLR,M,M,M,M,M,M,12.94
0CO,2/7/24,7:55:00 PM,28.4,14,54.31,240,24,0,30.05,M,35,CLR,M,M,M,M,M,M,13.2
0CO,2/7/24,8:55:00 PM,28.4,14,54.31,240,33,0,30.01,M,48,CLR,M,M,M,M,M,M,11.1
0CO,2/7/24,9:55:00 PM,28.4,12.2,50.17,230,14,0,30.01,M,32,SCT,M,M,M,11000,M,M,16.52
0CO,2/7/24,10:55:00 PM,28.4,12.2,50.17,200,15,0,30,M,27,SCT,OVC,M,M,10000,12000,M,16.11
0CO,2/7/24,11:55:00 PM,26.6,12.2,54.03,170,8,0,29.96,M,29,OVC,M,M,M,10000,M,M,17.46
0CO,2/7/24,12:55:00 AM,24.8,14,63.03,210,13,0,29.96,M,24,SCT,OVC,M,M,7500,10000,M,12.34
0CO,2/7/24,1:55:00 AM,23,12.2,62.78,200,11,0,29.93,M,18,SCT,M,M,M,11000,M,M,11.09
0CO,2/7/24,2:55:00 AM,23,10.4,57.96,210,11,0,29.89,M,22,CLR,M,M,M,M,M,M,11.09
0CO,2/7/24,3:55:00 AM,23,10.4,57.96,230,14,0,29.86,M,30,CLR,M,M,M,M,M,M,9.56
0CO,2/7/24,4:55:00 AM,21.2,12.2,67.73,230,30,0,29.81,M,40,CLR,M,M,M,M,M,M,1.84
0CO,2/7/24,5:55:00 AM,23,14,67.96,230,15,0,29.81,M,31,CLR,M,M,M,M,M,M,9.11
0CO,2/7/24,6:55:00 AM,21.2,14,73.32,220,17,0,29.79,M,32,CLR,M,M,M,M,M,M,5.93
0CO,2/7/24,7:55:00 AM,23,14,67.96,200,15,0,29.79,M,28,CLR,M,M,M,M,M,M,9.11
0CO,2/7/24,8:55:00 AM,21.2,12.2,67.73,200,18,0,29.76,M,26,SCT,M,M,M,2500,M,M,5.53
0CO,2/7/24,9:55:00 AM,19.4,12.2,73.13,230,17,0,29.73,M,30,SCT,M,M,M,2000,M,M,3.57
0CO,2/7/24,10:55:00 AM,19.4,10.4,67.51,250,26,0,29.7,M,34,CLR,M,M,M,M,M,M,0.46
0CO,2/7/24,11:55:00 AM,19.4,5,52.89,250,23,0,29.69,M,34,CLR,M,M,M,M,M,M,1.38
0CO,2/7/24,12:55:00 PM,17.6,5,57.14,260,19,0,29.66,M,29,CLR,M,M,M,M,M,M,0.39
0CO,2/7/24,1:55:00 PM,17.6,5,57.14,250,20,0,29.65,M,29,CLR,M,M,M,M,M,M,0.01
0CO,2/7/24,2:55:00 PM,17.6,5,57.14,270,18,0,29.62,M,30,BKN,M,M,M,8500,M,M,0.79
0CO,2/7/24,3:55:00 PM,17.6,8.6,67.28,270,14,0,29.62,M,21,SCT,BKN,OVC,M,4800,5500,7000,2.6
0CO,2/7/24,4:55:00 PM,17.6,8.6,67.28,270,21,0,29.62,M,30,BKN,BKN,OVC,M,2300,3600,4900,-0.35
0CO,2/7/24,5:55:00 PM,17.6,6.8,62.02,270,20,0,29.58,M,29,SCT,SCT,SCT,M,4800,8000,9000,0.01
0CO,2/7/24,6:55:00 PM,15.8,10.4,78.84,250,32,0,29.56,M,38,SCT,SCT,BKN,M,500,1900,4400,-6.12
0CO,2/8/24,7:55:00 PM,15.8,8.6,72.73,250,16,0,29.53,M,22,SCT,SCT,SCT,M,1400,2000,3600,-0.7
0CO,2/8/24,8:55:00 PM,14,8.6,78.68,290,26,0,29.47,M,32,SCT,SCT,BKN,M,1700,4700,8500,-6.88
0CO,2/8/24,9:55:00 PM,14,5,66.82,300,20,0,29.48,M,30,SCT,BKN,OVC,M,1900,6000,8500,-4.77
0CO,2/8/24,10:55:00 PM,14,5,66.82,300,26,0,29.48,M,33,SCT,SCT,M,M,2100,3700,M,-6.88
0CO,2/8/24,11:55:00 PM,10.4,6.8,85.05,350,18,0,29.49,M,M,M,M,M,M,M,M,M,-8.69
0CO,2/8/24,12:55:00 AM,10.4,6.8,85.05,320,22,0,29.49,M,35,M,M,M,M,M,M,M,-10.35
0CO,2/8/24,1:55:00 AM,8.6,5,84.93,310,27,0,29.48,M,37,BKN,BKN,OVC,M,700,1600,4200,-14.55
0CO,2/8/24,2:55:00 AM,8.6,5,84.93,320,26,0,29.49,M,34,BKN,BKN,OVC,M,100,1000,1700,-14.21
0CO,2/8/24,3:55:00 AM,8.6,5,84.93,340,26,0,29.48,M,37,BKN,BKN,OVC,M,200,700,1100,-14.21
0CO,2/8/24,4:55:00 AM,8.6,5,84.93,320,22,0,29.49,M,M,M,M,M,M,M,M,M,-12.76
0CO,2/8/24,5:55:00 AM,8.6,5,84.93,M,M,0,29.49,M,M,OVC,M,M,M,200,M,M,M
0CO,2/8/24,6:55:00 AM,8.6,5,84.93,320,24,0,29.5,M,36,OVC,M,M,M,400,M,M,-13.51
0CO,2/8/24,7:55:00 AM,8.6,5,84.93,M,M,0,29.51,M,M,BKN,OVC,M,M,700,1500,M,M
0CO,2/8/24,8:55:00 AM,8.6,5,84.93,300,30,0,29.51,M,48,OVC,M,M,M,500,M,M,-15.49
0CO,2/8/24,9:55:00 AM,8.6,5,84.93,310,32,0,29.5,M,44,OVC,M,M,M,300,M,M,-16.08
0CO,2/8/24,10:55:00 AM,8.6,5,84.93,M,M,0,29.54,M,M,OVC,M,M,M,300,M,M,M
0CO,2/8/24,11:55:00 AM,8.6,5,84.93,M,M,0,29.58,M,M,OVC,M,M,M,300,M,M,M
0CO,2/8/24,12:55:00 PM,8.6,5,84.93,310,36,0,29.57,M,M,OVC,M,M,M,300,M,M,-17.17
0CO,2/8/24,1:55:00 PM,8.6,5,84.93,M,M,0,29.57,M,M,OVC,M,M,M,300,M,M,M
0CO,2/8/24,2:55:00 PM,8.6,5,84.93,M,M,0,29.64,M,M,OVC,M,M,M,100,M,M,M
0CO,2/8/24,3:55:00 PM,8.6,5,84.93,310,30,0,29.65,M,M,BKN,BKN,OVC,M,500,1200,3000,-15.49
0CO,2/8/24,4:55:00 PM,6.8,3.2,84.8,300,35,0,29.66,M,45,BKN,BKN,OVC,M,700,1300,1800,-19.42
0CO,2/8/24,5:55:00 PM,8.6,5,84.93,300,30,0,29.68,M,M,M,M,M,M,M,M,M,-15.49
0CO,2/8/24,6:55:00 PM,8.6,3.2,78.18,300,36,0,29.69,M,45,M,M,M,M,M,M,M,-17.17
0CO,2/9/24,7:55:00 PM,8.6,5,84.93,300,25,0,29.67,M,42,BKN,OVC,M,M,1500,2400,M,-13.87
0CO,2/9/24,8:55:00 PM,10.4,6.8,85.05,310,25,0,29.68,M,31,M,M,M,M,M,M,M,-11.43
0CO,2/9/24,9:55:00 PM,8.6,3.2,78.18,320,18,0,29.69,M,27,M,M,M,M,M,M,M,-11.05
0CO,2/9/24,10:55:00 PM,6.8,3.2,84.8,310,18,0,29.7,M,24,M,M,M,M,M,M,M,-13.42
0CO,2/9/24,11:55:00 PM,6.8,3.2,84.8,310,19,0,29.71,M,25,M,M,M,M,M,M,M,-13.89
0CO,2/9/24,12:55:00 AM,5,1.4,84.68,310,18,0,29.74,M,M,M,M,M,M,M,M,M,-15.79
0CO,2/9/24,1:55:00 AM,5,1.4,84.68,290,13,0,29.76,M,M,M,M,M,M,M,M,M,-13.02
0CO,2/9/24,2:55:00 AM,5,1.4,84.68,290,14,0,29.76,M,M,SCT,M,M,M,1800,M,M,-13.64
0CO,2/9/24,3:55:00 AM,5,-0.4,77.84,300,13,0,29.75,M,M,CLR,M,M,M,M,M,M,-13.02
0CO,2/9/24,4:55:00 AM,3.2,1.4,91.99,340,9,0,29.75,M,M,BKN,M,M,M,100,M,M,-12.3
0CO,2/9/24,1:55:00 PM,5,-0.4,77.84,240,10,0,29.71,M,M,OVC,M,M,M,8000,M,M,-10.89
0CO,2/9/24,2:55:00 PM,5,-0.4,77.84,330,4,0,29.72,M,M,BKN,BKN,OVC,M,1500,2300,3000,-4.11
0CO,2/9/24,3:55:00 PM,5,1.4,84.68,350,5,0,29.74,M,M,M,M,M,M,M,M,M,-5.67
0CO,2/9/24,4:55:00 PM,5,1.4,84.68,320,4,0,29.75,M,M,M,M,M,M,M,M,M,-4.11
0CO,2/9/24,5:55:00 PM,6.8,3.2,84.8,310,5,0,29.77,M,M,M,M,M,M,M,M,M,-3.53
0CO,2/9/24,6:55:00 PM,8.6,5,84.93,10,4,0,29.77,M,M,BKN,BKN,OVC,M,100,500,2200,0.09
0CO,2/10/24,7:55:00 PM,8.6,5,84.93,340,8,0.01,29.76,M,M,BKN,OVC,M,M,100,700,M,-4.71
0CO,2/10/24,8:55:00 PM,8.6,3.2,78.18,330,7,0,29.76,M,M,BKN,BKN,OVC,M,100,500,2200,-3.74
0CO,2/10/24,9:55:00 PM,8.6,5,84.93,330,7,0,29.75,M,M,OVC,M,M,M,100,M,M,-3.74
0CO,2/10/24,10:55:00 PM,8.6,5,84.93,10,4,0,29.76,M,M,BKN,BKN,OVC,M,100,800,1600,0.09
0CO,2/10/24,11:55:00 PM,6.8,3.2,84.8,300,4,0,29.77,M,M,M,M,M,M,M,M,M,-2.01
0CO,2/10/24,12:55:00 AM,5,3.2,92.06,330,10,0,29.78,M,M,BKN,BKN,OVC,M,500,1000,4300,-10.89
0CO,2/10/24,1:55:00 AM,5,3.2,92.06,310,5,0,29.8,M,M,M,M,M,M,M,M,M,-5.67
0CO,2/10/24,2:55:00 AM,5,1.4,84.68,330,8,0,29.79,M,M,OVC,M,M,M,100,M,M,-9.15
0CO,2/10/24,3:55:00 AM,5,1.4,84.68,350,7,0,29.8,M,M,OVC,M,M,M,100,M,M,-8.13
0CO,2/10/24,4:55:00 AM,5,1.4,84.68,340,7,0,29.81,M,M,OVC,M,M,M,100,M,M,-8.13
0CO,2/10/24,5:55:00 AM,3.2,-0.4,84.56,320,8,0,29.79,M,M,M,M,M,M,M,M,M,-11.36
0CO,2/10/24,6:55:00 AM,3.2,1.4,91.99,180,9,0,29.8,M,M,BKN,M,M,M,1800,M,M,-12.3
0CO,2/10/24,7:55:00 AM,3.2,1.4,91.99,170,7,0,29.78,M,14,M,M,M,M,M,M,M,-10.33
0CO,2/10/24,8:55:00 AM,3.2,-0.4,84.56,130,14,0,29.78,M,M,BKN,BKN,OVC,M,600,1500,4300,-15.96
0CO,2/10/24,9:55:00 AM,3.2,1.4,91.99,140,18,0,29.77,M,22,OVC,M,M,M,200,M,M,-18.16
0CO,2/10/24,10:55:00 AM,3.2,-0.4,84.56,160,15,0,29.76,M,21,OVC,M,M,M,200,M,M,-16.56
0CO,2/10/24,11:55:00 AM,3.2,-0.4,84.56,170,13,0,29.75,M,19,M,M,M,M,M,M,M,-15.33
0CO,2/10/24,12:55:00 PM,3.2,-0.4,84.56,130,15,0,29.76,M,M,BKN,OVC,M,M,100,600,M,-16.56
0CO,2/10/24,1:55:00 PM,3.2,-0.4,84.56,120,19,0,29.75,M,M,OVC,M,M,M,100,M,M,-18.65
0CO,2/10/24,2:55:00 PM,3.2,-0.4,84.56,120,15,0,29.77,M,M,M,M,M,M,M,M,M,-16.56
0CO,2/10/24,3:55:00 PM,3.2,-0.4,84.56,130,17,0,29.78,M,20,BKN,OVC,M,M,300,900,M,-17.65
0CO,2/10/24,4:55:00 PM,3.2,-0.4,84.56,120,13,0,29.78,M,M,OVC,M,M,M,100,M,M,-15.33
0CO,2/10/24,5:55:00 PM,5,1.4,84.68,130,11,0,29.78,M,18,BKN,OVC,M,M,200,800,M,-11.65
0CO,2/10/24,6:55:00 PM,5,3.2,92.06,130,13,0,29.76,M,19,BKN,OVC,M,M,200,800,M,-13.02
0CO,2/11/24,7:55:00 PM,5,1.4,84.68,110,13,0,29.74,M,22,BKN,OVC,M,M,200,700,M,-13.02
0CO,2/11/24,8:55:00 PM,5,1.4,84.68,110,11,0,29.73,M,22,BKN,BKN,OVC,M,200,600,900,-11.65
0CO,2/11/24,9:55:00 PM,5,1.4,84.68,120,15,0,29.74,M,21,BKN,OVC,M,M,200,800,M,-14.22
0CO,2/11/24,10:55:00 PM,5,1.4,84.68,120,18,0,29.75,M,M,OVC,M,M,M,200,M,M,-15.79
0CO,2/11/24,11:55:00 PM,3.2,1.4,91.99,120,18,0,29.76,M,M,BKN,OVC,M,M,200,500,M,-18.16
0CO,2/11/24,12:55:00 AM,3.2,-0.4,84.56,130,14,0,29.78,M,M,BKN,OVC,M,M,200,800,M,-15.96
0CO,2/11/24,1:55:00 AM,1.4,-4,77.49,140,11,0,29.8,M,M,M,M,M,M,M,M,M,-16.2
0CO,2/11/24,2:55:00 AM,1.4,-4,77.49,180,8,0,29.81,M,M,M,M,M,M,M,M,M,-13.58
0CO,2/11/24,3:55:00 AM,1.4,-4,77.49,340,3,0,29.82,M,M,M,M,M,M,M,M,M,-6.29
0CO,2/11/24,4:55:00 AM,1.4,-4,77.49,360,6,0,29.82,M,M,OVC,M,M,M,500,M,M,-11.32
0CO,2/11/24,5:55:00 AM,1.4,-4,77.49,360,5,0,29.83,M,M,BKN,OVC,M,M,100,900,M,-9.95
0CO,2/11/24,6:55:00 AM,-0.4,-4,84.3,360,6,0,29.84,M,M,OVC,M,M,M,100,M,M,-13.49
0CO,2/11/24,7:55:00 AM,-0.4,-4,84.3,340,8,0,29.84,M,20,OVC,M,M,M,100,M,M,-15.8
0CO,2/11/24,8:55:00 AM,-0.4,-4,84.3,360,8,0,29.84,M,14,OVC,M,M,M,100,M,M,-15.8
0CO,2/11/24,9:55:00 AM,-0.4,-4,84.3,360,6,0,29.84,M,M,OVC,M,M,M,100,M,M,-13.49
0CO,2/11/24,10:55:00 AM,-2.2,-7.6,77.14,340,19,0,29.82,M,22,OVC,M,M,M,100,M,M,-25.79
0CO,2/11/24,11:55:00 AM,-4,-7.6,84.04,330,21,0,29.81,M,27,OVC,M,M,M,100,M,M,-29.16
0CO,2/11/24,12:55:00 PM,-4,-7.6,84.04,330,19,0,29.83,M,24,OVC,M,M,M,100,M,M,-28.17
0CO,2/11/24,1:55:00 PM,-4,-7.6,84.04,350,15,0,29.86,M,25,OVC,M,M,M,100,M,M,-25.89
0CO,2/11/24,2:55:00 PM,-4,-7.6,84.04,350,9,0,29.89,M,16,OVC,M,M,M,100,M,M,-21.25
0CO,2/11/24,3:55:00 PM,-4,-7.6,84.04,360,4,0.01,29.9,M,M,OVC,M,M,M,100,M,M,-14.62
0CO,2/11/24,4:55:00 PM,-4,-7.6,84.04,340,10,0,29.92,M,M,OVC,M,M,M,100,M,M,-22.18
0CO,2/11/24,5:55:00 PM,-0.4,-5.8,77.32,350,13,0,29.93,M,25,OVC,M,M,M,100,M,M,-19.94
0CO,2/11/24,6:55:00 PM,1.4,-4,77.49,350,15,0,29.92,M,22,M,M,M,M,M,M,M,-18.89
0CO,2/12/24,7:55:00 PM,1.4,-2.2,84.43,360,11,0.01,29.91,M,21,M,M,M,M,M,M,M,-16.2
0CO,2/12/24,8:55:00 PM,3.2,-0.4,84.56,10,9,0,29.92,M,20,M,M,M,M,M,M,M,-12.3
0CO,2/12/24,9:55:00 PM,3.2,-0.4,84.56,350,14,0,29.94,M,23,M,M,M,M,M,M,M,-15.96
0CO,2/12/24,10:55:00 PM,3.2,1.4,91.99,10,8,0,29.95,M,20,M,M,M,M,M,M,M,-11.36
0CO,2/12/24,11:55:00 PM,3.2,-0.4,84.56,360,8,0,29.96,M,17,M,M,M,M,M,M,M,-11.36
0CO,2/12/24,12:55:00 AM,1.4,-4,77.49,360,7,0,29.97,M,M,M,M,M,M,M,M,M,-12.52
0CO,2/12/24,1:55:00 AM,1.4,-4,77.49,10,9,0,30,M,14,M,M,M,M,M,M,M,-14.54
0CO,2/12/24,2:55:00 AM,1.4,-4,77.49,20,7,0,30,M,M,M,M,M,M,M,M,M,-12.52
0CO,2/12/24,3:55:00 AM,1.4,-4,77.49,360,10,0,30,M,17,M,M,M,M,M,M,M,-15.4
0CO,2/12/24,4:55:00 AM,1.4,-4,77.49,350,9,0,30.01,M,16,M,M,M,M,M,M,M,-14.54
0CO,2/12/24,5:55:00 AM,3.2,-0.4,84.56,330,15,0,30,M,18,M,M,M,M,M,M,M,-16.56
0CO,2/12/24,6:55:00 AM,5,1.4,84.68,360,7,0,30.01,M,17,OVC,M,M,M,200,M,M,-8.13
0CO,2/12/24,7:55:00 AM,5,1.4,84.68,360,6,0,30.01,M,15,OVC,M,M,M,200,M,M,-6.99
0CO,2/12/24,8:55:00 AM,6.8,3.2,84.8,340,19,0,30,M,26,M,M,M,M,M,M,M,-13.89
0CO,2/12/24,9:55:00 AM,3.2,-0.4,84.56,330,23,0,29.99,M,28,BKN,M,M,M,11000,M,M,-20.4
0CO,2/12/24,10:55:00 AM,8.6,5,84.93,350,15,0,29.99,M,28,OVC,M,M,M,100,M,M,-9.56
0CO,2/12/24,11:55:00 AM,5,3.2,92.06,350,11,0,30,M,19,BKN,OVC,M,M,100,700,M,-11.65
0CO,2/12/24,12:55:00 PM,5,3.2,92.06,330,22,0,30,M,27,OVC,M,M,M,300,M,M,-17.58
0CO,2/12/24,1:55:00 PM,8.6,3.2,78.18,350,12,0,30,M,20,OVC,M,M,M,100,M,M,-7.78
0CO,2/12/24,2:55:00 PM,6.8,3.2,84.8,330,17,0,30.01,M,23,OVC,M,M,M,100,M,M,-12.94
0CO,2/12/24,3:55:00 PM,10.4,6.8,85.05,330,17,0,30.02,M,M,OVC,M,M,M,300,M,M,-8.22
0CO,2/12/24,4:55:00 PM,10.4,8.6,92.25,320,17,0,30.03,M,M,OVC,M,M,M,100,M,M,-8.22
0CO,2/12/24,5:55:00 PM,10.4,8.6,92.25,320,20,0,30.03,M,M,BKN,OVC,M,M,100,600,M,-9.55
0CO,2/12/24,6:55:00 PM,10.4,8.6,92.25,340,19,0,30.01,M,27,OVC,M,M,M,100,M,M,-9.13
0CO,2/13/24,7:55:00 PM,12.2,8.6,85.17,340,19,0,29.98,M,33,OVC,M,M,M,100,M,M,-6.75
0CO,2/13/24,8:55:00 PM,12.2,10.4,92.32,310,29,0,29.96,M,37,BKN,BKN,OVC,M,100,500,1100,-10.25
0CO,2/13/24,9:55:00 PM,12.2,10.4,92.32,310,30,0,29.95,M,36,OVC,M,M,M,1300,M,M,-10.54
0CO,2/13/24,10:55:00 PM,12.2,10.4,92.32,320,27,0,29.93,M,45,BKN,M,M,M,1300,M,M,-9.64
0CO,2/13/24,11:55:00 PM,12.2,8.6,85.17,310,25,0,29.95,M,38,BKN,BKN,M,M,1400,2000,M,-8.99
0CO,2/13/24,12:55:00 AM,10.4,8.6,92.25,290,41,0,29.92,M,50,M,M,M,M,M,M,M,-15.85
0CO,2/13/24,1:55:00 AM,10.4,8.6,92.25,300,34,0,29.94,M,47,M,M,M,M,M,M,M,-14.13
0CO,2/13/24,2:55:00 AM,10.4,8.6,92.25,300,36,0,29.94,M,47,M,M,M,M,M,M,M,-14.65
0CO,2/13/24,3:55:00 AM,10.4,6.8,85.05,310,43,0,29.91,M,50,M,M,M,M,M,M,M,-16.29
0CO,2/13/24,4:55:00 AM,8.6,3.2,78.18,320,29,0,29.94,M,41,M,M,M,M,M,M,M,-15.19
0CO,2/13/24,5:55:00 AM,8.6,3.2,78.18,320,27,0,29.95,M,39,M,M,M,M,M,M,M,-14.55
0CO,2/13/24,6:55:00 AM,8.6,5,84.93,320,26,0,29.96,M,35,OVC,M,M,M,200,M,M,-14.21
0CO,2/13/24,7:55:00 AM,8.6,5,84.93,320,26,0,29.95,M,44,OVC,M,M,M,200,M,M,-14.21
0CO,2/13/24,8:55:00 AM,8.6,5,84.93,310,28,0,29.95,M,39,M,M,M,M,M,M,M,-14.87
0CO,2/13/24,9:55:00 AM,6.8,3.2,84.8,310,34,0,29.89,M,49,M,M,M,M,M,M,M,-19.14
0CO,2/13/24,10:55:00 AM,5,3.2,92.06,310,31,0,29.91,M,42,M,M,M,M,M,M,M,-20.76
0CO,2/13/24,11:55:00 AM,5,1.4,84.68,320,30,0,29.93,M,38,M,M,M,M,M,M,M,-20.45
0CO,2/13/24,12:55:00 PM,5,1.4,84.68,320,26,0,29.93,M,36,M,M,M,M,M,M,M,-19.1
0CO,2/13/24,1:55:00 PM,5,1.4,84.68,320,29,0,29.93,M,37,M,M,M,M,M,M,M,-20.13
0CO,2/13/24,2:55:00 PM,5,1.4,84.68,320,24,0,29.95,M,33,M,M,M,M,M,M,M,-18.37
0CO,2/13/24,3:55:00 PM,6.8,3.2,84.8,320,25,0,29.97,M,31,M,M,M,M,M,M,M,-16.3
0CO,2/13/24,4:55:00 PM,8.6,5,84.93,310,23,0,29.98,M,29,M,M,M,M,M,M,M,-13.14
0CO,2/13/24,5:55:00 PM,12.2,3.2,66.58,310,18,0,30,M,32,CLR,M,M,M,M,M,M,-6.32
0CO,2/13/24,6:55:00 PM,14,1.4,56.58,290,25,0,29.97,M,33,CLR,M,M,M,M,M,M,-6.56
0CO,2/14/24,7:55:00 PM,15.8,3.2,56.86,270,21,0,29.97,M,32,CLR,M,M,M,M,M,M,-2.75
0CO,2/14/24,8:55:00 PM,15.8,3.2,56.86,290,21,0,29.96,M,32,CLR,M,M,M,M,M,M,-2.75
0CO,2/14/24,9:55:00 PM,15.8,1.4,52.31,300,21,0,29.96,M,27,CLR,M,M,M,M,M,M,-2.75
0CO,2/14/24,10:55:00 PM,15.8,-0.4,48.08,290,15,0,29.98,M,24,CLR,M,M,M,M,M,M,-0.22
0CO,2/14/24,11:55:00 PM,14,-0.4,52.01,310,13,0,29.98,M,18,CLR,M,M,M,M,M,M,-1.49
0CO,2/14/24,12:55:00 AM,12.2,-0.4,56.3,250,10,0,30,M,M,CLR,M,M,M,M,M,M,-1.86
0CO,2/14/24,1:55:00 AM,14,-2.2,47.77,200,4,0,29.99,M,M,CLR,M,M,M,M,M,M,6.4
0CO,2/14/24,2:55:00 AM,14,-0.4,52.01,200,6,0,29.98,M,M,M,M,M,M,M,M,M,3.85
0CO,2/14/24,3:55:00 AM,12.2,-0.4,56.3,250,18,0,29.97,M,21,CLR,M,M,M,M,M,M,-6.32
0CO,2/14/24,4:55:00 AM,10.4,-4,51.41,250,16,0,29.96,M,22,CLR,M,M,M,M,M,M,-7.74
0CO,2/14/24,5:55:00 AM,12.2,-4,47.46,290,18,0,29.94,M,22,CLR,M,M,M,M,M,M,-6.32
0CO,2/14/24,6:55:00 AM,10.4,-2.2,56.02,290,19,0,29.93,M,30,CLR,M,M,M,M,M,M,-9.13
0CO,2/14/24,8:55:00 AM,12.2,1.4,61.25,280,20,0,29.9,M,45,SCT,M,M,M,2900,M,M,-7.16
0CO,2/14/24,9:55:00 AM,12.2,3.2,66.58,280,36,0,29.86,M,43,SCT,SCT,M,M,2500,3000,M,-12.14
0CO,2/14/24,10:55:00 AM,10.4,5,78.35,290,35,0,29.84,M,53,OVC,M,M,M,2900,M,M,-14.4
0CO,2/14/24,11:55:00 AM,12.2,5,72.33,290,31,0,29.84,M,46,SCT,BKN,OVC,M,1800,2400,2900,-10.83
0CO,2/14/24,12:55:00 PM,12.2,5,72.33,280,27,0,29.85,M,45,SCT,M,M,M,2600,M,M,-9.64
0CO,2/14/24,1:55:00 PM,12.2,5,72.33,280,25,0,29.86,M,54,SCT,M,M,M,2200,M,M,-8.99
0CO,2/14/24,2:55:00 PM,10.4,6.8,85.05,290,30,0,29.86,M,39,BKN,BKN,OVC,M,700,1300,2400,-13.02
0CO,2/14/24,3:55:00 PM,10.4,8.6,92.25,300,34,0,29.85,M,48,BKN,OVC,M,M,200,700,M,-14.13
0CO,2/14/24,4:55:00 PM,10.4,6.8,85.05,300,29,0,29.88,M,46,OVC,M,M,M,700,M,M,-12.72
0CO,2/14/24,5:55:00 PM,12.2,5,72.33,290,26,0,29.89,M,52,SCT,BKN,OVC,M,700,1500,3200,-9.32
0CO,2/14/24,6:55:00 PM,12.2,8.6,85.17,300,19,0,29.91,M,32,SCT,BKN,OVC,M,300,700,1100,-6.75
0CO,2/15/24,7:55:00 PM,12.2,8.6,85.17,300,20,0,29.91,M,28,BKN,OVC,M,M,900,1300,M,-7.16
0CO,2/15/24,8:55:00 PM,12.2,8.6,85.17,290,22,0,29.91,M,29,M,M,M,M,M,M,M,-7.93
0CO,2/15/24,9:55:00 PM,12.2,8.6,85.17,300,18,0,29.94,M,33,SCT,BKN,OVC,M,200,800,1100,-6.32
0CO,2/15/24,10:55:00 PM,12.2,8.6,85.17,290,20,0,29.96,M,34,BKN,BKN,OVC,M,1000,1900,2700,-7.16
0CO,2/15/24,11:55:00 PM,10.4,8.6,92.25,290,14,0,30,M,26,M,M,M,M,M,M,M,-6.68
0CO,2/15/24,12:55:00 AM,10.4,6.8,85.05,290,16,0,30.03,M,26,M,M,M,M,M,M,M,-7.74
0CO,2/15/24,1:55:00 AM,10.4,6.8,85.05,300,20,0,30.04,M,29,M,M,M,M,M,M,M,-9.55
0CO,2/15/24,2:55:00 AM,10.4,5,78.35,320,17,0,30.05,M,27,M,M,M,M,M,M,M,-8.22
0CO,2/15/24,3:55:00 AM,10.4,5,78.35,300,27,0,30.03,M,38,BKN,BKN,OVC,M,1700,6500,11000,-12.1
0CO,2/15/24,4:55:00 AM,10.4,5,78.35,310,20,0,30.05,M,29,SCT,BKN,OVC,M,1800,4400,9000,-9.55
0CO,2/15/24,5:55:00 AM,10.4,6.8,85.05,310,20,0,30.05,M,29,BKN,BKN,OVC,M,1500,2100,2900,-9.55
0CO,2/15/24,6:55:00 AM,10.4,8.6,92.25,310,16,0,30.05,M,24,M,M,M,M,M,M,M,-7.74
0CO,2/15/24,7:55:00 AM,10.4,6.8,85.05,320,18,0,30.03,M,29,M,M,M,M,M,M,M,-8.69
0CO,2/15/24,8:55:00 AM,10.4,3.2,72.12,300,27,0,30.03,M,35,CLR,M,M,M,M,M,M,-12.1
0CO,2/15/24,9:55:00 AM,12.2,5,72.33,310,20,0,30.03,M,38,CLR,M,M,M,M,M,M,-7.16
0CO,2/15/24,10:55:00 AM,12.2,5,72.33,290,20,0,30.03,M,M,CLR,M,M,M,M,M,M,-7.16
0CO,2/15/24,11:55:00 AM,12.2,5,72.33,290,28,0,30.03,M,41,CLR,M,M,M,M,M,M,-9.95
0CO,2/15/24,12:55:00 PM,12.2,5,72.33,300,28,0,30.03,M,38,CLR,M,M,M,M,M,M,-9.95
0CO,2/15/24,1:55:00 PM,12.2,5,72.33,320,19,0,30.04,M,39,SCT,M,M,M,12000,M,M,-6.75
0CO,2/15/24,2:55:00 PM,14,5,66.82,290,24,0,30.03,M,34,SCT,SCT,SCT,M,3500,4100,11000,-6.22
0CO,2/15/24,3:55:00 PM,17.6,8.6,67.28,290,25,0,30.02,M,43,CLR,M,M,M,M,M,M,-1.68
0CO,2/15/24,4:55:00 PM,17.6,8.6,67.28,280,27,0,30.01,M,50,CLR,M,M,M,M,M,M,-2.28
0CO,2/15/24,5:55:00 PM,17.6,8.6,67.28,290,43,0,29.98,M,47,M,M,M,M,M,M,M,-6.07
0CO,2/15/24,6:55:00 PM,17.6,8.6,67.28,290,29,0,29.98,M,42,SCT,BKN,OVC,M,1500,2200,3700,-2.84
0CO,2/16/24,7:55:00 PM,19.4,10.4,67.51,280,24,0,29.94,M,37,SCT,BKN,OVC,M,2000,2800,3900,1.06
0CO,2/16/24,8:55:00 PM,17.6,12.2,79,280,30,0,29.94,M,39,SCT,BKN,OVC,M,1300,2600,3200,-3.11
0CO,2/16/24,9:55:00 PM,17.6,8.6,67.28,280,21,0,29.95,M,43,SCT,BKN,OVC,M,1500,2200,4300,-0.35
0CO,2/16/24,10:55:00 PM,15.8,10.4,78.84,290,20,0,29.94,M,30,BKN,OVC,M,M,1200,1900,M,-2.38
0CO,2/16/24,11:55:00 PM,14,12.2,92.38,310,19,0,29.93,M,27,BKN,OVC,M,M,600,1200,M,-4.37
0CO,2/16/24,12:55:00 AM,14,10.4,85.28,290,28,0,29.93,M,39,BKN,OVC,M,M,700,1400,M,-7.49
0CO,2/16/24,1:55:00 AM,12.2,10.4,92.32,290,31,0,29.95,M,43,OVC,M,M,M,300,M,M,-10.83
0CO,2/16/24,2:55:00 AM,12.2,10.4,92.32,330,21,0,29.97,M,33,BKN,OVC,M,M,300,1000,M,-7.55
0CO,2/16/24,3:55:00 AM,10.4,8.6,92.25,10,9,0,29.99,M,28,OVC,M,M,M,200,M,M,-3.34
0CO,2/16/24,4:55:00 AM,10.4,6.8,85.05,320,24,0,29.97,M,29,BKN,OVC,M,M,200,600,M,-11.08
0CO,2/16/24,5:55:00 AM,8.6,5,84.93,340,24,0,29.98,M,31,OVC,M,M,M,200,M,M,-13.51
0CO,2/16/24,6:55:00 AM,8.6,5,84.93,320,21,0,29.96,M,28,BKN,BKN,OVC,M,200,800,1200,-12.36
0CO,2/16/24,7:55:00 AM,8.6,5,84.93,330,21,0,29.97,M,30,OVC,M,M,M,200,M,M,-12.36
0CO,2/16/24,8:55:00 AM,6.8,3.2,84.8,320,22,0,29.96,M,27,OVC,M,M,M,200,M,M,-15.17
0CO,2/16/24,9:55:00 AM,6.8,3.2,84.8,340,18,0,29.96,M,30,OVC,M,M,M,200,M,M,-13.42
0CO,2/16/24,10:55:00 AM,6.8,3.2,84.8,330,13,0,29.95,M,M,BKN,OVC,M,M,200,900,M,-10.72
0CO,2/16/24,11:55:00 AM,6.8,3.2,84.8,310,18,0,29.95,M,24,BKN,OVC,M,M,300,1200,M,-13.42
0CO,2/16/24,12:55:00 PM,5,3.2,92.06,320,16,0,29.96,M,27,M,M,M,M,M,M,M,-14.77
0CO,2/16/24,1:55:00 PM,5,3.2,92.06,300,20,0,29.96,M,25,M,M,M,M,M,M,M,-16.72
0CO,2/16/24,2:55:00 PM,5,3.2,92.06,310,16,0,29.97,M,23,M,M,M,M,M,M,M,-14.77
0CO,2/16/24,3:55:00 PM,6.8,3.2,84.8,310,17,0,29.98,M,23,M,M,M,M,M,M,M,-12.94
0CO,2/16/24,4:55:00 PM,8.6,5,84.93,310,16,0,29.98,M,20,M,M,M,M,M,M,M,-10.08
0CO,2/16/24,5:55:00 PM,8.6,5,84.93,300,20,0,29.97,M,25,M,M,M,M,M,M,M,-11.94
0CO,2/16/24,6:55:00 PM,10.4,6.8,85.05,290,20,0,29.96,M,25,M,M,M,M,M,M,M,-9.55
0CO,2/17/24,7:55:00 PM,10.4,8.6,92.25,320,13,0,29.96,M,18,M,M,M,M,M,M,M,-6.1
0CO,2/17/24,8:55:00 PM,10.4,6.8,85.05,290,23,0,29.94,M,28,OVC,M,M,M,800,M,M,-10.72
0CO,2/17/24,9:55:00 PM,10.4,8.6,92.25,290,18,0,29.95,M,M,BKN,OVC,M,M,600,1100,M,-8.69
0CO,2/17/24,10:55:00 PM,10.4,8.6,92.25,310,21,0,29.95,M,27,OVC,M,M,M,400,M,M,-9.96
0CO,2/17/24,11:55:00 PM,10.4,8.6,92.25,300,16,0,29.96,M,22,BKN,OVC,M,M,900,1500,M,-7.74
0CO,2/17/24,12:55:00 AM,10.4,8.6,92.25,260,14,0,29.96,M,30,M,M,M,M,M,M,M,-6.68
0CO,2/17/24,1:55:00 AM,10.4,8.6,92.25,350,6,0,29.97,M,M,OVC,M,M,M,200,M,M,-0.48
0CO,2/17/24,2:55:00 AM,10.4,6.8,85.05,320,17,0,29.96,M,22,OVC,M,M,M,200,M,M,-8.22
0CO,2/17/24,3:55:00 AM,8.6,3.2,78.18,310,25,0,29.97,M,37,OVC,M,M,M,200,M,M,-13.87
0CO,2/17/24,4:55:00 AM,5,1.4,84.68,330,24,0,29.97,M,33,BKN,OVC,M,M,200,600,M,-18.37
0CO,2/17/24,5:55:00 AM,3.2,-0.4,84.56,330,25,0,29.97,M,33,M,M,M,M,M,M,M,-21.18
0CO,2/17/24,6:55:00 AM,3.2,-0.4,84.56,300,25,0,29.96,M,34,M,M,M,M,M,M,M,-21.18
0CO,2/17/24,7:55:00 AM,3.2,-0.4,84.56,310,18,0,29.98,M,23,M,M,M,M,M,M,M,-18.16
0CO,2/17/24,8:55:00 AM,1.4,-2.2,84.43,310,19,0,29.97,M,22,M,M,M,M,M,M,M,-21.03
0CO,2/17/24,9:55:00 AM,1.4,-4,77.49,310,16,0,29.97,M,M,OVC,M,M,M,6500,M,M,-19.47
0CO,2/17/24,10:55:00 AM,-0.4,-4,84.3,320,17,0,29.97,M,M,M,M,M,M,M,M,M,-22.37
0CO,2/17/24,11:55:00 AM,-2.2,-5.8,84.17,340,14,0,29.98,M,20,BKN,M,M,M,100,M,M,-22.92
0CO,2/17/24,12:55:00 PM,-4,-7.6,84.04,350,14,0,30,M,25,OVC,M,M,M,100,M,M,-25.24
0CO,2/17/24,1:55:00 PM,-4,-7.6,84.04,330,16,0,30,M,23,OVC,M,M,M,100,M,M,-26.5
0CO,2/17/24,2:55:00 PM,-2.2,-5.8,84.17,350,12,0,30.03,M,21,BKN,M,M,M,100,M,M,-21.53
0CO,2/17/24,3:55:00 PM,-0.4,-5.8,77.32,360,8,0,30.06,M,M,OVC,M,M,M,100,M,M,-15.8
0CO,2/17/24,4:55:00 PM,1.4,-4,77.49,350,14,0,30.07,M,20,M,M,M,M,M,M,M,-18.28
0CO,2/17/24,5:55:00 PM,1.4,-2.2,84.43,360,10,0,30.09,M,19,M,M,M,M,M,M,M,-15.4
0CO,2/17/24,6:55:00 PM,5,1.4,84.68,340,11,0,30.1,M,16,M,M,M,M,M,M,M,-11.65
0CO,2/18/24,7:55:00 PM,5,1.4,84.68,340,10,0,30.1,M,18,M,M,M,M,M,M,M,-10.89
0CO,2/18/24,8:55:00 PM,5,1.4,84.68,360,8,0,30.1,M,18,M,M,M,M,M,M,M,-9.15
0CO,2/18/24,9:55:00 PM,5,3.2,92.06,350,10,0,30.11,M,15,M,M,M,M,M,M,M,-10.89
0CO,2/18/24,10:55:00 PM,6.8,3.2,84.8,350,10,0,30.11,M,15,M,M,M,M,M,M,M,-8.63
0CO,2/18/24,11:55:00 PM,5,1.4,84.68,340,14,0,30.1,M,M,M,M,M,M,M,M,M,-13.64
0CO,2/18/24,12:55:00 AM,5,1.4,84.68,330,12,0,30.1,M,M,M,M,M,M,M,M,M,-12.36
0CO,2/18/24,1:55:00 AM,3.2,-0.4,84.56,350,7,0,30.11,M,M,M,M,M,M,M,M,M,-10.33
0CO,2/18/24,2:55:00 AM,3.2,-0.4,84.56,350,6,0,30.12,M,M,CLR,M,M,M,M,M,M,-9.16
0CO,2/18/24,3:55:00 AM,12.2,-31,11.88,10,5,0,30.12,M,M,CLR,M,M,M,M,M,M,2.88
0CO,2/18/24,4:55:00 AM,14,-32.8,9.94,340,7,0,30.11,M,M,CLR,M,M,M,M,M,M,2.84
0CO,2/18/24,5:55:00 AM,8.6,-23.8,20.57,350,10,0,30.12,M,M,CLR,M,M,M,M,M,M,-6.38
0CO,2/18/24,6:55:00 AM,5,-18.4,32.11,350,13,0,30.12,M,19,CLR,M,M,M,M,M,M,-13.02
0CO,2/18/24,7:55:00 AM,10.4,-27.4,15.66,330,14,0,30.1,M,M,CLR,M,M,M,M,M,M,-6.68
0CO,2/18/24,8:55:00 AM,12.2,-31,11.88,330,14,0,30.08,M,M,CLR,M,M,M,M,M,M,-4.36
0CO,2/18/24,9:55:00 AM,14,-32.8,9.94,340,12,0,30.07,M,M,CLR,M,M,M,M,M,M,-0.91
0CO,2/18/24,10:55:00 AM,14,-32.8,9.94,340,11,0,30.05,M,M,CLR,M,M,M,M,M,M,-0.28
0CO,2/18/24,11:55:00 AM,12.2,-34.6,9.73,340,14,0,30.04,M,M,CLR,M,M,M,M,M,M,-4.36
0CO,2/18/24,12:55:00 PM,12.2,-34.6,9.73,330,10,0,30.03,M,M,CLR,M,M,M,M,M,M,-1.86
0CO,2/18/24,1:55:00 PM,14,-32.8,9.94,320,7,0,30.03,M,11,CLR,M,M,M,M,M,M,2.84
0CO,2/18/24,2:55:00 PM,14,-29.2,12.11,320,13,0,30.03,M,18,CLR,M,M,M,M,M,M,-1.49
0CO,2/18/24,3:55:00 PM,14,-22,17.8,330,11,0,30.02,M,18,CLR,M,M,M,M,M,M,-0.28
0CO,2/18/24,4:55:00 PM,14,-14.8,25.78,320,16,0,30,M,23,CLR,M,M,M,M,M,M,-3.04
0CO,2/18/24,5:55:00 PM,12.2,-0.4,56.3,310,22,0,29.96,M,33,SCT,BKN,OVC,M,1400,3900,8500,-7.93
0CO,2/18/24,6:55:00 PM,14,8.6,78.68,300,28,0,29.95,M,37,BKN,M,M,M,900,M,M,-7.49
0CO,2/19/24,7:55:00 PM,15.8,12.2,85.4,310,22,0,29.93,M,28,BKN,BKN,OVC,M,1400,1800,3300,-3.11
0CO,2/19/24,8:55:00 PM,14,12.2,92.38,300,21,0,29.91,M,26,OVC,M,M,M,1300,M,M,-5.15
0CO,2/19/24,9:55:00 PM,14,12.2,92.38,310,23,0,29.91,M,34,M,M,M,M,M,M,M,-5.88
0CO,2/19/24,10:55:00 PM,14,12.2,92.38,300,28,0,29.87,M,35,M,M,M,M,M,M,M,-7.49
0CO,2/19/24,11:55:00 PM,14,12.2,92.38,300,25,0,29.88,M,39,BKN,BKN,OVC,M,500,1000,1300,-6.56
0CO,2/19/24,12:55:00 AM,14,12.2,92.38,310,27,0,29.88,M,43,M,M,M,M,M,M,M,-7.19
0CO,2/19/24,1:55:00 AM,12.2,10.4,92.32,300,28,0,29.88,M,M,OVC,M,M,M,100,M,M,-9.95
0CO,2/19/24,2:55:00 AM,12.2,10.4,92.32,M,M,0,29.85,M,M,M,M,M,M,M,M,M,M
0CO,2/19/24,3:55:00 AM,12.2,8.6,85.17,300,31,0,29.88,M,50,BKN,OVC,M,M,400,1000,M,-10.83
0CO,2/19/24,4:55:00 AM,10.4,6.8,85.05,M,M,0,29.9,M,M,OVC,M,M,M,200,M,M,M
0CO,2/19/24,5:55:00 AM,8.6,5,84.93,340,28,0,29.93,M,40,OVC,M,M,M,200,M,M,-14.87
0CO,2/19/24,6:55:00 AM,8.6,5,84.93,M,M,0,29.92,M,M,OVC,M,M,M,200,M,M,M
0CO,2/19/24,7:55:00 AM,8.6,5,84.93,300,35,0,29.93,M,43,BKN,OVC,M,M,200,900,M,-16.91
0CO,2/19/24,8:55:00 AM,8.6,5,84.93,310,26,0,29.98,M,M,M,M,M,M,M,M,M,-14.21
0CO,2/19/24,9:55:00 AM,8.6,5,84.93,310,30,0,29.97,M,39,BKN,OVC,M,M,400,1100,M,-15.49
0CO,2/19/24,10:55:00 AM,8.6,5,84.93,290,35,0,29.96,M,46,M,M,M,M,M,M,M,-16.91
0CO,2/19/24,11:55:00 AM,8.6,5,84.93,290,31,0,30,M,38,M,M,M,M,M,M,M,-15.79
0CO,2/19/24,12:55:00 PM,8.6,5,84.93,280,27,0,30.04,M,36,M,M,M,M,M,M,M,-14.55
0CO,2/19/24,1:55:00 PM,10.4,3.2,72.12,290,22,0,30.08,M,M,CLR,M,M,M,M,M,M,-10.35
0CO,2/19/24,2:55:00 PM,14,-2.2,47.77,290,32,0,30.08,M,48,CLR,M,M,M,M,M,M,-8.61
0CO,2/19/24,3:55:00 PM,15.8,-4,40.53,300,32,0,30.1,M,48,CLR,M,M,M,M,M,M,-6.12
0CO,2/19/24,4:55:00 PM,15.8,-0.4,48.08,300,29,0,30.12,M,38,CLR,M,M,M,M,M,M,-5.31
0CO,2/19/24,5:55:00 PM,17.6,1.4,48.39,310,28,0,30.13,M,35,CLR,M,M,M,M,M,M,-2.57
0CO,2/19/24,6:55:00 PM,19.4,-0.4,41.17,310,28,0,30.13,M,37,CLR,M,M,M,M,M,M,-0.11
0CO,2/20/24,7:55:00 PM,19.4,-0.4,41.17,310,30,0,30.1,M,38,CLR,M,M,M,M,M,M,-0.64
0CO,2/20/24,8:55:00 PM,19.4,-0.4,41.17,310,27,0,30.12,M,36,CLR,M,M,M,M,M,M,0.17
0CO,2/20/24,9:55:00 PM,21.2,-0.4,38.13,300,31,0,30.12,M,38,CLR,M,M,M,M,M,M,1.59
0CO,2/20/24,10:55:00 PM,21.2,3.2,45.1,320,23,0,30.15,M,32,SCT,M,M,M,10000,M,M,3.8
0CO,2/20/24,11:55:00 PM,19.4,3.2,48.69,320,23,0,30.15,M,28,CLR,M,M,M,M,M,M,1.38
0CO,2/20/24,12:55:00 AM,19.4,-0.4,41.17,300,24,0,30.17,M,27,CLR,M,M,M,M,M,M,1.06
0CO,2/20/24,1:55:00 AM,21.2,-5.8,29.48,290,27,0,30.19,M,40,SCT,M,M,M,12000,M,M,2.62
0CO,2/20/24,2:55:00 AM,19.4,-4,34.71,290,34,0,30.16,M,43,CLR,M,M,M,M,M,M,-1.62
0CO,2/20/24,3:55:00 AM,19.4,3.2,48.69,290,26,0,30.19,M,38,CLR,M,M,M,M,M,M,0.46
0CO,2/20/24,4:55:00 AM,17.6,5,57.14,310,23,0,30.2,M,29,CLR,M,M,M,M,M,M,-1.04
0CO,2/20/24,5:55:00 AM,19.4,10.4,67.51,300,22,0,30.2,M,31,SCT,M,M,M,2700,M,M,1.71
0CO,2/20/24,6:55:00 AM,19.4,12.2,73.13,270,28,0,30.19,M,42,CLR,M,M,M,M,M,M,-0.11
0CO,2/20/24,7:55:00 AM,21.2,10.4,62.53,290,21,0,30.21,M,44,SCT,BKN,M,M,4700,5000,M,4.45
0CO,2/20/24,8:55:00 AM,19.4,10.4,67.51,280,22,0,30.2,M,29,OVC,M,M,M,5000,M,M,1.71
0CO,2/20/24,9:55:00 AM,19.4,12.2,73.13,290,25,0,30.2,M,33,SCT,SCT,OVC,M,2600,3300,5000,0.75
0CO,2/20/24,10:55:00 AM,19.4,12.2,73.13,300,26,0,30.19,M,35,SCT,SCT,SCT,M,2200,2800,4300,0.46
0CO,2/20/24,11:55:00 AM,19.4,14,79.16,280,25,0,30.2,M,37,BKN,BKN,OVC,M,1900,2700,4500,0.75
0CO,2/20/24,12:55:00 PM,19.4,14,79.16,290,23,0,30.22,M,35,BKN,BKN,OVC,M,1800,2300,5000,1.38
0CO,2/20/24,1:55:00 PM,19.4,15.8,85.63,290,16,0,30.23,M,23,BKN,OVC,M,M,1300,2200,M,4
0CO,2/20/24,2:55:00 PM,19.4,14,79.16,300,19,0,30.25,M,29,SCT,BKN,OVC,M,1000,1800,5000,2.77
0CO,2/20/24,3:55:00 PM,21.2,15.8,79.31,280,20,0,30.26,M,32,SCT,BKN,OVC,M,800,1300,2400,4.79
0CO,2/20/24,4:55:00 PM,21.2,17.6,85.74,270,18,0,30.27,M,25,M,M,M,M,M,M,M,5.53
0CO,2/20/24,5:55:00 PM,23,15.8,73.51,270,29,0,30.27,M,37,SCT,BKN,OVC,M,800,1900,7000,4.56
0CO,2/20/24,6:55:00 PM,24.8,14,63.03,260,19,0,30.26,M,37,SCT,SCT,BKN,M,2500,3000,4200,9.92
0CO,2/21/24,7:55:00 PM,24.8,14,63.03,260,20,0,30.24,M,34,BKN,OVC,M,M,2800,3800,M,9.58
0CO,2/21/24,8:55:00 PM,24.8,14,63.03,260,19,0,30.24,M,34,BKN,BKN,OVC,M,2700,3600,4200,9.92
0CO,2/21/24,9:55:00 PM,24.8,15.8,68.18,250,24,0,30.23,M,30,BKN,BKN,OVC,M,2100,2800,3300,8.35
0CO,2/21/24,10:55:00 PM,21.2,19.4,92.63,240,12,0,30.24,M,17,OVC,M,M,M,200,M,M,8.26
0CO,2/21/24,11:55:00 PM,21.2,17.6,85.74,260,19,0,30.24,M,27,M,M,M,M,M,M,M,5.15
0CO,2/21/24,12:55:00 AM,21.2,17.6,85.74,270,25,0,30.22,M,39,M,M,M,M,M,M,M,3.19
0CO,2/21/24,1:55:00 AM,21.2,17.6,85.74,280,27,0,30.22,M,40,M,M,M,M,M,M,M,2.62
0CO,2/21/24,2:55:00 AM,21.2,15.8,79.31,280,19,0,30.24,M,35,SCT,BKN,OVC,M,1800,3900,6500,5.15
0CO,2/21/24,3:55:00 AM,21.2,15.8,79.31,270,18,0,30.24,M,31,SCT,BKN,OVC,M,1500,2700,5000,5.53
0CO,2/21/24,4:55:00 AM,21.2,14,73.32,280,25,0,30.22,M,34,OVC,M,M,M,9000,M,M,3.19
0CO,2/21/24,5:55:00 AM,19.4,15.8,85.63,290,12,0,30.22,M,M,M,M,M,M,M,M,M,5.97
0CO,2/21/24,6:55:00 AM,19.4,14,79.16,280,23,0,30.19,M,39,SCT,BKN,OVC,M,3500,4500,5000,1.38
0CO,2/21/24,7:55:00 AM,19.4,12.2,73.13,290,21,0,30.15,M,35,SCT,SCT,OVC,M,2300,2800,6000,2.05
0CO,2/21/24,8:55:00 AM,19.4,12.2,73.13,280,22,0,30.14,M,35,SCT,BKN,OVC,M,2000,2500,6000,1.71
0CO,2/21/24,9:55:00 AM,19.4,10.4,67.51,280,33,0,30.09,M,44,SCT,BKN,BKN,M,3100,6500,12000,-1.38
0CO,2/21/24,10:55:00 AM,19.4,10.4,67.51,270,25,0,30.1,M,37,SCT,SCT,OVC,M,5000,7500,9000,0.75
0CO,2/21/24,11:55:00 AM,19.4,6.8,57.41,260,23,0,30.09,M,40,OVC,M,M,M,9000,M,M,1.38
0CO,2/21/24,12:55:00 PM,19.4,3.2,48.69,250,18,0,30.09,M,29,CLR,M,M,M,M,M,M,3.16
0CO,2/21/24,1:55:00 PM,19.4,-0.4,41.17,270,19,0,30.08,M,32,CLR,M,M,M,M,M,M,2.77
0CO,2/21/24,2:55:00 PM,19.4,-4,34.71,280,20,0,30.08,M,35,CLR,M,M,M,M,M,M,2.4
0CO,2/21/24,3:55:00 PM,19.4,-4,34.71,280,22,0,30.07,M,41,CLR,M,M,M,M,M,M,1.71
0CO,2/21/24,4:55:00 PM,21.2,-2.2,35.03,240,21,0,30.07,M,26,CLR,M,M,M,M,M,M,4.45
0CO,2/21/24,5:55:00 PM,21.2,-2.2,35.03,270,24,0,30.03,M,42,CLR,M,M,M,M,M,M,3.49
0CO,2/21/24,6:55:00 PM,23,1.4,38.45,260,23,0,30.01,M,37,CLR,M,M,M,M,M,M,6.22
0CO,2/22/24,7:55:00 PM,23,1.4,38.45,280,25,0,29.98,M,48,CLR,M,M,M,M,M,M,5.63
0CO,2/22/24,8:55:00 PM,21.2,-0.4,38.13,290,21,0,29.97,M,33,OVC,M,M,M,6500,M,M,4.45
0CO,2/22/24,9:55:00 PM,21.2,-0.4,38.13,280,21,0,29.96,M,33,BKN,BKN,M,M,5500,7500,M,4.45
0CO,2/22/24,10:55:00 PM,19.4,-0.4,41.17,280,18,0,29.97,M,29,SCT,BKN,BKN,M,6000,7000,10000,3.16
0CO,2/22/24,11:55:00 PM,17.6,10.4,72.93,350,10,0,30,M,27,BKN,BKN,OVC,M,3500,4100,5000,4.91
0CO,2/22/24,12:55:00 AM,14,10.4,85.28,320,17,0,30,M,M,M,M,M,M,M,M,M,-3.51
0CO,2/22/24,1:55:00 AM,12.2,10.4,92.32,340,20,0,30.01,M,26,OVC,M,M,M,400,M,M,-7.16
0CO,2/22/24,2:55:00 AM,12.2,8.6,85.17,320,17,0,30.02,M,M,M,M,M,M,M,M,M,-5.86
0CO,2/22/24,3:55:00 AM,12.2,8.6,85.17,320,14,0,30.03,M,18,M,M,M,M,M,M,M,-4.36
0CO,2/22/24,4:55:00 AM,12.2,8.6,85.17,310,13,0,30.05,M,M,BKN,M,M,M,2800,M,M,-3.8
0CO,2/22/24,5:55:00 AM,12.2,6.8,78.51,280,16,0,30.04,M,22,SCT,SCT,M,M,2300,3300,M,-5.39
0CO,2/22/24,6:55:00 AM,12.2,6.8,78.51,310,16,0,30.02,M,26,SCT,SCT,M,M,2100,2800,M,-5.39
0CO,2/22/24,7:55:00 AM,12.2,5,72.33,310,18,0,30.01,M,25,CLR,M,M,M,M,M,M,-6.32
0CO,2/22/24,8:55:00 AM,12.2,8.6,85.17,310,19,0,30,M,27,M,M,M,M,M,M,M,-6.75
0CO,2/22/24,9:55:00 AM,12.2,10.4,92.32,320,15,0,30.02,M,M,OVC,M,M,M,300,M,M,-4.89
0CO,2/22/24,10:55:00 AM,12.2,10.4,92.32,310,17,0,30.01,M,25,BKN,BKN,OVC,M,100,800,2200,-5.86
0CO,2/22/24,11:55:00 AM,12.2,8.6,85.17,M,M,0,30,M,M,BKN,BKN,OVC,M,300,800,1300,M
0CO,2/22/24,12:55:00 PM,12.2,8.6,85.17,330,20,0,30.02,M,25,BKN,OVC,M,M,100,600,M,-7.16
0CO,2/22/24,1:55:00 PM,10.4,8.6,92.25,340,18,0,30.03,M,22,BKN,OVC,M,M,100,600,M,-8.69
0CO,2/22/24,2:55:00 PM,10.4,8.6,92.25,320,17,0,30.06,M,26,BKN,OVC,M,M,100,500,M,-8.22
0CO,2/22/24,3:55:00 PM,10.4,6.8,85.05,310,17,0,30.08,M,23,OVC,M,M,M,100,M,M,-8.22
0CO,2/22/24,4:55:00 PM,10.4,6.8,85.05,320,18,0,30.1,M,21,OVC,M,M,M,100,M,M,-8.69
0CO,2/22/24,5:55:00 PM,10.4,6.8,85.05,310,16,0,30.12,M,23,M,M,M,M,M,M,M,-7.74
0CO,2/22/24,6:55:00 PM,10.4,6.8,85.05,300,16,0,30.13,M,21,M,M,M,M,M,M,M,-7.74
0CO,2/23/24,7:55:00 PM,10.4,8.6,92.25,300,19,0,30.12,M,23,M,M,M,M,M,M,M,-9.13
0CO,2/23/24,8:55:00 PM,10.4,8.6,92.25,320,20,0,30.11,M,29,M,M,M,M,M,M,M,-9.55
0CO,2/23/24,9:55:00 PM,12.2,8.6,85.17,330,19,0,30.12,M,28,M,M,M,M,M,M,M,-6.75
0CO,2/23/24,10:55:00 PM,12.2,8.6,85.17,330,18,0,30.12,M,23,BKN,OVC,M,M,100,900,M,-6.32
0CO,2/23/24,11:55:00 PM,10.4,6.8,85.05,310,23,0,30.12,M,30,BKN,OVC,M,M,300,1000,M,-10.72
0CO,2/23/24,12:55:00 AM,8.6,5,84.93,320,20,0,30.13,M,28,M,M,M,M,M,M,M,-11.94
0CO,2/23/24,1:55:00 AM,8.6,5,84.93,310,21,0,30.14,M,27,BKN,OVC,M,M,300,900,M,-12.36
0CO,2/23/24,2:55:00 AM,8.6,5,84.93,320,22,0,30.15,M,32,BKN,OVC,M,M,100,700,M,-12.76
0CO,2/23/24,3:55:00 AM,8.6,5,84.93,M,M,0,30.15,M,M,OVC,M,M,M,100,M,M,M
0CO,2/23/24,4:55:00 AM,8.6,5,84.93,M,M,0,30.16,M,M,BKN,BKN,OVC,M,100,700,1100,M
0CO,2/23/24,5:55:00 AM,6.8,3.2,84.8,M,M,0,30.16,M,M,BKN,BKN,OVC,M,300,900,1400,M
0CO,2/23/24,6:55:00 AM,8.6,3.2,78.18,320,23,0,30.15,M,31,BKN,OVC,M,M,100,600,M,-13.14
0CO,2/23/24,7:55:00 AM,6.8,3.2,84.8,M,M,0,30.15,M,M,BKN,OVC,M,M,500,1200,M,M
0CO,2/23/24,8:55:00 AM,5,3.2,92.06,300,30,0,30.14,M,M,M,M,M,M,M,M,M,-20.45
0CO,2/23/24,9:55:00 AM,5,3.2,92.06,M,M,0,30.13,M,M,M,M,M,M,M,M,M,M
0CO,2/23/24,10:55:00 AM,5,1.4,84.68,300,32,0,30.12,M,44,BKN,OVC,M,M,400,900,M,-21.06
0CO,2/23/24,11:55:00 AM,5,1.4,84.68,300,30,0,30.11,M,M,M,M,M,M,M,M,M,-20.45
0CO,2/23/24,12:55:00 PM,5,1.4,84.68,M,M,0,30.12,M,M,BKN,BKN,OVC,M,500,1000,1400,M
0CO,2/23/24,1:55:00 PM,5,1.4,84.68,310,23,0,30.12,M,43,M,M,M,M,M,M,M,-17.98
0CO,2/23/24,2:55:00 PM,5,1.4,84.68,310,27,0,30.13,M,38,BKN,OVC,M,M,400,700,M,-19.46
0CO,2/23/24,3:55:00 PM,5,1.4,84.68,300,30,0,30.15,M,46,OVC,M,M,M,400,M,M,-20.45
0CO,2/23/24,4:55:00 PM,5,3.2,92.06,M,M,0,30.1,M,M,BKN,OVC,M,M,600,1000,M,M
0CO,2/23/24,5:55:00 PM,6.8,3.2,84.8,320,26,0,30.15,M,41,OVC,M,M,M,400,M,M,-16.66
0CO,2/23/24,6:55:00 PM,8.6,5,84.93,340,25,0,30.18,M,35,BKN,OVC,M,M,200,800,M,-13.87
0CO,2/24/24,7:55:00 PM,8.6,5,84.93,360,14,0,30.18,M,31,OVC,M,M,M,200,M,M,-9
0CO,2/24/24,8:55:00 PM,10.4,6.8,85.05,360,11,0,30.19,M,27,BKN,BKN,BKN,M,200,800,1300,-4.83
0CO,2/24/24,9:55:00 PM,10.4,6.8,85.05,350,16,0,30.18,M,27,OVC,M,M,M,200,M,M,-7.74
0CO,2/24/24,10:55:00 PM,10.4,5,78.35,360,14,0,30.18,M,35,M,M,M,M,M,M,M,-6.68
0CO,2/24/24,11:55:00 PM,8.6,5,84.93,340,21,0,30.19,M,30,M,M,M,M,M,M,M,-12.36
0CO,2/24/24,12:55:00 AM,8.6,3.2,78.18,320,18,0,30.19,M,23,M,M,M,M,M,M,M,-11.05
0CO,2/24/24,1:55:00 AM,6.8,3.2,84.8,320,24,0,30.18,M,30,M,M,M,M,M,M,M,-15.94
0CO,2/24/24,2:55:00 AM,6.8,3.2,84.8,310,28,0,30.19,M,43,M,M,M,M,M,M,M,-17.33
0CO,2/24/24,3:55:00 AM,5,3.2,92.06,320,23,0,30.17,M,28,M,M,M,M,M,M,M,-17.98
0CO,2/24/24,4:55:00 AM,6.8,3.2,84.8,300,32,0,30.16,M,38,M,M,M,M,M,M,M,-18.57
0CO,2/24/24,5:55:00 AM,6.8,3.2,84.8,320,24,0,30.16,M,41,M,M,M,M,M,M,M,-15.94
0CO,2/24/24,6:55:00 AM,8.6,3.2,78.18,300,31,0,30.16,M,39,M,M,M,M,M,M,M,-15.79
0CO,2/24/24,7:55:00 AM,12.2,-13,30.55,300,34,0,30.13,M,45,CLR,M,M,M,M,M,M,-11.63
0CO,2/24/24,8:55:00 AM,12.2,-11.2,33.42,310,26,0,30.14,M,42,CLR,M,M,M,M,M,M,-9.32
0CO,2/24/24,9:55:00 AM,14,-13,28.22,310,23,0,30.14,M,39,CLR,M,M,M,M,M,M,-5.88
0CO,2/24/24,10:55:00 AM,12.2,-13,30.55,310,22,0,30.15,M,30,CLR,M,M,M,M,M,M,-7.93
0CO,2/24/24,11:55:00 AM,12.2,-9.4,36.53,M,M,0,30.15,M,M,CLR,M,M,M,M,M,M,M
0CO,2/24/24,12:55:00 PM,10.4,-7.6,43.21,310,20,0,30.16,M,M,CLR,M,M,M,M,M,M,-9.55
0CO,2/24/24,1:55:00 PM,10.4,-7.6,43.21,320,19,0,30.17,M,24,CLR,M,M,M,M,M,M,-9.13
0CO,2/24/24,2:55:00 PM,14,-9.4,33.74,300,25,0,30.18,M,30,CLR,M,M,M,M,M,M,-6.56
0CO,2/24/24,3:55:00 PM,15.8,-7.6,34.07,300,26,0,30.18,M,34,CLR,M,M,M,M,M,M,-4.43
0CO,2/24/24,4:55:00 PM,15.8,-4,40.53,300,23,0,30.19,M,29,CLR,M,M,M,M,M,M,-3.46
0CO,2/24/24,5:55:00 PM,19.4,-2.2,37.82,310,21,0,30.19,M,31,CLR,M,M,M,M,M,M,2.05
0CO,2/24/24,6:55:00 PM,19.4,-4,34.71,290,26,0,30.17,M,33,CLR,M,M,M,M,M,M,0.46
0CO,2/25/24,7:55:00 PM,21.2,-4,32.15,300,26,0,30.15,M,38,CLR,M,M,M,M,M,M,2.9
0CO,2/25/24,8:55:00 PM,21.2,-4,32.15,310,19,0,30.17,M,31,CLR,M,M,M,M,M,M,5.15
0CO,2/25/24,9:55:00 PM,21.2,-4,32.15,290,29,0,30.15,M,40,CLR,M,M,M,M,M,M,2.09
0CO,2/25/24,10:55:00 PM,21.2,-4,32.15,290,22,0,30.17,M,31,CLR,M,M,M,M,M,M,4.12
0CO,2/25/24,11:55:00 PM,21.2,-4,32.15,290,16,0,30.17,M,33,CLR,M,M,M,M,M,M,6.34
0CO,2/25/24,12:55:00 AM,15.8,-0.4,48.08,340,12,0,30.17,M,16,CLR,M,M,M,M,M,M,1.38
0CO,2/25/24,1:55:00 AM,17.6,-5.8,34.39,300,20,0,30.17,M,M,CLR,M,M,M,M,M,M,0.01
0CO,2/25/24,2:55:00 AM,17.6,-7.6,31.51,300,17,0,30.16,M,22,CLR,M,M,M,M,M,M,1.21
0CO,2/25/24,3:55:00 AM,17.6,-7.6,31.51,290,18,0,30.15,M,25,CLR,M,M,M,M,M,M,0.79
0CO,2/25/24,4:55:00 AM,17.6,-9.4,28.86,290,19,0,30.14,M,29,CLR,M,M,M,M,M,M,0.39
0CO,2/25/24,5:55:00 AM,17.6,-9.4,28.86,290,26,0,30.12,M,30,CLR,M,M,M,M,M,M,-1.99
0CO,2/25/24,6:55:00 AM,17.6,-7.6,31.51,290,25,0,30.11,M,30,CLR,M,M,M,M,M,M,-1.68
0CO,2/25/24,7:55:00 AM,17.6,-9.4,28.86,300,31,0,30.08,M,40,CLR,M,M,M,M,M,M,-3.38
0CO,2/25/24,8:55:00 AM,17.6,-9.4,28.86,280,34,0,30.05,M,43,CLR,M,M,M,M,M,M,-4.12
0CO,2/25/24,9:55:00 AM,15.8,-9.4,31.19,300,27,0,30.06,M,40,CLR,M,M,M,M,M,M,-4.74
0CO,2/25/24,10:55:00 AM,12.2,-5.8,43.53,320,21,0,30.07,M,M,CLR,M,M,M,M,M,M,-7.55
0CO,2/25/24,11:55:00 AM,10.4,-2.2,56.02,320,19,0,30.08,M,32,CLR,M,M,M,M,M,M,-9.13
0CO,2/25/24,12:55:00 PM,10.4,-4,51.41,320,22,0,30.08,M,33,CLR,M,M,M,M,M,M,-10.35
0CO,2/25/24,1:55:00 PM,12.2,-4,47.46,320,22,0,30.08,M,35,CLR,M,M,M,M,M,M,-7.93
0CO,2/25/24,2:55:00 PM,12.2,-4,47.46,330,23,0,30.09,M,32,CLR,M,M,M,M,M,M,-8.3
0CO,2/25/24,3:55:00 PM,14,-0.4,52.01,320,25,0,30.11,M,31,CLR,M,M,M,M,M,M,-6.56
0CO,2/25/24,4:55:00 PM,14,1.4,56.58,310,20,0,30.12,M,28,CLR,M,M,M,M,M,M,-4.77
0CO,2/25/24,5:55:00 PM,19.4,-0.4,41.17,300,25,0,30.12,M,34,CLR,M,M,M,M,M,M,0.75
0CO,2/25/24,6:55:00 PM,21.2,1.4,41.49,300,23,0,30.12,M,41,CLR,M,M,M,M,M,M,3.8
0CO,2/26/24,7:55:00 PM,21.2,3.2,45.1,280,31,0,30.09,M,44,CLR,M,M,M,M,M,M,1.59
0CO,2/26/24,8:55:00 PM,21.2,3.2,45.1,290,28,0,30.08,M,46,CLR,M,M,M,M,M,M,2.35
0CO,2/26/24,9:55:00 PM,23,3.2,41.8,280,33,0,30.08,M,56,CLR,M,M,M,M,M,M,3.61
0CO,2/26/24,10:55:00 PM,23,3.2,41.8,270,28,0,30.09,M,45,CLR,M,M,M,M,M,M,4.82
0CO,2/26/24,11:55:00 PM,21.2,3.2,45.1,280,28,0,30.08,M,42,CLR,M,M,M,M,M,M,2.35
0CO,2/26/24,12:55:00 AM,21.2,3.2,45.1,290,23,0,30.1,M,36,CLR,M,M,M,M,M,M,3.8
0CO,2/26/24,1:55:00 AM,21.2,5,48.99,280,24,0,30.09,M,37,CLR,M,M,M,M,M,M,3.49
0CO,2/26/24,2:55:00 AM,19.4,5,52.89,270,26,0,30.09,M,36,CLR,M,M,M,M,M,M,0.46
0CO,2/26/24,3:55:00 AM,19.4,5,52.89,290,17,0,30.09,M,36,CLR,M,M,M,M,M,M,3.57
0CO,2/26/24,4:55:00 AM,19.4,5,52.89,290,23,0,30.08,M,37,SCT,SCT,M,M,3900,4600,M,1.38
0CO,2/26/24,5:55:00 AM,19.4,5,52.89,280,23,0,30.06,M,36,SCT,SCT,M,M,4200,4900,M,1.38
0CO,2/26/24,6:55:00 AM,19.4,5,52.89,280,25,0,30.03,M,38,SCT,SCT,M,M,4100,5000,M,0.75
0CO,2/26/24,7:55:00 AM,19.4,5,52.89,280,23,0,30,M,36,SCT,BKN,M,M,3700,12000,M,1.38
0CO,2/26/24,8:55:00 AM,19.4,10.4,67.51,270,23,0,29.97,M,43,SCT,SCT,BKN,M,2900,3900,12000,1.38
0CO,2/26/24,9:55:00 AM,19.4,10.4,67.51,290,30,0,29.92,M,48,SCT,BKN,OVC,M,2800,4700,12000,-0.64
0CO,2/26/24,10:55:00 AM,19.4,12.2,73.13,280,33,0,29.89,M,51,SCT,BKN,OVC,M,2500,3200,4900,-1.38
0CO,2/26/24,11:55:00 AM,19.4,12.2,73.13,280,30,0,29.88,M,52,SCT,BKN,OVC,M,2300,3100,4900,-0.64
0CO,2/26/24,12:55:00 PM,19.4,12.2,73.13,280,35,0,29.86,M,46,SCT,BKN,OVC,M,1800,3000,4100,-1.85
0CO,2/26/24,1:55:00 PM,17.6,14,85.51,280,31,0,29.86,M,42,M,M,M,M,M,M,M,-3.38
0CO,2/26/24,2:55:00 PM,17.6,12.2,79,280,29,0,29.87,M,52,M,M,M,M,M,M,M,-2.84
0CO,2/26/24,3:55:00 PM,17.6,10.4,72.93,290,26,0,29.86,M,44,SCT,BKN,OVC,M,1400,2700,4500,-1.99
0CO,2/26/24,4:55:00 PM,19.4,8.6,62.28,300,30,0,29.85,M,39,SCT,BKN,OVC,M,2300,3200,4200,-0.64
0CO,2/26/24,5:55:00 PM,19.4,6.8,57.41,290,27,0,29.86,M,44,SCT,BKN,OVC,M,3100,4300,5000,0.17
0CO,2/26/24,6:55:00 PM,19.4,8.6,62.28,300,27,0,29.85,M,35,SCT,BKN,OVC,M,2900,3800,5000,0.17
0CO,2/27/24,7:55:00 PM,19.4,8.6,62.28,300,26,0,29.8,M,37,SCT,BKN,OVC,M,2700,3700,4500,0.46
0CO,2/27/24,8:55:00 PM,21.2,6.8,53.18,290,28,0,29.78,M,48,SCT,BKN,OVC,M,2200,4600,5500,2.35
0CO,2/27/24,9:55:00 PM,21.2,5,48.99,290,22,0,29.77,M,55,SCT,SCT,OVC,M,4300,4900,5500,4.12
0CO,2/27/24,10:55:00 PM,21.2,5,48.99,280,37,0,29.74,M,44,SCT,BKN,OVC,M,4300,5000,7000,0.23
0CO,2/27/24,11:55:00 PM,21.2,5,48.99,290,21,0,29.76,M,40,SCT,OVC,M,M,4100,5000,M,4.45
0CO,2/27/24,12:55:00 AM,19.4,5,52.89,270,24,0,29.74,M,36,SCT,BKN,OVC,M,4000,4600,5000,1.06
0CO,2/27/24,1:55:00 AM,19.4,8.6,62.28,270,17,0,29.75,M,29,SCT,BKN,OVC,M,1700,3200,4400,3.57
0CO,2/27/24,2:55:00 AM,17.6,14,85.51,280,12,0,29.74,M,20,BKN,BKN,OVC,M,200,600,1300,3.67
0CO,2/27/24,3:55:00 AM,15.8,14,92.44,270,21,0,29.7,M,31,M,M,M,M,M,M,M,-2.75
0CO,2/27/24,4:55:00 AM,15.8,14,92.44,250,17,0,29.69,M,25,M,M,M,M,M,M,M,-1.15
0CO,2/27/24,5:55:00 AM,15.8,14,92.44,250,26,0,29.64,M,36,BKN,OVC,M,M,300,700,M,-4.43
0CO,2/27/24,6:55:00 AM,15.8,12.2,85.4,260,23,0,29.62,M,36,M,M,M,M,M,M,M,-3.46
0CO,2/27/24,7:55:00 AM,15.8,12.2,85.4,260,22,0,29.59,M,34,BKN,OVC,M,M,900,1600,M,-3.11
0CO,2/27/24,8:55:00 AM,15.8,10.4,78.84,270,25,0,29.56,M,45,SCT,BKN,OVC,M,900,1400,1800,-4.12
0CO,2/27/24,9:55:00 AM,14,10.4,85.28,290,27,0,29.5,M,34,BKN,OVC,M,M,700,1400,M,-7.19
0CO,2/27/24,10:55:00 AM,15.8,10.4,78.84,280,33,0,29.46,M,40,BKN,BKN,OVC,M,1400,1900,2500,-6.38
0CO,2/27/24,11:55:00 AM,14,12.2,92.38,260,32,0,29.47,M,43,BKN,OVC,M,M,600,1200,M,-8.61
0CO,2/27/24,12:55:00 PM,14,12.2,92.38,280,34,0,29.45,M,M,BKN,OVC,M,M,600,1000,M,-9.13
0CO,2/27/24,1:55:00 PM,12.2,10.4,92.32,340,15,0,29.47,M,25,OVC,M,M,M,200,M,M,-4.89
0CO,2/27/24,2:55:00 PM,6.8,3.2,84.8,330,24,0,29.48,M,33,OVC,M,M,M,200,M,M,-15.94
0CO,2/27/24,3:55:00 PM,5,1.4,84.68,310,21,0,29.52,M,25,OVC,M,M,M,200,M,M,-17.16
0CO,2/27/24,4:55:00 PM,3.2,-0.4,84.56,310,25,0,29.51,M,32,OVC,M,M,M,600,M,M,-21.18
0CO,2/27/24,5:55:00 PM,3.2,-0.4,84.56,340,16,0,29.52,M,26,OVC,M,M,M,300,M,M,-17.12
0CO,2/27/24,6:55:00 PM,-0.4,-4,84.3,320,25,0,29.51,M,31,OVC,M,M,M,300,M,M,-26.05
0CO,2/28/24,7:55:00 PM,-0.4,-5.8,77.32,340,16,0,29.48,M,30,OVC,M,M,M,300,M,M,-21.81
0CO,2/28/24,8:55:00 PM,-0.4,-5.8,77.32,340,24,0,29.48,M,30,OVC,M,M,M,300,M,M,-25.65
0CO,2/28/24,9:55:00 PM,-4,-7.6,84.04,330,26,0,29.5,M,35,OVC,M,M,M,300,M,M,-31.33
0CO,2/28/24,10:55:00 PM,-5.8,-9.4,83.91,330,26,0,29.52,M,32,OVC,M,M,M,300,M,M,-33.78
0CO,2/28/24,11:55:00 PM,-5.8,-9.4,83.91,300,20,0,29.56,M,27,OVC,M,M,M,300,M,M,-31.07
0CO,2/28/24,12:55:00 AM,-5.8,-9.4,83.91,330,27,0,29.57,M,38,OVC,M,M,M,300,M,M,-34.17
0CO,2/28/24,1:55:00 AM,-7.6,-13,76.59,330,31,0,29.6,M,40,OVC,M,M,M,300,M,M,-38.14
0CO,2/28/24,2:55:00 AM,-9.4,-14.8,76.4,M,M,0,29.6,M,M,OVC,M,M,M,300,M,M,M
0CO,2/28/24,3:55:00 AM,-9.4,-14.8,76.4,M,M,0,29.57,M,M,OVC,M,M,M,300,M,M,M
0CO,2/28/24,4:55:00 AM,-9.4,-14.8,76.4,M,M,0,29.56,M,M,OVC,M,M,M,300,M,M,M
0CO,2/28/24,5:55:00 AM,-9.4,-14.8,76.4,M,M,0,29.64,M,M,OVC,M,M,M,300,M,M,M
0CO,2/28/24,6:55:00 AM,-9.4,-14.8,76.4,M,M,0,29.67,M,M,OVC,M,M,M,300,M,M,M
0CO,2/28/24,7:55:00 AM,-11.2,-16.6,76.21,M,M,0,29.71,M,M,BKN,OVC,M,M,500,1100,M,M
0CO,2/28/24,8:55:00 AM,-9.4,-16.6,69.73,310,42,0,29.75,M,48,BKN,OVC,M,M,500,1000,M,-44.13
0CO,2/28/24,9:55:00 AM,-9.4,-14.8,76.4,M,M,0,29.74,M,M,CLR,M,M,M,M,M,M,M
0CO,2/28/24,10:55:00 AM,-9.4,-16.6,69.73,310,39,0,29.8,M,44,CLR,M,M,M,M,M,M,-43.26
0CO,2/28/24,11:55:00 AM,-7.6,-13,76.59,310,44,0,29.79,M,54,CLR,M,M,M,M,M,M,-42.12
0CO,2/28/24,12:55:00 PM,-0.4,-5.8,77.32,320,44,0,29.85,M,54,M,M,M,M,M,M,M,-31.88
0CO,2/28/24,1:55:00 PM,-0.4,-4,84.3,310,40,0,29.9,M,48,M,M,M,M,M,M,M,-30.86
0CO,2/28/24,2:55:00 PM,6.8,1.4,78.01,310,37,0,29.94,M,55,CLR,M,M,M,M,M,M,-19.95
0CO,2/28/24,3:55:00 PM,3.2,-5.8,65.38,310,35,0,29.98,M,39,CLR,M,M,M,M,M,M,-24.44
0CO,2/28/24,4:55:00 PM,8.6,-2.2,60.72,310,34,0.01,30,M,45,CLR,M,M,M,M,M,M,-16.64
0CO,2/28/24,5:55:00 PM,10.4,1.4,66.35,310,29,0,30.05,M,40,CLR,M,M,M,M,M,M,-12.72
0CO,2/28/24,6:55:00 PM,14,1.4,56.58,320,17,0,30.11,M,29,CLR,M,M,M,M,M,M,-3.51
0CO,2/29/24,7:55:00 PM,17.6,3.2,52.6,310,22,0,30.1,M,30,CLR,M,M,M,M,M,M,-0.7
0CO,2/29/24,8:55:00 PM,17.6,3.2,52.6,280,29,0,30.09,M,36,CLR,M,M,M,M,M,M,-2.84
0CO,2/29/24,9:55:00 PM,17.6,1.4,48.39,290,19,0,30.12,M,35,CLR,M,M,M,M,M,M,0.39
0CO,2/29/24,10:55:00 PM,19.4,-2.2,37.82,290,22,0,30.12,M,33,CLR,M,M,M,M,M,M,1.71
0CO,2/29/24,11:55:00 PM,17.6,-2.2,40.85,290,21,0,30.13,M,25,CLR,M,M,M,M,M,M,-0.35
0CO,2/29/24,12:55:00 AM,17.6,-5.8,34.39,290,17,0,30.13,M,22,CLR,M,M,M,M,M,M,1.21
0CO,2/29/24,1:55:00 AM,15.8,-7.6,34.07,280,21,0,30.13,M,27,CLR,M,M,M,M,M,M,-2.75
0CO,2/29/24,2:55:00 AM,15.8,-9.4,31.19,290,25,0,30.11,M,33,CLR,M,M,M,M,M,M,-4.12
0CO,2/29/24,3:55:00 AM,15.8,-7.6,34.07,310,17,0,30.14,M,26,CLR,M,M,M,M,M,M,-1.15
0CO,2/29/24,4:55:00 AM,14,-9.4,33.74,300,20,0,30.13,M,29,CLR,M,M,M,M,M,M,-4.77
0CO,2/29/24,5:55:00 AM,15.8,-11.2,28.54,310,18,0,30.14,M,27,CLR,M,M,M,M,M,M,-1.58
0CO,2/29/24,6:55:00 AM,17.6,-13,24.14,290,29,0,30.11,M,43,CLR,M,M,M,M,M,M,-2.84
0CO,2/29/24,7:55:00 AM,15.8,-11.2,28.54,290,32,0,30.1,M,47,CLR,M,M,M,M,M,M,-6.12
0CO,2/29/24,8:55:00 AM,15.8,-11.2,28.54,300,28,0,30.09,M,35,CLR,M,M,M,M,M,M,-5.03
0CO,2/29/24,9:55:00 AM,14,-11.2,30.87,300,24,0,30.07,M,39,CLR,M,M,M,M,M,M,-6.22
0CO,2/29/24,10:55:00 AM,12.2,-9.4,36.53,320,23,0,30.06,M,M,CLR,M,M,M,M,M,M,-8.3
0CO,2/29/24,11:55:00 AM,10.4,-7.6,43.21,320,19,0,30.07,M,27,CLR,M,M,M,M,M,M,-9.13
0CO,2/29/24,12:55:00 PM,10.4,-7.6,43.21,330,20,0,30.07,M,26,CLR,M,M,M,M,M,M,-9.55
0CO,2/29/24,1:55:00 PM,12.2,-9.4,36.53,340,15,0,30.08,M,21,CLR,M,M,M,M,M,M,-4.89
0CO,2/29/24,2:55:00 PM,14,-14.8,25.78,340,10,0,30.1,M,18,CLR,M,M,M,M,M,M,0.4
0CO,2/29/24,3:55:00 PM,14,-11.2,30.87,350,11,0,30.09,M,20,CLR,M,M,M,M,M,M,-0.28
0CO,2/29/24,4:55:00 PM,17.6,-5.8,34.39,340,13,0,30.09,M,26,CLR,M,M,M,M,M,M,3.12
0CO,2/29/24,5:55:00 PM,17.6,-4,37.5,340,10,0,30.09,M,25,CLR,M,M,M,M,M,M,4.91
0CO,2/29/24,6:55:00 PM,21.2,-7.6,27.02,300,27,0,30.06,M,38,CLR,M,M,M,M,M,M,2.62
0CO,3/1/24,7:55:00 PM,21.2,-4,32.15,300,26,0,30.06,M,33,CLR,M,M,M,M,M,M,2.9
0CO,3/1/24,8:55:00 PM,23,1.4,38.45,320,24,0,30.03,M,34,CLR,M,M,M,M,M,M,5.92
0CO,3/1/24,9:55:00 PM,21.2,-0.4,38.13,310,26,0,30.03,M,34,CLR,M,M,M,M,M,M,2.9
0CO,3/1/24,10:55:00 PM,23,-0.4,35.34,310,22,0,30.03,M,31,CLR,M,M,M,M,M,M,6.53
0CO,3/1/24,11:55:00 PM,21.2,-5.8,29.48,280,21,0,30.03,M,36,CLR,M,M,M,M,M,M,4.45
0CO,3/1/24,12:55:00 AM,19.4,-11.2,24.44,310,22,0,30.02,M,32,CLR,M,M,M,M,M,M,1.71
0CO,3/1/24,1:55:00 AM,19.4,-5.8,31.83,290,19,0,30.03,M,27,CLR,M,M,M,M,M,M,2.77
0CO,3/1/24,2:55:00 AM,19.4,-4,34.71,290,27,0,30,M,34,CLR,M,M,M,M,M,M,0.17
0CO,3/1/24,3:55:00 AM,17.6,-4,37.5,290,25,0,30,M,34,CLR,M,M,M,M,M,M,-1.68
0CO,3/1/24,4:55:00 AM,17.6,-0.4,44.48,300,19,0,30,M,26,CLR,M,M,M,M,M,M,0.39
0CO,3/1/24,5:55:00 AM,15.8,-0.4,48.08,300,27,0,29.97,M,35,CLR,M,M,M,M,M,M,-4.74
0CO,3/1/24,6:55:00 AM,17.6,1.4,48.39,300,30,0,29.94,M,43,CLR,M,M,M,M,M,M,-3.11
0CO,3/1/24,7:55:00 AM,14,1.4,56.58,320,30,0,29.96,M,41,CLR,M,M,M,M,M,M,-8.07
0CO,3/1/24,8:55:00 AM,14,3.2,61.51,320,28,0,29.95,M,37,CLR,M,M,M,M,M,M,-7.49
0CO,3/1/24,9:55:00 AM,12.2,3.2,66.58,320,24,0,29.94,M,37,CLR,M,M,M,M,M,M,-8.65
0CO,3/1/24,10:55:00 AM,12.2,5,72.33,330,27,0,29.93,M,35,CLR,M,M,M,M,M,M,-9.64
0CO,3/1/24,11:55:00 AM,14,5,66.82,310,34,0,29.91,M,45,CLR,M,M,M,M,M,M,-9.13
0CO,3/1/24,12:55:00 PM,10.4,6.8,85.05,320,25,0,29.93,M,37,M,M,M,M,M,M,M,-11.43
0CO,3/1/24,1:55:00 PM,12.2,5,72.33,310,31,0,29.93,M,44,CLR,M,M,M,M,M,M,-10.83
0CO,3/1/24,2:55:00 PM,12.2,6.8,78.51,320,24,0,29.95,M,34,CLR,M,M,M,M,M,M,-8.65
0CO,3/1/24,3:55:00 PM,14,6.8,72.53,320,20,0,29.98,M,28,CLR,M,M,M,M,M,M,-4.77
0CO,3/1/24,4:55:00 PM,17.6,8.6,67.28,310,23,0,29.99,M,33,CLR,M,M,M,M,M,M,-1.04
0CO,3/1/24,5:55:00 PM,21.2,6.8,53.18,310,22,0,30.01,M,26,CLR,M,M,M,M,M,M,4.12
0CO,3/1/24,6:55:00 PM,23,5,45.41,290,24,0,30.01,M,29,CLR,M,M,M,M,M,M,5.92
0CO,3/2/24,7:55:00 PM,21.2,12.2,67.73,130,6,0,30.01,M,23,CLR,M,M,M,M,M,M,12.52
0CO,3/2/24,8:55:00 PM,23,12.2,62.78,340,14,0,30.01,M,23,CLR,M,M,M,M,M,M,9.56
0CO,3/2/24,9:55:00 PM,23,12.2,62.78,320,15,0,30.01,M,25,CLR,M,M,M,M,M,M,9.11
0CO,3/2/24,10:55:00 PM,23,14,67.96,330,13,0,30.02,M,24,CLR,M,M,M,M,M,M,10.04
0CO,3/2/24,11:55:00 PM,21.2,12.2,67.73,340,12,0,30.03,M,18,CLR,M,M,M,M,M,M,8.26
0CO,3/2/24,12:55:00 AM,21.2,8.6,57.69,290,10,0,30.03,M,20,CLR,M,M,M,M,M,M,9.42
0CO,3/2/24,1:55:00 AM,21.2,3.2,45.1,250,18,0,30.03,M,25,CLR,M,M,M,M,M,M,5.53
0CO,3/2/24,2:55:00 AM,21.2,1.4,41.49,250,19,0,30.02,M,27,CLR,M,M,M,M,M,M,5.15
0CO,3/2/24,3:55:00 AM,21.2,-0.4,38.13,250,27,0,30,M,38,CLR,M,M,M,M,M,M,2.62
0CO,3/2/24,4:55:00 AM,21.2,-0.4,38.13,250,25,0,30,M,30,CLR,M,M,M,M,M,M,3.19
0CO,3/2/24,5:55:00 AM,19.4,1.4,44.79,240,21,0,29.99,M,30,CLR,M,M,M,M,M,M,2.05
0CO,3/2/24,6:55:00 AM,19.4,3.2,48.69,250,30,0,29.96,M,41,CLR,M,M,M,M,M,M,-0.64
0CO,3/2/24,7:55:00 AM,19.4,3.2,48.69,260,29,0,29.95,M,42,CLR,M,M,M,M,M,M,-0.38
0CO,3/2/24,8:55:00 AM,19.4,1.4,44.79,260,31,0,29.92,M,47,CLR,M,M,M,M,M,M,-0.89
0CO,3/2/24,9:55:00 AM,19.4,1.4,44.79,280,20,0,29.91,M,32,CLR,M,M,M,M,M,M,2.4
0CO,3/2/24,10:55:00 AM,19.4,1.4,44.79,290,29,0,29.87,M,42,CLR,M,M,M,M,M,M,-0.38
0CO,3/2/24,11:55:00 AM,19.4,-0.4,41.17,280,23,0,29.88,M,43,CLR,M,M,M,M,M,M,1.38
0CO,3/2/24,12:55:00 PM,19.4,-0.4,41.17,270,26,0,29.87,M,34,CLR,M,M,M,M,M,M,0.46
0CO,3/2/24,1:55:00 PM,19.4,-4,34.71,280,20,0,29.86,M,41,CLR,M,M,M,M,M,M,2.4
0CO,3/2/24,2:55:00 PM,21.2,-4,32.15,270,28,0,29.86,M,56,CLR,M,M,M,M,M,M,2.35
0CO,3/2/24,3:55:00 PM,23,-2.2,32.46,290,30,0,29.84,M,38,CLR,M,M,M,M,M,M,4.31
0CO,3/2/24,4:55:00 PM,23,-2.2,32.46,270,25,0,29.85,M,35,CLR,M,M,M,M,M,M,5.63
0CO,3/2/24,5:55:00 PM,24.8,-2.2,30.11,260,33,0,29.81,M,52,CLR,M,M,M,M,M,M,6.11
0CO,3/2/24,6:55:00 PM,26.6,-0.4,30.42,270,19,0,29.81,M,51,CLR,M,M,M,M,M,M,12.3
0CO,3/3/24,7:55:00 PM,26.6,-0.4,30.42,270,26,0,29.76,M,40,CLR,M,M,M,M,M,M,10.24
0CO,3/3/24,8:55:00 PM,28.4,1.4,30.73,250,31,0,29.73,M,53,CLR,M,M,M,M,M,M,11.52
0CO,3/3/24,9:55:00 PM,26.6,-0.4,30.42,250,29,0,29.72,M,44,SCT,BKN,M,M,6000,7000,M,9.5
0CO,3/3/24,10:55:00 PM,24.8,1.4,35.66,210,14,0,29.72,M,32,SCT,SCT,OVC,M,3700,4600,6500,11.88
0CO,3/3/24,11:55:00 PM,24.8,1.4,35.66,230,21,0,29.68,M,31,BKN,OVC,M,M,6500,8500,M,9.25
0CO,3/3/24,12:55:00 AM,23,3.2,41.8,230,14,0,29.66,M,32,OVC,M,M,M,5000,M,M,9.56
0CO,3/3/24,1:55:00 AM,17.6,14,85.51,250,16,0,29.64,M,36,BKN,BKN,OVC,M,900,1800,3200,1.65
0CO,3/3/24,2:55:00 AM,17.6,15.8,92.5,250,16,0,29.61,M,22,OVC,M,M,M,300,M,M,1.65
0CO,3/3/24,3:55:00 AM,17.6,14,85.51,240,20,0,29.59,M,M,BKN,OVC,M,M,300,900,M,0.01
0CO,3/3/24,4:55:00 AM,17.6,14,85.51,270,11,0,29.56,M,18,OVC,M,M,M,300,M,M,4.27
0CO,3/3/24,5:55:00 AM,17.6,14,85.51,240,16,0.01,29.54,M,27,OVC,M,M,M,300,M,M,1.65
0CO,3/3/24,6:55:00 AM,15.8,14,92.44,M,M,0,29.53,M,M,M,M,M,M,M,M,M,M
0CO,3/3/24,7:55:00 AM,8.6,5,84.93,M,M,0,29.5,M,M,OVC,M,M,M,300,M,M,M
0CO,3/3/24,8:55:00 AM,5,1.4,84.68,M,M,0,29.54,M,M,OVC,M,M,M,100,M,M,M
0CO,3/3/24,9:55:00 AM,1.4,-2.2,84.43,330,27,0,29.54,M,41,OVC,M,M,M,300,M,M,-24.36
0CO,3/3/24,10:55:00 AM,-0.4,-4,84.3,330,21,0,29.55,M,31,OVC,M,M,M,300,M,M,-24.36
0CO,3/3/24,11:55:00 AM,-0.4,-4,84.3,320,20,0,29.52,M,28,M,M,M,M,M,M,M,-23.89
0CO,3/3/24,12:55:00 PM,-0.4,-4,84.3,300,23,0,29.52,M,31,BKN,OVC,M,M,700,1100,M,-25.24
0CO,3/3/24,1:55:00 PM,-0.4,-4,84.3,290,13,0,29.54,M,30,BKN,OVC,M,M,1200,2000,M,-19.94
0CO,3/3/24,2:55:00 PM,1.4,-4,77.49,280,11,0,29.54,M,M,OVC,M,M,M,600,M,M,-16.2
0CO,3/3/24,3:55:00 PM,3.2,-0.4,84.56,270,15,0,29.55,M,22,BKN,OVC,M,M,600,1200,M,-16.56
0CO,3/3/24,4:55:00 PM,5,1.4,84.68,260,25,0,29.57,M,37,OVC,M,M,M,800,M,M,-18.74
0CO,3/3/24,5:55:00 PM,6.8,3.2,84.8,260,31,0,29.57,M,53,M,M,M,M,M,M,M,-18.27
0CO,3/3/24,6:55:00 PM,8.6,3.2,78.18,270,24,0,29.57,M,49,M,M,M,M,M,M,M,-13.51
0CO,3/4/24,7:55:00 PM,8.6,5,84.93,260,24,0,29.57,M,47,M,M,M,M,M,M,M,-13.51
0CO,3/4/24,8:55:00 PM,10.4,6.8,85.05,270,23,0,29.57,M,40,OVC,M,M,M,300,M,M,-10.72
0CO,3/4/24,9:55:00 PM,10.4,6.8,85.05,270,19,0,29.6,M,33,OVC,M,M,M,500,M,M,-9.13
0CO,3/4/24,10:55:00 PM,10.4,8.6,92.25,270,22,0,29.61,M,32,OVC,M,M,M,700,M,M,-10.35
0CO,3/4/24,11:55:00 PM,10.4,8.6,92.25,260,16,0,29.63,M,24,OVC,M,M,M,700,M,M,-7.74
0CO,3/4/24,12:55:00 AM,12.2,8.6,85.17,250,17,0,29.65,M,32,M,M,M,M,M,M,M,-5.86
0CO,3/4/24,1:55:00 AM,12.2,8.6,85.17,200,11,0,29.68,M,17,BKN,BKN,OVC,M,400,1000,1500,-2.56
0CO,3/4/24,2:55:00 AM,12.2,8.6,85.17,280,10,0,29.7,M,16,OVC,M,M,M,400,M,M,-1.86
0CO,3/4/24,3:55:00 AM,12.2,10.4,92.32,230,19,0,29.69,M,27,OVC,M,M,M,700,M,M,-6.75
0CO,3/4/24,4:55:00 AM,12.2,8.6,85.17,260,16,0,29.69,M,26,M,M,M,M,M,M,M,-5.39
0CO,3/4/24,5:55:00 AM,12.2,8.6,85.17,230,15,0,29.69,M,26,M,M,M,M,M,M,M,-4.89
0CO,3/4/24,6:55:00 AM,12.2,8.6,85.17,250,17,0,29.69,M,28,M,M,M,M,M,M,M,-5.86
0CO,3/4/24,7:55:00 AM,5,1.4,84.68,310,13,0,29.69,M,22,OVC,M,M,M,600,M,M,-13.02
0CO,3/4/24,8:55:00 AM,8.6,5,84.93,260,10,0,29.7,M,18,BKN,OVC,M,M,600,1100,M,-6.38
0CO,3/4/24,9:55:00 AM,5,1.4,84.68,290,13,0,29.7,M,19,M,M,M,M,M,M,M,-13.02
0CO,3/4/24,10:55:00 AM,6.8,3.2,84.8,260,16,0,29.69,M,27,M,M,M,M,M,M,M,-12.43
0CO,3/4/24,11:55:00 AM,5,3.2,92.06,270,10,0,29.71,M,19,BKN,BKN,OVC,M,1000,1400,2100,-10.89
0CO,3/4/24,12:55:00 PM,6.8,3.2,84.8,260,16,0,29.72,M,32,M,M,M,M,M,M,M,-12.43
0CO,3/4/24,1:55:00 PM,6.8,3.2,84.8,280,18,0,29.73,M,26,M,M,M,M,M,M,M,-13.42
0CO,3/4/24,2:55:00 PM,8.6,5,84.93,270,22,0,29.74,M,31,M,M,M,M,M,M,M,-12.76
0CO,3/4/24,3:55:00 PM,8.6,5,84.93,250,17,0,29.77,M,26,BKN,BKN,OVC,M,1500,2000,2500,-10.58
0CO,3/4/24,4:55:00 PM,10.4,6.8,85.05,250,24,0,29.75,M,33,BKN,OVC,M,M,1500,2100,M,-11.08
0CO,3/4/24,5:55:00 PM,10.4,8.6,92.25,260,22,0,29.76,M,38,M,M,M,M,M,M,M,-10.35
0CO,3/4/24,6:55:00 PM,14,10.4,85.28,260,23,0,29.76,M,37,M,M,M,M,M,M,M,-5.88
0CO,3/5/24,7:55:00 PM,14,6.8,72.53,280,27,0,29.75,M,42,SCT,BKN,OVC,M,1200,1900,2400,-7.19
0CO,3/5/24,8:55:00 PM,14,8.6,78.68,240,24,0,29.78,M,34,SCT,BKN,OVC,M,1000,1600,2600,-6.22
0CO,3/5/24,9:55:00 PM,14,6.8,72.53,260,23,0,29.78,M,32,SCT,BKN,OVC,M,1400,1900,2500,-5.88
0CO,3/5/24,10:55:00 PM,14,6.8,72.53,260,33,0,29.78,M,45,SCT,BKN,OVC,M,1500,2600,3200,-8.87
0CO,3/5/24,11:55:00 PM,12.2,6.8,78.51,260,30,0,29.8,M,42,SCT,BKN,OVC,M,1500,2100,3300,-10.54
0CO,3/5/24,12:55:00 AM,12.2,8.6,85.17,280,14,0,29.84,M,22,SCT,BKN,OVC,M,1200,1900,2500,-4.36
0CO,3/5/24,1:55:00 AM,10.4,8.6,92.25,270,15,0,29.86,M,25,M,M,M,M,M,M,M,-7.22
0CO,3/5/24,2:55:00 AM,10.4,6.8,85.05,270,26,0,29.84,M,39,M,M,M,M,M,M,M,-11.77
0CO,3/5/24,3:55:00 AM,10.4,5,78.35,260,24,0,29.86,M,41,SCT,BKN,OVC,M,1300,2200,2600,-11.08
0CO,3/5/24,4:55:00 AM,10.4,5,78.35,270,22,0,29.88,M,40,SCT,BKN,OVC,M,1100,2100,2800,-10.35
0CO,3/5/24,5:55:00 AM,10.4,5,78.35,270,23,0,29.9,M,34,SCT,BKN,OVC,M,1300,2200,3000,-10.72
0CO,3/5/24,6:55:00 AM,10.4,6.8,85.05,270,27,0,29.89,M,36,M,M,M,M,M,M,M,-12.1
0CO,3/5/24,7:55:00 AM,10.4,8.6,92.25,270,24,0,29.89,M,34,BKN,BKN,OVC,M,800,1600,2500,-11.08
0CO,3/5/24,8:55:00 AM,8.6,5,84.93,300,19,0,29.9,M,23,BKN,OVC,M,M,700,1300,M,-11.51
0CO,3/5/24,9:55:00 AM,10.4,8.6,92.25,290,19,0,29.9,M,26,M,M,M,M,M,M,M,-9.13
0CO,3/5/24,10:55:00 AM,10.4,6.8,85.05,300,24,0,29.9,M,M,BKN,BKN,OVC,M,600,1500,2100,-11.08
0CO,3/5/24,11:55:00 AM,10.4,5,78.35,290,26,0,29.91,M,37,BKN,OVC,M,M,800,1500,M,-11.77
0CO,3/5/24,12:55:00 PM,8.6,5,84.93,290,33,0,29.9,M,46,M,M,M,M,M,M,M,-16.36
0CO,3/5/24,1:55:00 PM,10.4,6.8,85.05,280,34,0,29.9,M,46,BKN,OVC,M,M,1000,1600,M,-14.13
0CO,3/5/24,2:55:00 PM,10.4,5,78.35,290,21,0,29.94,M,34,M,M,M,M,M,M,M,-9.96
0CO,3/5/24,3:55:00 PM,12.2,5,72.33,280,28,0,29.93,M,37,SCT,M,M,M,1400,M,M,-9.95
0CO,3/5/24,4:55:00 PM,12.2,8.6,85.17,300,15,0,29.96,M,24,M,M,M,M,M,M,M,-4.89
0CO,3/5/24,5:55:00 PM,14,8.6,78.68,300,15,0,29.95,M,29,SCT,SCT,OVC,M,100,1100,1800,-2.56
0CO,3/5/24,6:55:00 PM,15.8,10.4,78.84,280,15,0,29.96,M,29,SCT,BKN,OVC,M,900,1500,2500,-0.22
0CO,3/6/24,7:55:00 PM,15.8,10.4,78.84,280,16,0,29.95,M,28,BKN,OVC,M,M,900,1300,M,-0.7
0CO,3/6/24,8:55:00 PM,15.8,10.4,78.84,280,19,0,29.94,M,39,BKN,OVC,M,M,1300,2000,M,-1.99
0CO,3/6/24,9:55:00 PM,14,8.6,78.68,280,16,0,29.94,M,39,SCT,BKN,OVC,M,700,1700,2200,-3.04
0CO,3/6/24,10:55:00 PM,15.8,10.4,78.84,260,16,0,29.94,M,29,SCT,BKN,OVC,M,700,1300,2600,-0.7
0CO,3/6/24,11:55:00 PM,14,10.4,85.28,280,19,0,29.94,M,30,M,M,M,M,M,M,M,-4.37
0CO,3/6/24,12:55:00 AM,14,10.4,85.28,260,13,0,29.95,M,23,BKN,BKN,OVC,M,300,700,1200,-1.49
0CO,3/6/24,1:55:00 AM,12.2,8.6,85.17,290,20,0,29.95,M,30,M,M,M,M,M,M,M,-7.16
0CO,3/6/24,2:55:00 AM,12.2,10.4,92.32,260,12,0,29.96,M,25,M,M,M,M,M,M,M,-3.2
0CO,3/6/24,3:55:00 AM,12.2,10.4,92.32,280,14,0,29.95,M,27,M,M,M,M,M,M,M,-4.36
0CO,3/6/24,4:55:00 AM,12.2,10.4,92.32,280,16,0,29.95,M,24,BKN,BKN,OVC,M,300,700,1600,-5.39
0CO,3/6/24,5:55:00 AM,12.2,8.6,85.17,280,20,0,29.93,M,36,M,M,M,M,M,M,M,-7.16
0CO,3/6/24,1:55:00 PM,12.2,6.8,78.51,280,26,0,29.87,M,32,CLR,M,M,M,M,M,M,-9.32
0CO,3/6/24,2:55:00 PM,12.2,8.6,85.17,320,14,0,29.9,M,22,M,M,M,M,M,M,M,-4.36
0CO,3/6/24,3:55:00 PM,14,8.6,78.68,310,16,0,29.91,M,24,SCT,SCT,M,M,1500,2000,M,-3.04
0CO,3/6/24,4:55:00 PM,14,8.6,78.68,310,19,0,29.9,M,33,SCT,M,M,M,2100,M,M,-4.37
0CO,3/6/24,5:55:00 PM,15.8,6.8,67.05,300,27,0,29.89,M,32,SCT,M,M,M,2500,M,M,-4.74
0CO,3/6/24,6:55:00 PM,17.6,10.4,72.93,320,13,0,29.91,M,28,SCT,BKN,BKN,M,400,2100,2700,3.12
0CO,3/6/24,7:55:00 PM,19.4,8.6,62.28,310,20,0,29.88,M,25,SCT,BKN,M,M,2300,3000,M,2.4
0CO,3/7/24,8:55:00 PM,19.4,10.4,67.51,300,17,0,29.87,M,34,BKN,BKN,BKN,M,2500,3000,3500,3.57
0CO,3/7/24,9:55:00 PM,19.4,10.4,67.51,280,12,0,29.88,M,27,SCT,SCT,BKN,M,400,1200,2200,5.97
0CO,3/7/24,10:55:00 PM,19.4,8.6,62.28,300,19,0,29.86,M,25,SCT,SCT,M,M,2600,3200,M,2.77
0CO,3/7/24,11:55:00 PM,17.6,8.6,67.28,300,16,0,29.87,M,23,CLR,M,M,M,M,M,M,1.65
0CO,3/7/24,12:55:00 AM,14,10.4,85.28,300,5,0,29.9,M,M,M,M,M,M,M,M,M,5.02
0CO,3/7/24,1:55:00 AM,14,8.6,78.68,260,9,0,29.91,M,17,BKN,M,M,M,12000,M,M,1.13
0CO,3/7/24,2:55:00 AM,14,8.6,78.68,310,8,0,29.9,M,M,CLR,M,M,M,M,M,M,1.94
0CO,3/7/24,3:55:00 AM,14,5,66.82,310,8,0,29.9,M,M,SCT,BKN,BKN,M,6000,6500,10000,1.94
0CO,3/7/24,4:55:00 AM,14,6.8,72.53,320,11,0,29.89,M,M,BKN,BKN,OVC,M,5500,7500,12000,-0.28
0CO,3/7/24,5:55:00 AM,14,8.6,78.68,310,6,0,29.88,M,M,SCT,BKN,OVC,M,800,1400,2700,3.85
0CO,3/7/24,6:55:00 AM,12.2,10.4,92.32,160,8,0,29.87,M,M,OVC,M,M,M,1300,M,M,-0.28
0CO,3/7/24,7:55:00 AM,12.2,10.4,92.32,160,9,0,29.86,M,M,M,M,M,M,M,M,M,-1.11
0CO,3/7/24,8:55:00 AM,12.2,10.4,92.32,180,8,0,29.84,M,M,M,M,M,M,M,M,M,-0.28
0CO,3/7/24,9:55:00 AM,12.2,8.6,85.17,0,0,0,29.82,M,M,SCT,SCT,OVC,M,1800,2800,6000,12.2
0CO,3/7/24,10:55:00 AM,12.2,8.6,85.17,240,9,0,29.81,M,M,BKN,OVC,M,M,2900,3500,M,-1.11
0CO,3/7/24,11:55:00 AM,12.2,8.6,85.17,260,12,0,29.8,M,M,M,M,M,M,M,M,M,-3.2
0CO,3/7/24,12:55:00 PM,10.4,8.6,92.25,250,10,0,29.79,M,M,M,M,M,M,M,M,M,-4.12
0CO,3/7/24,1:55:00 PM,12.2,8.6,85.17,260,15,0,29.8,M,M,OVC,M,M,M,2300,M,M,-4.89
0CO,3/7/24,2:55:00 PM,12.2,6.8,78.51,250,12,0,29.81,M,15,SCT,SCT,M,M,4600,5000,M,-3.2
0CO,3/7/24,3:55:00 PM,14,6.8,72.53,260,12,0,29.81,M,M,BKN,M,M,M,1800,M,M,-0.91
0CO,3/7/24,4:55:00 PM,14,8.6,78.68,270,8,0,29.81,M,M,OVC,M,M,M,1800,M,M,1.94
0CO,3/7/24,5:55:00 PM,15.8,5,61.77,270,10,0,29.81,M,M,SCT,SCT,BKN,M,900,1800,2900,2.65
0CO,3/7/24,6:55:00 PM,17.6,12.2,79,340,6,0,29.79,M,M,M,M,M,M,M,M,M,8.19
0CO,3/7/24,7:55:00 PM,14,12.2,92.38,330,8,0,29.77,M,M,M,M,M,M,M,M,M,1.94
0CO,3/8/24,8:55:00 PM,15.8,14,92.44,320,8,0,29.76,M,M,OVC,M,M,M,100,M,M,4.16
0CO,3/8/24,9:55:00 PM,15.8,14,92.44,360,3,0.01,29.78,M,M,OVC,M,M,M,100,M,M,10.17
0CO,3/8/24,10:55:00 PM,14,12.2,92.38,360,6,0.01,29.79,M,M,BKN,BKN,OVC,M,400,900,1400,3.85
0CO,3/8/24,11:55:00 PM,14,12.2,92.38,350,6,0.04,29.81,M,M,OVC,M,M,M,200,M,M,3.85
0CO,3/8/24,12:55:00 AM,14,10.4,85.28,340,6,0,29.83,M,M,BKN,OVC,M,M,200,1200,M,3.85
0CO,3/8/24,1:55:00 AM,12.2,10.4,92.32,320,4,0.01,29.84,M,M,M,M,M,M,M,M,M,4.3
0CO,3/8/24,2:55:00 AM,12.2,10.4,92.32,350,5,0.01,29.86,M,M,BKN,OVC,M,M,100,600,M,2.88
0CO,3/8/24,3:55:00 AM,12.2,10.4,92.32,340,4,0.02,29.87,M,M,OVC,M,M,M,100,M,M,4.3
0CO,3/8/24,4:55:00 AM,12.2,8.6,85.17,280,3,0.01,29.87,M,M,OVC,M,M,M,100,M,M,6.05
0CO,3/8/24,5:55:00 AM,12.2,8.6,85.17,330,5,0,29.89,M,M,OVC,M,M,M,100,M,M,2.88
0CO,3/8/24,6:55:00 AM,12.2,8.6,85.17,320,4,0,29.89,M,M,BKN,OVC,M,M,100,1700,M,4.3
0CO,3/8/24,7:55:00 AM,10.4,8.6,92.25,280,7,0,29.9,M,M,BKN,BKN,OVC,M,200,700,1600,-1.55
0CO,3/8/24,8:55:00 AM,10.4,8.6,92.25,330,5,0,29.9,M,M,M,M,M,M,M,M,M,0.74
0CO,3/8/24,9:55:00 AM,10.4,6.8,85.05,330,9,0,29.9,M,M,M,M,M,M,M,M,M,-3.34
0CO,3/8/24,10:55:00 AM,10.4,6.8,85.05,320,10,0,29.9,M,M,OVC,M,M,M,2300,M,M,-4.12
0CO,3/8/24,11:55:00 AM,10.4,6.8,85.05,330,7,0,29.92,M,M,M,M,M,M,M,M,M,-1.55
0CO,3/8/24,12:55:00 PM,8.6,5,84.93,330,4,0,29.92,M,M,M,M,M,M,M,M,M,0.09
0CO,3/8/24,1:55:00 PM,8.6,6.8,92.19,260,12,0,29.94,M,M,M,M,M,M,M,M,M,-7.78
0CO,3/8/24,2:55:00 PM,10.4,6.8,85.05,330,7,0.02,29.96,M,M,OVC,M,M,M,300,M,M,-1.55
0CO,3/8/24,3:55:00 PM,10.4,6.8,85.05,180,3,0,29.97,M,M,BKN,OVC,M,M,100,600,M,4
0CO,3/8/24,4:55:00 PM,10.4,6.8,85.05,170,7,0.01,29.98,M,M,OVC,M,M,M,300,M,M,-1.55
0CO,3/8/24,5:55:00 PM,8.6,5,84.93,130,8,0.01,30,M,M,OVC,M,M,M,100,M,M,-4.71
0CO,3/8/24,6:55:00 PM,8.6,5,84.93,160,7,0.01,30,M,M,OVC,M,M,M,100,M,M,-3.74
0CO,3/8/24,7:55:00 PM,8.6,5,84.93,170,6,0,29.99,M,M,OVC,M,M,M,300,M,M,-2.65
0CO,3/9/24,8:55:00 PM,8.6,5,84.93,150,7,0.01,30,M,M,OVC,M,M,M,100,M,M,-3.74
0CO,3/9/24,9:55:00 PM,8.6,5,84.93,160,5,0.01,30,M,M,OVC,M,M,M,300,M,M,-1.39
0CO,3/9/24,10:55:00 PM,8.6,5,84.93,160,6,0.02,30.03,M,M,OVC,M,M,M,300,M,M,-2.65
0CO,3/9/24,11:55:00 PM,8.6,5,84.93,50,4,0.01,30.05,M,M,OVC,M,M,M,100,M,M,0.09
0CO,3/9/24,12:55:00 AM,8.6,5,84.93,350,7,0,30.07,M,M,BKN,OVC,M,M,100,800,M,-3.74
0CO,3/9/24,1:55:00 AM,8.6,5,84.93,360,5,0,30.08,M,M,BKN,OVC,M,M,100,600,M,-1.39
0CO,3/9/24,2:55:00 AM,8.6,5,84.93,350,9,0,30.09,M,M,OVC,M,M,M,200,M,M,-5.58
0CO,3/9/24,3:55:00 AM,6.8,3.2,84.8,330,7,0,30.1,M,M,OVC,M,M,M,200,M,M,-5.94
0CO,3/9/24,4:55:00 AM,6.8,3.2,84.8,350,10,0,30.11,M,M,OVC,M,M,M,200,M,M,-8.63
0CO,3/9/24,5:55:00 AM,5,3.2,92.06,360,9,0,30.11,M,16,OVC,M,M,M,200,M,M,-10.06
0CO,3/9/24,6:55:00 AM,3.2,1.4,91.99,330,13,0,30.11,M,M,OVC,M,M,M,200,M,M,-15.33
0CO,3/9/24,7:55:00 AM,3.2,-0.4,84.56,330,12,0,30.11,M,M,M,M,M,M,M,M,M,-14.65
0CO,3/9/24,8:55:00 AM,3.2,1.4,91.99,340,12,0,30.11,M,17,M,M,M,M,M,M,M,-14.65
0CO,3/9/24,9:55:00 AM,3.2,-0.4,84.56,340,14,0,30.09,M,18,BKN,M,M,M,100,M,M,-15.96
0CO,3/9/24,10:55:00 AM,3.2,-0.4,84.56,340,14,0,30.1,M,19,BKN,M,M,M,100,M,M,-15.96
0CO,3/9/24,11:55:00 AM,3.2,-0.4,84.56,350,8,0,30.1,M,16,M,M,M,M,M,M,M,-11.36
0CO,3/9/24,12:55:00 PM,3.2,-0.4,84.56,350,11,0,30.11,M,16,M,M,M,M,M,M,M,-13.93
0CO,3/9/24,1:55:00 PM,3.2,-0.4,84.56,350,7,0,30.13,M,M,M,M,M,M,M,M,M,-10.33
0CO,3/9/24,2:55:00 PM,3.2,-0.4,84.56,350,9,0,30.16,M,M,M,M,M,M,M,M,M,-12.3
0CO,3/9/24,3:55:00 PM,5,1.4,84.68,10,5,0,30.19,M,M,M,M,M,M,M,M,M,-5.67
0CO,3/9/24,4:55:00 PM,6.8,-0.4,71.71,340,8,0,30.19,M,M,CLR,M,M,M,M,M,M,-6.93
0CO,3/9/24,5:55:00 PM,12.2,1.4,61.25,340,12,0,30.19,M,17,CLR,M,M,M,M,M,M,-3.2
0CO,3/9/24,6:55:00 PM,14,3.2,61.51,350,11,0,30.19,M,18,CLR,M,M,M,M,M,M,-0.28
0CO,3/9/24,7:55:00 PM,14,6.8,72.53,330,7,0,30.19,M,M,CLR,M,M,M,M,M,M,2.84
0CO,3/10/24,8:55:00 PM,15.8,8.6,72.73,350,10,0,30.18,M,18,CLR,M,M,M,M,M,M,2.65
0CO,3/10/24,9:55:00 PM,15.8,10.4,78.84,340,12,0,30.18,M,17,CLR,M,M,M,M,M,M,1.38
0CO,3/10/24,10:55:00 PM,15.8,8.6,72.73,340,14,0,30.17,M,20,CLR,M,M,M,M,M,M,0.28
0CO,3/10/24,11:55:00 PM,14,5,66.82,320,12,0,30.18,M,M,CLR,M,M,M,M,M,M,-0.91
0CO,3/10/24,12:55:00 AM,12.2,-0.4,56.3,330,15,0,30.17,M,M,CLR,M,M,M,M,M,M,-4.89
0CO,3/10/24,1:55:00 AM,14,-4,43.85,320,17,0,30.18,M,M,CLR,M,M,M,M,M,M,-3.51
0CO,3/10/24,2:55:00 AM,14,-4,43.85,320,19,0,30.18,M,M,CLR,M,M,M,M,M,M,-4.37
0CO,3/10/24,3:55:00 AM,12.2,-5.8,43.53,330,16,0,30.19,M,M,CLR,M,M,M,M,M,M,-5.39
0CO,3/10/24,4:55:00 AM,12.2,-5.8,43.53,340,18,0,30.19,M,28,CLR,M,M,M,M,M,M,-6.32
0CO,3/10/24,5:55:00 AM,12.2,-7.6,39.89,330,17,0,30.19,M,24,CLR,M,M,M,M,M,M,-5.86
0CO,3/10/24,6:55:00 AM,14,-9.4,33.74,330,15,0,30.2,M,21,CLR,M,M,M,M,M,M,-2.56
0CO,3/10/24,7:55:00 AM,14,-13,28.22,330,18,0,30.2,M,28,CLR,M,M,M,M,M,M,-3.95
0CO,3/10/24,8:55:00 AM,12.2,-9.4,36.53,320,19,0,30.19,M,26,CLR,M,M,M,M,M,M,-6.75
0CO,3/10/24,9:55:00 AM,12.2,-7.6,39.89,330,20,0,30.17,M,29,CLR,M,M,M,M,M,M,-7.16
0CO,3/10/24,10:55:00 AM,12.2,-14.8,27.91,330,18,0,30.17,M,M,CLR,M,M,M,M,M,M,-6.32
0CO,3/10/24,11:55:00 AM,12.2,-14.8,27.91,340,14,0,30.19,M,23,CLR,M,M,M,M,M,M,-4.36
0CO,3/10/24,12:55:00 PM,12.2,-11.2,33.42,330,16,0,30.2,M,20,CLR,M,M,M,M,M,M,-5.39
0CO,3/10/24,1:55:00 PM,14,-9.4,33.74,340,15,0,30.2,M,22,CLR,M,M,M,M,M,M,-2.56
0CO,3/10/24,2:55:00 PM,17.6,-14.8,22.05,340,8,0,30.22,M,21,CLR,M,M,M,M,M,M,6.37
0CO,3/10/24,3:55:00 PM,17.6,-9.4,28.86,330,16,0,30.22,M,27,CLR,M,M,M,M,M,M,1.65
0CO,3/10/24,4:55:00 PM,19.4,-5.8,31.83,320,15,0,30.22,M,23,CLR,M,M,M,M,M,M,4.45
0CO,3/10/24,5:55:00 PM,21.2,-4,32.15,320,13,0,30.22,M,21,CLR,M,M,M,M,M,M,7.73
0CO,3/10/24,6:55:00 PM,23,-4,29.8,270,16,0,30.24,M,22,CLR,M,M,M,M,M,M,8.69
0CO,3/10/24,7:55:00 PM,21.2,-0.4,38.13,300,8,0,30.22,M,18,CLR,M,M,M,M,M,M,10.81
0CO,3/11/24,8:55:00 PM,21.2,5,48.99,310,5,0,30.22,M,M,CLR,M,M,M,M,M,M,13.57
0CO,3/11/24,9:55:00 PM,23,3.2,41.8,280,13,0,30.22,M,M,CLR,M,M,M,M,M,M,10.04
0CO,3/11/24,10:55:00 PM,26.6,-5.8,23.52,290,17,0,30.2,M,27,CLR,M,M,M,M,M,M,13
0CO,3/11/24,11:55:00 PM,24.8,-4,27.63,270,17,0,30.19,M,M,CLR,M,M,M,M,M,M,10.64
0CO,3/11/24,12:55:00 AM,23,-9.4,22.93,250,10,0,30.21,M,18,CLR,M,M,M,M,M,M,11.68
0CO,3/11/24,1:55:00 AM,21.2,-9.4,24.74,240,8,0,30.21,M,17,CLR,M,M,M,M,M,M,10.81
0CO,3/11/24,2:55:00 AM,21.2,-9.4,24.74,240,9,0,30.21,M,15,CLR,M,M,M,M,M,M,10.08
0CO,3/11/24,3:55:00 AM,23,-16.6,15.99,260,14,0,30.21,M,19,CLR,M,M,M,M,M,M,9.56
0CO,3/11/24,4:55:00 AM,21.2,-14.8,18.9,280,16,0,30.19,M,22,CLR,M,M,M,M,M,M,6.34
0CO,3/11/24,5:55:00 AM,21.2,-18.4,15.73,290,17,0,30.17,M,23,CLR,M,M,M,M,M,M,5.93
0CO,3/11/24,6:55:00 AM,21.2,-16.6,17.25,310,17,0,30.15,M,21,CLR,M,M,M,M,M,M,5.93
0CO,3/11/24,7:55:00 AM,19.4,-18.4,16.98,290,22,0,30.13,M,29,CLR,M,M,M,M,M,M,1.71
0CO,3/11/24,8:55:00 AM,19.4,-13,22.34,300,24,0,30.11,M,30,CLR,M,M,M,M,M,M,1.06
0CO,3/11/24,9:55:00 AM,21.2,-18.4,15.73,290,26,0,30.1,M,32,CLR,M,M,M,M,M,M,2.9
0CO,3/11/24,10:55:00 AM,19.4,-14.8,20.41,310,22,0,30.08,M,29,CLR,M,M,M,M,M,M,1.71
0CO,3/11/24,11:55:00 AM,15.8,-11.2,28.54,310,19,0,30.08,M,23,CLR,M,M,M,M,M,M,-1.99
0CO,3/11/24,12:55:00 PM,19.4,-13,22.34,320,16,0,30.09,M,28,CLR,M,M,M,M,M,M,4
0CO,3/11/24,1:55:00 PM,19.4,-9.4,26.71,280,21,0,30.09,M,34,CLR,M,M,M,M,M,M,2.05
0CO,3/11/24,2:55:00 PM,17.6,-7.6,31.51,280,18,0,30.1,M,26,CLR,M,M,M,M,M,M,0.79
0CO,3/11/24,3:55:00 PM,19.4,-2.2,37.82,280,19,0,30.12,M,29,CLR,M,M,M,M,M,M,2.77
0CO,3/11/24,4:55:00 PM,21.2,1.4,41.49,290,11,0,30.12,M,21,CLR,M,M,M,M,M,M,8.82
0CO,3/11/24,5:55:00 PM,23,3.2,41.8,250,13,0,30.12,M,24,CLR,M,M,M,M,M,M,10.04
0CO,3/11/24,6:55:00 PM,23,5,45.41,280,13,0,30.12,M,19,CLR,M,M,M,M,M,M,10.04
0CO,3/11/24,7:55:00 PM,24.8,5,42.11,280,18,0,30.1,M,26,CLR,M,M,M,M,M,M,10.27
0CO,3/12/24,8:55:00 PM,26.6,6.8,42.42,260,12,0,30.09,M,24,SCT,SCT,SCT,M,5000,7000,9000,15.13
0CO,3/12/24,9:55:00 PM,28.4,5,36.29,250,14,0,30.09,M,26,SCT,M,M,M,6500,M,M,16.52
0CO,3/12/24,10:55:00 PM,23,10.4,57.96,320,9,0,30.09,M,15,OVC,M,M,M,6000,M,M,12.32
0CO,3/12/24,11:55:00 PM,23,8.6,53.47,300,7,0,30.08,M,17,SCT,OVC,M,M,4400,5000,M,13.81
0CO,3/12/24,12:55:00 AM,23,8.6,53.47,250,5,0,30.08,M,17,SCT,BKN,OVC,M,3600,4400,5000,15.71
0CO,3/12/24,1:55:00 AM,21.2,6.8,53.18,240,11,0,30.08,M,28,SCT,BKN,OVC,M,2500,3200,3900,8.82
0CO,3/12/24,2:55:00 AM,19.4,10.4,67.51,250,25,0,30.07,M,29,SCT,BKN,OVC,M,2100,3200,4900,0.75
0CO,3/12/24,3:55:00 AM,17.6,10.4,72.93,270,16,0,30.07,M,21,SCT,BKN,BKN,M,1800,2400,4800,1.65
0CO,3/12/24,4:55:00 AM,17.6,10.4,72.93,280,22,0,30.05,M,29,SCT,SCT,SCT,M,1900,2300,3400,-0.7
0CO,3/12/24,5:55:00 AM,15.8,8.6,72.73,290,23,0,30.03,M,35,CLR,M,M,M,M,M,M,-3.46
0CO,3/12/24,6:55:00 AM,15.8,10.4,78.84,290,23,0,30.03,M,30,SCT,SCT,BKN,M,600,1100,2000,-3.46
0CO,3/12/24,7:55:00 AM,14,12.2,92.38,320,17,0,30.03,M,31,M,M,M,M,M,M,M,-3.51
0CO,3/12/24,8:55:00 AM,14,12.2,92.38,330,23,0,30.01,M,33,BKN,BKN,OVC,M,100,600,1400,-5.88
0CO,3/12/24,9:55:00 AM,14,12.2,92.38,310,31,0,29.97,M,39,OVC,M,M,M,100,M,M,-8.34
0CO,3/12/24,10:55:00 AM,14,12.2,92.38,310,37,0,29.95,M,45,BKN,OVC,M,M,100,700,M,-9.86
0CO,3/12/24,11:55:00 AM,14,10.4,85.28,310,37,0,29.95,M,44,M,M,M,M,M,M,M,-9.86
0CO,3/12/24,12:55:00 PM,12.2,10.4,92.32,310,40,0,29.94,M,49,M,M,M,M,M,M,M,-13.08
0CO,3/12/24,1:55:00 PM,12.2,10.4,92.32,310,34,0,29.96,M,44,M,M,M,M,M,M,M,-11.63
0CO,3/12/24,2:55:00 PM,14,10.4,85.28,320,28,0,29.98,M,40,M,M,M,M,M,M,M,-7.49
0CO,3/12/24,3:55:00 PM,14,12.2,92.38,320,22,0,30.01,M,28,M,M,M,M,M,M,M,-5.52
0CO,3/12/24,4:55:00 PM,17.6,14,85.51,320,27,0,30.01,M,31,M,M,M,M,M,M,M,-2.28
0CO,3/12/24,5:55:00 PM,19.4,12.2,73.13,310,24,0,30.01,M,29,SCT,BKN,BKN,M,800,1600,2100,1.06
0CO,3/12/24,6:55:00 PM,21.2,14,73.32,320,23,0,30,M,29,SCT,BKN,BKN,M,400,700,1300,3.8
0CO,3/12/24,7:55:00 PM,21.2,14,73.32,320,12,0,30,M,23,BKN,M,M,M,9000,M,M,8.26
0CO,3/13/24,8:55:00 PM,23,14,67.96,290,10,0,30,M,16,BKN,BKN,OVC,M,2900,3500,7000,11.68
0CO,3/13/24,9:55:00 PM,21.2,14,73.32,280,7,0,30,M,15,SCT,SCT,OVC,M,2700,3700,6000,11.61
0CO,3/13/24,10:55:00 PM,21.2,12.2,67.73,330,9,0,29.99,M,17,BKN,BKN,OVC,M,2600,3500,4500,10.08
0CO,3/13/24,11:55:00 PM,19.4,14,79.16,270,6,0,29.99,M,14,SCT,BKN,OVC,M,1000,1600,2200,10.36
0CO,3/13/24,12:55:00 AM,17.6,15.8,92.5,320,7,0,29.98,M,M,M,M,M,M,M,M,M,7.23
0CO,3/13/24,1:55:00 AM,17.6,17.6,100,300,8,0,29.98,M,M,M,M,M,M,M,M,M,6.37
0CO,3/13/24,2:55:00 AM,17.6,15.8,92.5,310,7,0,29.97,M,M,M,M,M,M,M,M,M,7.23
0CO,3/13/24,3:55:00 AM,17.6,15.8,92.5,290,9,0,29.96,M,14,M,M,M,M,M,M,M,5.61
0CO,3/13/24,4:55:00 AM,17.6,15.8,92.5,210,4,0,29.95,M,M,OVC,M,M,M,700,M,M,10.6
0CO,3/13/24,5:55:00 AM,17.6,14,85.51,220,3,0.01,29.93,M,M,OVC,M,M,M,900,M,M,12.23
0CO,3/13/24,6:55:00 AM,17.6,14,85.51,220,4,0,29.9,M,M,M,M,M,M,M,M,M,10.6
0CO,3/13/24,7:55:00 AM,17.6,14,85.51,330,7,0,29.89,M,M,BKN,BKN,OVC,M,100,700,1400,7.23
0CO,3/13/24,8:55:00 AM,15.8,14,92.44,300,13,0.01,29.88,M,16,BKN,OVC,M,M,100,500,M,0.81
0CO,3/13/24,9:55:00 AM,15.8,14,92.44,310,15,0,29.85,M,20,OVC,M,M,M,100,M,M,-0.22
0CO,3/13/24,10:55:00 AM,14,12.2,92.38,320,14,0,29.84,M,20,BKN,OVC,M,M,100,700,M,-2.04
0CO,3/13/24,11:55:00 AM,14,12.2,92.38,310,14,0,29.84,M,21,BKN,OVC,M,M,100,600,M,-2.04
0CO,3/13/24,12:55:00 PM,14,12.2,92.38,350,8,0,29.82,M,14,OVC,M,M,M,100,M,M,1.94
0CO,3/13/24,1:55:00 PM,14,12.2,92.38,330,11,0,29.82,M,M,OVC,M,M,M,100,M,M,-0.28
0CO,3/13/24,2:55:00 PM,14,10.4,85.28,280,7,0,29.83,M,14,OVC,M,M,M,100,M,M,2.84
0CO,3/13/24,3:55:00 PM,14,12.2,92.38,290,5,0,29.84,M,M,M,M,M,M,M,M,M,5.02
0CO,3/13/24,4:55:00 PM,14,12.2,92.38,180,8,0,29.84,M,M,M,M,M,M,M,M,M,1.94
0CO,3/13/24,5:55:00 PM,15.8,14,92.44,190,9,0,29.83,M,17,M,M,M,M,M,M,M,3.37
0CO,3/13/24,6:55:00 PM,17.6,14,85.51,120,6,0,29.81,M,16,BKN,OVC,M,M,300,900,M,8.19
0CO,3/13/24,7:55:00 PM,17.6,14,85.51,190,7,0,29.79,M,16,BKN,OVC,M,M,500,900,M,7.23
0CO,3/14/24,8:55:00 PM,17.6,14,85.51,120,7,0.01,29.77,M,16,OVC,M,M,M,200,M,M,7.23
0CO,3/14/24,9:55:00 PM,17.6,14,85.51,110,20,0,29.76,M,26,OVC,M,M,M,200,M,M,0.01
0CO,3/14/24,10:55:00 PM,15.8,14,92.44,140,7,0,29.79,M,20,OVC,M,M,M,200,M,M,5.03
0CO,3/14/24,11:55:00 PM,15.8,14,92.44,320,9,0.05,29.81,M,M,OVC,M,M,M,200,M,M,3.37
0CO,3/14/24,12:55:00 AM,14,12.2,92.38,M,M,0.1,29.83,M,M,OVC,M,M,M,200,M,M,M
0CO,3/14/24,1:55:00 AM,14,10.4,85.28,M,M,0.05,29.83,M,M,OVC,M,M,M,200,M,M,M
0CO,3/14/24,2:55:00 AM,12.2,8.6,85.17,M,M,0.05,29.84,M,M,OVC,M,M,M,200,M,M,M
0CO,3/14/24,3:55:00 AM,12.2,8.6,85.17,M,M,0.06,29.84,M,M,OVC,M,M,M,200,M,M,M
0CO,3/14/24,4:55:00 AM,12.2,8.6,85.17,M,M,0.1,29.84,M,M,OVC,M,M,M,400,M,M,M
0CO,3/14/24,5:55:00 AM,12.2,8.6,85.17,M,M,0.02,29.83,M,M,OVC,M,M,M,200,M,M,M
0CO,3/14/24,6:55:00 AM,10.4,8.6,92.25,M,M,0.08,29.84,M,M,OVC,M,M,M,200,M,M,M
0CO,3/14/24,7:55:00 AM,12.2,8.6,85.17,M,M,0.03,29.86,M,M,OVC,M,M,M,200,M,M,M
0CO,3/14/24,8:55:00 AM,12.2,8.6,85.17,M,M,0.02,29.85,M,M,OVC,M,M,M,200,M,M,M
0CO,3/14/24,9:55:00 AM,10.4,8.6,92.25,M,M,0,29.83,M,M,OVC,M,M,M,200,M,M,M
0CO,3/14/24,10:55:00 AM,10.4,6.8,85.05,M,M,0,29.87,M,M,M,M,M,M,M,M,M,M
0CO,3/14/24,11:55:00 AM,8.6,3.2,78.18,M,M,0,29.89,M,M,OVC,M,M,M,200,M,M,M
0CO,3/14/24,12:55:00 PM,5,1.4,84.68,M,M,0,29.92,M,M,M,M,M,M,M,M,M,M
0CO,3/14/24,1:55:00 PM,6.8,3.2,84.8,M,M,0,29.91,M,M,BKN,OVC,M,M,300,700,M,M
0CO,3/14/24,2:55:00 PM,6.8,3.2,84.8,M,M,0,29.96,M,M,BKN,OVC,M,M,300,700,M,M
0CO,3/14/24,3:55:00 PM,8.6,5,84.93,M,M,0,29.97,M,M,OVC,M,M,M,300,M,M,M
0CO,3/14/24,4:55:00 PM,8.6,5,84.93,100,30,0,30,M,55,OVC,M,M,M,300,M,M,-15.49
0CO,3/14/24,5:55:00 PM,8.6,5,84.93,110,27,0,30,M,51,OVC,M,M,M,300,M,M,-14.55
0CO,3/14/24,6:55:00 PM,8.6,5,84.93,110,33,0,30.01,M,47,OVC,M,M,M,300,M,M,-16.36
0CO,3/14/24,7:55:00 PM,10.4,6.8,85.05,110,38,0,30.01,M,45,BKN,OVC,M,M,100,600,M,-15.15
0CO,3/15/24,8:55:00 PM,10.4,6.8,85.05,110,29,0,30.01,M,44,OVC,M,M,M,200,M,M,-12.72
0CO,3/15/24,9:55:00 PM,10.4,6.8,85.05,110,32,0,30.01,M,46,OVC,M,M,M,200,M,M,-13.59
0CO,3/15/24,10:55:00 PM,8.6,5,84.93,110,30,0,30.04,M,38,OVC,M,M,M,200,M,M,-15.49
0CO,3/15/24,11:55:00 PM,8.6,5,84.93,120,32,0,30.04,M,45,OVC,M,M,M,200,M,M,-16.08
0CO,3/15/24,12:55:00 AM,8.6,5,84.93,110,33,0,30.07,M,42,OVC,M,M,M,200,M,M,-16.36
0CO,3/15/24,1:55:00 AM,10.4,6.8,85.05,130,25,0,30.11,M,35,OVC,M,M,M,200,M,M,-11.43
0CO,3/15/24,2:55:00 AM,10.4,6.8,85.05,100,28,0,30.14,M,36,OVC,M,M,M,200,M,M,-12.41
0CO,3/15/24,3:55:00 AM,10.4,6.8,85.05,100,29,0,30.15,M,40,OVC,M,M,M,200,M,M,-12.72
0CO,3/15/24,4:55:00 AM,10.4,6.8,85.05,M,M,0,30.16,M,M,OVC,M,M,M,200,M,M,M
0CO,3/15/24,5:55:00 AM,10.4,6.8,85.05,100,32,0,30.15,M,M,OVC,M,M,M,200,M,M,-13.59
0CO,3/15/24,6:55:00 AM,8.6,5,84.93,110,35,0,30.16,M,39,OVC,M,M,M,200,M,M,-16.91
0CO,3/15/24,7:55:00 AM,8.6,5,84.93,110,36,0,30.15,M,43,OVC,M,M,M,200,M,M,-17.17
0CO,3/15/24,8:55:00 AM,8.6,3.2,78.18,110,32,0,30.16,M,36,OVC,M,M,M,200,M,M,-16.08
0CO,3/15/24,9:55:00 AM,6.8,3.2,84.8,120,28,0,30.17,M,32,OVC,M,M,M,200,M,M,-17.33
0CO,3/15/24,10:55:00 AM,8.6,5,84.93,130,31,0,30.17,M,39,OVC,M,M,M,200,M,M,-15.79
0CO,3/15/24,11:55:00 AM,8.6,5,84.93,130,31,0,30.19,M,41,M,M,M,M,M,M,M,-15.79
0CO,3/15/24,12:55:00 PM,8.6,5,84.93,140,28,0,30.2,M,M,M,M,M,M,M,M,M,-14.87
0CO,3/15/24,1:55:00 PM,10.4,6.8,85.05,130,31,0.01,30.2,M,35,M,M,M,M,M,M,M,-13.31
0CO,3/15/24,2:55:00 PM,10.4,8.6,92.25,140,22,0,30.22,M,M,BKN,BKN,OVC,M,1400,1900,2900,-10.35
0CO,3/15/24,3:55:00 PM,12.2,8.6,85.17,170,12,0.01,30.22,M,22,M,M,M,M,M,M,M,-3.2
0CO,3/15/24,4:55:00 PM,14,12.2,92.38,180,10,0,30.21,M,16,M,M,M,M,M,M,M,0.4
0CO,3/15/24,5:55:00 PM,17.6,14,85.51,170,13,0,30.22,M,M,M,M,M,M,M,M,M,3.12
0CO,3/15/24,6:55:00 PM,17.6,15.8,92.5,250,17,0,30.21,M,24,M,M,M,M,M,M,M,1.21
0CO,3/15/24,7:55:00 PM,21.2,19.4,92.63,200,5,0,30.22,M,M,M,M,M,M,M,M,M,13.57
0CO,3/16/24,8:55:00 PM,21.2,19.4,92.63,260,7,0,30.19,M,15,M,M,M,M,M,M,M,11.61
0CO,3/16/24,9:55:00 PM,21.2,21.2,100,250,9,0,30.19,M,17,M,M,M,M,M,M,M,10.08
0CO,3/16/24,10:55:00 PM,21.2,19.4,92.63,250,7,0,30.18,M,14,M,M,M,M,M,M,M,11.61
0CO,3/16/24,11:55:00 PM,21.2,19.4,92.63,240,7,0,30.17,M,14,OVC,M,M,M,8500,M,M,11.61
0CO,3/16/24,12:55:00 AM,21.2,19.4,92.63,340,9,0,30.17,M,15,OVC,M,M,M,9000,M,M,10.08
0CO,3/16/24,1:55:00 AM,19.4,17.6,92.57,350,9,0,30.17,M,M,M,M,M,M,M,M,M,7.85
0CO,3/16/24,2:55:00 AM,17.6,15.8,92.5,0,0,0,30.18,M,M,M,M,M,M,M,M,M,17.6
0CO,3/16/24,3:55:00 AM,19.4,15.8,85.63,0,0,0,30.19,M,M,M,M,M,M,M,M,M,19.4
0CO,3/16/24,4:55:00 AM,17.6,15.8,92.5,0,0,0,30.19,M,M,M,M,M,M,M,M,M,17.6
0CO,3/16/24,5:55:00 AM,19.4,15.8,85.63,100,7,0,30.19,M,M,M,M,M,M,M,M,M,9.42
0CO,3/16/24,6:55:00 AM,17.6,15.8,92.5,130,9,0,30.19,M,14,M,M,M,M,M,M,M,5.61
0CO,3/16/24,7:55:00 AM,17.6,14,85.51,120,12,0,30.19,M,20,OVC,M,M,M,100,M,M,3.67
0CO,3/16/24,8:55:00 AM,15.8,14,92.44,130,12,0,30.18,M,16,BKN,OVC,M,M,100,1400,M,1.38
0CO,3/16/24,9:55:00 AM,14,12.2,92.38,130,14,0,30.17,M,20,BKN,OVC,M,M,1600,2000,M,-2.04
0CO,3/16/24,10:55:00 AM,12.2,10.4,92.32,120,10,0,30.14,M,18,M,M,M,M,M,M,M,-1.86
0CO,3/16/24,11:55:00 AM,12.2,10.4,92.32,130,21,0,30.14,M,M,M,M,M,M,M,M,M,-7.55
0CO,3/16/24,12:55:00 PM,10.4,8.6,92.25,120,27,0,30.13,M,M,M,M,M,M,M,M,M,-12.1
0CO,3/16/24,1:55:00 PM,10.4,8.6,92.25,120,31,0,30.14,M,36,OVC,M,M,M,100,M,M,-13.31
0CO,3/16/24,2:55:00 PM,10.4,6.8,85.05,140,32,0,30.15,M,38,OVC,M,M,M,100,M,M,-13.59
0CO,3/16/24,3:55:00 PM,10.4,8.6,92.25,120,31,0,30.15,M,41,OVC,M,M,M,100,M,M,-13.31
0CO,3/16/24,4:55:00 PM,12.2,8.6,85.17,130,32,0,30.17,M,40,OVC,M,M,M,100,M,M,-11.1
0CO,3/16/24,5:55:00 PM,14,10.4,85.28,140,27,0,30.17,M,32,OVC,M,M,M,100,M,M,-7.19
0CO,3/16/24,6:55:00 PM,14,12.2,92.38,140,30,0,30.15,M,M,M,M,M,M,M,M,M,-8.07
0CO,3/16/24,7:55:00 PM,15.8,14,92.44,140,22,0,30.14,M,29,M,M,M,M,M,M,M,-3.11
0CO,3/17/24,8:55:00 PM,17.6,14,85.51,140,20,0,30.12,M,29,M,M,M,M,M,M,M,0.01
0CO,3/17/24,9:55:00 PM,19.4,17.6,92.57,130,12,0,30.12,M,25,OVC,M,M,M,500,M,M,5.97
0CO,3/17/24,10:55:00 PM,17.6,15.8,92.5,130,25,0,30.11,M,31,OVC,M,M,M,100,M,M,-1.68
0CO,3/17/24,11:55:00 PM,17.6,14,85.51,110,18,0,30.12,M,26,OVC,M,M,M,100,M,M,0.79
0CO,3/17/24,12:55:00 AM,14,12.2,92.38,120,17,0,30.13,M,M,OVC,M,M,M,100,M,M,-3.51
0CO,3/17/24,1:55:00 AM,12.2,10.4,92.32,100,27,0,30.12,M,36,OVC,M,M,M,100,M,M,-9.64
0CO,3/17/24,2:55:00 AM,12.2,10.4,92.32,110,29,0,30.14,M,36,OVC,M,M,M,100,M,M,-10.25
0CO,3/17/24,3:55:00 AM,12.2,10.4,92.32,M,M,0,30.15,M,M,OVC,M,M,M,100,M,M,M
0CO,3/17/24,4:55:00 AM,12.2,10.4,92.32,M,M,0,30.17,M,M,OVC,M,M,M,100,M,M,M
0CO,3/17/24,5:55:00 AM,12.2,8.6,85.17,120,21,0,30.17,M,M,OVC,M,M,M,100,M,M,-7.55
0CO,3/17/24,6:55:00 AM,10.4,8.6,92.25,130,24,0,30.17,M,M,OVC,M,M,M,100,M,M,-11.08
0CO,3/17/24,7:55:00 AM,10.4,8.6,92.25,100,15,0,30.17,M,22,OVC,M,M,M,100,M,M,-7.22
0CO,3/17/24,8:55:00 AM,10.4,8.6,92.25,120,17,0,30.17,M,M,M,M,M,M,M,M,M,-8.22
0CO,3/17/24,9:55:00 AM,12.2,8.6,85.17,130,18,0,30.15,M,23,OVC,M,M,M,100,M,M,-6.32
0CO,3/17/24,10:55:00 AM,10.4,8.6,92.25,120,16,0,30.15,M,22,OVC,M,M,M,100,M,M,-7.74
0CO,3/17/24,11:55:00 AM,10.4,8.6,92.25,M,M,0,30.14,M,M,OVC,M,M,M,100,M,M,M
0CO,3/17/24,12:55:00 PM,10.4,8.6,92.25,M,M,0,30.15,M,M,OVC,M,M,M,100,M,M,M
0CO,3/17/24,1:55:00 PM,10.4,8.6,92.25,M,M,0,30.16,M,M,OVC,M,M,M,100,M,M,M
0CO,3/17/24,2:55:00 PM,12.2,8.6,85.17,120,16,0,30.17,M,M,OVC,M,M,M,100,M,M,-5.39
0CO,3/17/24,3:55:00 PM,12.2,10.4,92.32,130,23,0,30.19,M,M,OVC,M,M,M,100,M,M,-8.3
0CO,3/17/24,4:55:00 PM,12.2,10.4,92.32,M,M,0,30.21,M,M,OVC,M,M,M,100,M,M,M
0CO,3/17/24,5:55:00 PM,14,12.2,92.38,120,6,0,30.21,M,M,OVC,M,M,M,100,M,M,3.85
0CO,3/17/24,6:55:00 PM,14,12.2,92.38,130,9,0.14,30.21,M,17,OVC,M,M,M,100,M,M,1.13
0CO,3/17/24,7:55:00 PM,15.8,12.2,85.4,130,7,0.07,30.2,M,16,OVC,M,M,M,300,M,M,5.03
0CO,3/18/24,8:55:00 PM,17.6,14,85.51,170,8,0,30.19,M,17,BKN,BKN,OVC,M,500,1000,2100,6.37
0CO,3/18/24,9:55:00 PM,17.6,14,85.51,200,7,0,30.19,M,M,M,M,M,M,M,M,M,7.23
0CO,3/18/24,10:55:00 PM,17.6,15.8,92.5,240,5,0,30.19,M,M,M,M,M,M,M,M,M,9.29
0CO,3/18/24,11:55:00 PM,17.6,14,85.51,330,7,0.08,30.19,M,16,BKN,OVC,M,M,1400,1900,M,7.23
0CO,3/18/24,12:55:00 AM,15.8,14,92.44,340,8,0,30.2,M,M,OVC,M,M,M,2700,M,M,4.16
0CO,3/18/24,1:55:00 AM,15.8,14,92.44,350,8,0,30.22,M,M,OVC,M,M,M,300,M,M,4.16
0CO,3/18/24,2:55:00 AM,15.8,12.2,85.4,360,7,0,30.24,M,M,OVC,M,M,M,100,M,M,5.03
0CO,3/18/24,3:55:00 AM,14,12.2,92.38,320,9,0,30.25,M,M,BKN,OVC,M,M,100,600,M,1.13
0CO,3/18/24,4:55:00 AM,14,12.2,92.38,360,6,0,30.26,M,M,OVC,M,M,M,100,M,M,3.85
0CO,3/18/24,5:55:00 AM,12.2,10.4,92.32,340,10,0,30.26,M,M,M,M,M,M,M,M,M,-1.86
0CO,3/18/24,6:55:00 AM,12.2,10.4,92.32,10,5,0,30.27,M,M,BKN,M,M,M,100,M,M,2.88
0CO,3/18/24,7:55:00 AM,12.2,8.6,85.17,350,8,0,30.27,M,M,OVC,M,M,M,100,M,M,-0.28
0CO,3/18/24,8:55:00 AM,12.2,8.6,85.17,350,9,0,30.26,M,15,OVC,M,M,M,100,M,M,-1.11
0CO,3/18/24,9:55:00 AM,10.4,8.6,92.25,340,9,0,30.26,M,M,BKN,M,M,M,100,M,M,-3.34
0CO,3/18/24,10:55:00 AM,10.4,8.6,92.25,340,13,0,30.26,M,M,M,M,M,M,M,M,M,-6.1
0CO,3/18/24,11:55:00 AM,10.4,8.6,92.25,350,7,0,30.28,M,M,M,M,M,M,M,M,M,-1.55
0CO,3/18/24,12:55:00 PM,10.4,8.6,92.25,360,8,0,30.29,M,M,M,M,M,M,M,M,M,-2.49
0CO,3/18/24,1:55:00 PM,12.2,8.6,85.17,340,9,0,30.31,M,M,M,M,M,M,M,M,M,-1.11
0CO,3/18/24,2:55:00 PM,12.2,8.6,85.17,10,6,0,30.32,M,M,M,M,M,M,M,M,M,1.68
0CO,3/18/24,3:55:00 PM,14,12.2,92.38,20,4,0,30.34,M,M,M,M,M,M,M,M,M,6.4
0CO,3/18/24,4:55:00 PM,17.6,14,85.51,70,7,0,30.35,M,M,M,M,M,M,M,M,M,7.23
0CO,3/18/24,5:55:00 PM,21.2,17.6,85.74,70,3,0,30.36,M,M,M,M,M,M,M,M,M,16.34
0CO,3/18/24,6:55:00 PM,21.2,15.8,79.31,130,3,0,30.35,M,M,CLR,M,M,M,M,M,M,16.34
0CO,3/18/24,7:55:00 PM,21.2,17.6,85.74,0,0,0,30.34,M,M,CLR,M,M,M,M,M,M,21.2
0CO,3/19/24,8:55:00 PM,23,17.6,79.47,350,7,0,30.33,M,M,CLR,M,M,M,M,M,M,13.81
0CO,3/19/24,9:55:00 PM,24.8,17.6,73.7,310,4,0,30.33,M,M,CLR,M,M,M,M,M,M,19.01
0CO,3/19/24,10:55:00 PM,24.8,14,63.03,340,8,0,30.34,M,15,CLR,M,M,M,M,M,M,15.24
0CO,3/19/24,11:55:00 PM,24.8,14,63.03,320,6,0,30.33,M,17,CLR,M,M,M,M,M,M,16.86
0CO,3/19/24,12:55:00 AM,23,10.4,57.96,340,8,0,30.33,M,17,CLR,M,M,M,M,M,M,13.03
0CO,3/19/24,1:55:00 AM,21.2,10.4,62.53,350,12,0,30.33,M,20,CLR,M,M,M,M,M,M,8.26
0CO,3/19/24,2:55:00 AM,19.4,8.6,62.28,360,3,0,30.34,M,M,CLR,M,M,M,M,M,M,14.28
0CO,3/19/24,3:55:00 AM,19.4,8.6,62.28,350,6,0,30.34,M,M,CLR,M,M,M,M,M,M,10.36
0CO,3/19/24,4:55:00 AM,19.4,8.6,62.28,350,6,0,30.33,M,14,CLR,M,M,M,M,M,M,10.36
0CO,3/19/24,5:55:00 AM,19.4,10.4,67.51,350,12,0,30.32,M,18,CLR,M,M,M,M,M,M,5.97
0CO,3/19/24,6:55:00 AM,19.4,8.6,62.28,340,12,0,30.31,M,17,CLR,M,M,M,M,M,M,5.97
0CO,3/19/24,7:55:00 AM,19.4,10.4,67.51,340,8,0,30.31,M,M,CLR,M,M,M,M,M,M,8.59
0CO,3/19/24,8:55:00 AM,19.4,8.6,62.28,350,8,0,30.29,M,14,CLR,M,M,M,M,M,M,8.59
0CO,3/19/24,9:55:00 AM,19.4,8.6,62.28,280,3,0,30.28,M,M,CLR,M,M,M,M,M,M,14.28
0CO,3/19/24,10:55:00 AM,19.4,10.4,67.51,230,3,0,30.27,M,M,CLR,M,M,M,M,M,M,14.28
0CO,3/19/24,11:55:00 AM,19.4,10.4,67.51,210,3,0,30.26,M,M,CLR,M,M,M,M,M,M,14.28
0CO,3/19/24,12:55:00 PM,19.4,5,52.89,340,9,0,30.25,M,M,CLR,M,M,M,M,M,M,7.85
0CO,3/19/24,1:55:00 PM,19.4,8.6,62.28,310,5,0,30.25,M,M,CLR,M,M,M,M,M,M,11.43
0CO,3/19/24,2:55:00 PM,21.2,5,48.99,300,5,0,30.25,M,M,CLR,M,M,M,M,M,M,13.57
0CO,3/19/24,3:55:00 PM,21.2,8.6,57.69,260,7,0,30.25,M,M,CLR,M,M,M,M,M,M,11.61
0CO,3/19/24,4:55:00 PM,23,10.4,57.96,0,0,0,30.26,M,M,CLR,M,M,M,M,M,M,23
0CO,3/19/24,5:55:00 PM,24.8,8.6,49.59,340,8,0,30.25,M,14,CLR,M,M,M,M,M,M,15.24
0CO,3/19/24,6:55:00 PM,26.6,8.6,46.02,320,10,0,30.23,M,15,CLR,M,M,M,M,M,M,16.2
0CO,3/19/24,7:55:00 PM,26.6,10.4,49.88,310,5,0,30.22,M,M,CLR,M,M,M,M,M,M,19.98
0CO,3/20/24,8:55:00 PM,24.8,8.6,49.59,320,11,0,30.19,M,20,CLR,M,M,M,M,M,M,13.37
0CO,3/20/24,9:55:00 PM,26.6,8.6,46.02,340,10,0,30.19,M,17,CLR,M,M,M,M,M,M,16.2
0CO,3/20/24,10:55:00 PM,24.8,5,42.11,360,6,0,30.19,M,M,CLR,M,M,M,M,M,M,16.86
0CO,3/20/24,11:55:00 PM,23,8.6,53.47,290,6,0,30.19,M,M,CLR,M,M,M,M,M,M,14.69
0CO,3/20/24,12:55:00 AM,21.2,8.6,57.69,0,0,0,30.19,M,M,CLR,M,M,M,M,M,M,21.2
0CO,3/20/24,1:55:00 AM,19.4,8.6,62.28,330,8,0,30.19,M,16,CLR,M,M,M,M,M,M,8.59
0CO,3/20/24,2:55:00 AM,19.4,8.6,62.28,330,9,0,30.19,M,16,CLR,M,M,M,M,M,M,7.85
0CO,3/20/24,3:55:00 AM,19.4,3.2,48.69,330,11,0,30.2,M,18,CLR,M,M,M,M,M,M,6.54
0CO,3/20/24,4:55:00 AM,19.4,5,52.89,320,11,0,30.2,M,M,CLR,M,M,M,M,M,M,6.54
0CO,3/20/24,5:55:00 AM,19.4,6.8,57.41,330,14,0,30.19,M,17,CLR,M,M,M,M,M,M,4.92
0CO,3/20/24,6:55:00 AM,19.4,-4,34.71,320,9,0,30.19,M,M,CLR,M,M,M,M,M,M,7.85
0CO,3/20/24,7:55:00 AM,17.6,3.2,52.6,340,8,0,30.19,M,M,CLR,M,M,M,M,M,M,6.37
0CO,3/20/24,8:55:00 AM,17.6,8.6,67.28,340,13,0,30.17,M,M,CLR,M,M,M,M,M,M,3.12
0CO,3/20/24,9:55:00 AM,17.6,14,85.51,340,15,0,30.15,M,M,M,M,M,M,M,M,M,2.11
0CO,3/20/24,10:55:00 AM,15.8,12.2,85.4,330,14,0,30.14,M,M,M,M,M,M,M,M,M,0.28
0CO,3/20/24,11:55:00 AM,17.6,10.4,72.93,320,12,0,30.15,M,M,CLR,M,M,M,M,M,M,3.67
0CO,3/20/24,12:55:00 PM,17.6,10.4,72.93,330,10,0,30.15,M,M,CLR,M,M,M,M,M,M,4.91
0CO,3/20/24,1:55:00 PM,17.6,10.4,72.93,320,14,0,30.15,M,M,CLR,M,M,M,M,M,M,2.6
0CO,3/20/24,2:55:00 PM,17.6,8.6,67.28,320,13,0,30.16,M,21,CLR,M,M,M,M,M,M,3.12
0CO,3/20/24,3:55:00 PM,19.4,8.6,62.28,340,10,0,30.17,M,16,CLR,M,M,M,M,M,M,7.17
0CO,3/20/24,4:55:00 PM,21.2,10.4,62.53,300,9,0,30.18,M,19,CLR,M,M,M,M,M,M,10.08
0CO,3/20/24,5:55:00 PM,23,12.2,62.78,290,8,0,30.18,M,14,SCT,M,M,M,3200,M,M,13.03
0CO,3/20/24,6:55:00 PM,26.6,14,58.49,30,5,0,30.17,M,M,BKN,M,M,M,3400,M,M,19.98
0CO,3/20/24,7:55:00 PM,24.8,10.4,53.75,280,8,0,30.15,M,17,SCT,M,M,M,4100,M,M,15.24
0CO,3/21/24,8:55:00 PM,23,10.4,57.96,310,7,0,30.13,M,15,SCT,SCT,M,M,3800,4600,M,13.81
0CO,3/21/24,9:55:00 PM,24.8,12.2,58.22,350,11,0,30.12,M,17,BKN,BKN,M,M,4300,4900,M,13.37
0CO,3/21/24,10:55:00 PM,24.8,10.4,53.75,330,9,0,30.13,M,17,SCT,M,M,M,4400,M,M,14.56
0CO,3/21/24,11:55:00 PM,26.6,10.4,49.88,290,12,0,30.13,M,17,SCT,BKN,M,M,4500,5000,M,15.13
0CO,3/21/24,12:55:00 AM,24.8,8.6,49.59,290,10,0,30.13,M,20,SCT,M,M,M,4300,M,M,13.94
0CO,3/21/24,1:55:00 AM,23,10.4,57.96,310,13,0,30.14,M,M,CLR,M,M,M,M,M,M,10.04
0CO,3/21/24,2:55:00 AM,19.4,10.4,67.51,330,14,0,30.14,M,17,CLR,M,M,M,M,M,M,4.92
0CO,3/21/24,3:55:00 AM,17.6,12.2,79,320,14,0,30.14,M,M,CLR,M,M,M,M,M,M,2.6
0CO,3/21/24,4:55:00 AM,17.6,10.4,72.93,330,15,0,30.14,M,M,SCT,M,M,M,3100,M,M,2.11
0CO,3/21/24,5:55:00 AM,17.6,8.6,67.28,320,17,0,30.13,M,22,CLR,M,M,M,M,M,M,1.21
0CO,3/21/24,6:55:00 AM,17.6,8.6,67.28,330,17,0,30.12,M,23,CLR,M,M,M,M,M,M,1.21
0CO,3/21/24,7:55:00 AM,17.6,8.6,67.28,320,16,0,30.12,M,M,CLR,M,M,M,M,M,M,1.65
0CO,3/21/24,8:55:00 AM,17.6,8.6,67.28,320,20,0,30.1,M,M,CLR,M,M,M,M,M,M,0.01
0CO,3/21/24,9:55:00 AM,17.6,10.4,72.93,330,15,0,30.1,M,M,SCT,M,M,M,2400,M,M,2.11
0CO,3/21/24,10:55:00 AM,15.8,10.4,78.84,330,20,0,30.1,M,24,CLR,M,M,M,M,M,M,-2.38
0CO,3/21/24,11:55:00 AM,15.8,12.2,85.4,340,20,0,30.11,M,26,M,M,M,M,M,M,M,-2.38
0CO,3/21/24,12:55:00 PM,14,12.2,92.38,340,17,0,30.11,M,24,M,M,M,M,M,M,M,-3.51
0CO,3/21/24,1:55:00 PM,15.8,12.2,85.4,340,18,0,30.12,M,22,M,M,M,M,M,M,M,-1.58
0CO,3/21/24,2:55:00 PM,15.8,12.2,85.4,330,16,0,30.13,M,M,M,M,M,M,M,M,M,-0.7
0CO,3/21/24,3:55:00 PM,19.4,8.6,62.28,320,18,0,30.13,M,M,CLR,M,M,M,M,M,M,3.16
0CO,3/21/24,4:55:00 PM,21.2,12.2,67.73,330,10,0,30.15,M,24,CLR,M,M,M,M,M,M,9.42
0CO,3/21/24,5:55:00 PM,21.2,14,73.32,350,15,0,30.15,M,28,SCT,M,M,M,1600,M,M,6.78
0CO,3/22/24,6:55:00 PM,23,12.2,62.78,330,27,0,30.14,M,35,SCT,M,M,M,2700,M,M,5.08
0CO,3/22/24,10:55:00 PM,24.8,12.2,58.22,300,21,0,30.11,M,M,CLR,M,M,M,M,M,M,9.25
0CO,3/22/24,11:55:00 PM,24.8,12.2,58.22,M,M,0,30.11,M,M,CLR,M,M,M,M,M,M,M
0CO,3/22/24,12:55:00 AM,23,12.2,62.78,310,16,0,30.12,M,M,CLR,M,M,M,M,M,M,8.69
0CO,3/22/24,1:55:00 AM,21.2,14,73.32,300,18,0,30.13,M,26,SCT,BKN,OVC,M,2300,3300,4800,5.53
0CO,3/22/24,2:55:00 AM,19.4,17.6,92.57,320,22,0,30.12,M,31,M,M,M,M,M,M,M,1.71
0CO,3/22/24,3:55:00 AM,19.4,17.6,92.57,320,23,0,30.13,M,38,OVC,M,M,M,100,M,M,1.38
0CO,3/22/24,4:55:00 AM,17.6,14,85.51,330,26,0,30.14,M,36,M,M,M,M,M,M,M,-1.99
0CO,3/22/24,5:55:00 AM,17.6,15.8,92.5,310,26,0,30.15,M,37,M,M,M,M,M,M,M,-1.99
0CO,3/22/24,6:55:00 AM,17.6,15.8,92.5,340,19,0,30.17,M,27,BKN,BKN,OVC,M,200,600,1000,0.39
0CO,3/22/24,7:55:00 AM,17.6,14,85.51,320,21,0,30.15,M,28,BKN,OVC,M,M,200,600,M,-0.35
0CO,3/22/24,8:55:00 AM,17.6,14,85.51,310,19,0,30.15,M,32,M,M,M,M,M,M,M,0.39
0CO,3/22/24,9:55:00 AM,14,12.2,92.38,330,27,0,30.12,M,36,BKN,BKN,OVC,M,400,700,1900,-7.19
0CO,3/22/24,10:55:00 AM,14,12.2,92.38,310,29,0,30.12,M,37,OVC,M,M,M,200,M,M,-7.78
0CO,3/22/24,11:55:00 AM,14,10.4,85.28,310,35,0,30.1,M,46,BKN,BKN,M,M,300,800,M,-9.38
0CO,3/22/24,12:55:00 PM,12.2,10.4,92.32,320,32,0,30.12,M,40,M,M,M,M,M,M,M,-11.1
0CO,3/22/24,1:55:00 PM,12.2,8.6,85.17,320,35,0,30.13,M,41,M,M,M,M,M,M,M,-11.89
0CO,3/22/24,2:55:00 PM,12.2,10.4,92.32,320,28,0,30.16,M,37,M,M,M,M,M,M,M,-9.95
0CO,3/22/24,3:55:00 PM,14,12.2,92.38,350,17,0,30.2,M,24,BKN,BKN,M,M,400,1500,M,-3.51
0CO,3/22/24,4:55:00 PM,14,12.2,92.38,310,17,0,30.21,M,22,M,M,M,M,M,M,M,-3.51
0CO,3/22/24,5:55:00 PM,19.4,5,52.89,320,17,0,30.22,M,30,CLR,M,M,M,M,M,M,3.57
0CO,3/22/24,6:55:00 PM,21.2,3.2,45.1,310,23,0,30.2,M,M,CLR,M,M,M,M,M,M,3.8
0CO,3/22/24,7:55:00 PM,23,6.8,49.29,M,M,0,30.2,M,M,CLR,M,M,M,M,M,M,M
0CO,3/22/24,8:55:00 PM,23,6.8,49.29,320,21,0,30.19,M,28,CLR,M,M,M,M,M,M,6.85
0CO,3/23/24,9:55:00 PM,24.8,6.8,45.71,M,M,0,30.19,M,M,CLR,M,M,M,M,M,M,M
0CO,3/23/24,10:55:00 PM,24.8,5,42.11,280,26,0,30.19,M,31,CLR,M,M,M,M,M,M,7.79
0CO,3/23/24,11:55:00 PM,24.8,5,42.11,270,14,0,30.2,M,18,SCT,M,M,M,11000,M,M,11.88
0CO,3/23/24,12:55:00 AM,23,3.2,41.8,290,8,0,30.2,M,M,CLR,M,M,M,M,M,M,13.03
0CO,3/23/24,1:55:00 AM,21.2,3.2,45.1,280,12,0,30.2,M,18,CLR,M,M,M,M,M,M,8.26
0CO,3/23/24,2:55:00 AM,21.2,3.2,45.1,270,13,0,30.21,M,16,CLR,M,M,M,M,M,M,7.73
0CO,3/23/24,3:55:00 AM,21.2,3.2,45.1,270,14,0,30.2,M,18,CLR,M,M,M,M,M,M,7.24
0CO,3/23/24,4:55:00 AM,21.2,5,48.99,250,8,0,30.19,M,17,SCT,M,M,M,6500,M,M,10.81
0CO,3/23/24,5:55:00 AM,21.2,6.8,53.18,280,12,0,30.17,M,17,BKN,M,M,M,11000,M,M,8.26
0CO,3/23/24,6:55:00 AM,21.2,6.8,53.18,270,16,0,30.13,M,26,CLR,M,M,M,M,M,M,6.34
0CO,3/23/24,7:55:00 AM,21.2,8.6,57.69,270,17,0,30.11,M,32,CLR,M,M,M,M,M,M,5.93
0CO,3/23/24,8:55:00 AM,21.2,6.8,53.18,280,16,0,30.07,M,35,CLR,M,M,M,M,M,M,6.34
0CO,3/23/24,9:55:00 AM,21.2,8.6,57.69,270,34,0,30,M,43,SCT,M,M,M,3900,M,M,0.89
0CO,3/23/24,10:55:00 AM,21.2,10.4,62.53,280,27,0,30.01,M,50,CLR,M,M,M,M,M,M,2.62
0CO,3/23/24,11:55:00 AM,19.4,14,79.16,280,28,0,30.01,M,35,SCT,SCT,SCT,M,1400,2100,2600,-0.11
0CO,3/23/24,12:55:00 PM,19.4,17.6,92.57,290,27,0,29.99,M,38,M,M,M,M,M,M,M,0.17
0CO,3/23/24,1:55:00 PM,21.2,14,73.32,270,32,0,30,M,42,CLR,M,M,M,M,M,M,1.35
0CO,3/23/24,2:55:00 PM,21.2,14,73.32,260,32,0,30,M,47,CLR,M,M,M,M,M,M,1.35
0CO,3/23/24,3:55:00 PM,23,12.2,62.78,250,14,0,30,M,38,SCT,M,M,M,3000,M,M,9.56
0CO,3/23/24,4:55:00 PM,26.6,12.2,54.03,260,20,0,29.99,M,33,SCT,M,M,M,3300,M,M,11.97
0CO,3/23/24,5:55:00 PM,26.6,12.2,54.03,260,21,0,29.96,M,38,CLR,M,M,M,M,M,M,11.65
0CO,3/23/24,6:55:00 PM,28.4,10.4,46.32,260,22,0,29.94,M,33,SCT,M,M,M,4400,M,M,13.76
0CO,3/23/24,7:55:00 PM,28.4,12.2,50.17,260,23,0,29.92,M,31,SCT,BKN,M,M,9000,11000,M,13.47
0CO,3/23/24,8:55:00 PM,23,14,67.96,240,21,0,29.9,M,31,SCT,BKN,OVC,M,2800,4600,5500,6.85
0CO,3/24/24,9:55:00 PM,24.8,14,63.03,250,19,0,29.88,M,26,SCT,BKN,OVC,M,2400,3200,4300,9.92
0CO,3/24/24,10:55:00 PM,24.8,10.4,53.75,260,16,0,29.84,M,24,SCT,OVC,M,M,3800,5000,M,11.03
0CO,3/24/24,11:55:00 PM,24.8,12.2,58.22,320,8,0,29.81,M,27,SCT,BKN,OVC,M,1900,4200,5000,15.24
0CO,3/24/24,12:55:00 AM,23,10.4,57.96,230,9,0,29.79,M,19,OVC,M,M,M,5500,M,M,12.32
0CO,3/24/24,1:55:00 AM,19.4,14,79.16,310,5,0,29.78,M,M,M,M,M,M,M,M,M,11.43
0CO,3/24/24,2:55:00 AM,21.2,8.6,57.69,240,14,0,29.75,M,M,CLR,M,M,M,M,M,M,7.24
0CO,3/24/24,3:55:00 AM,21.2,8.6,57.69,250,10,0,29.75,M,20,CLR,M,M,M,M,M,M,9.42
0CO,3/24/24,4:55:00 AM,19.4,14,79.16,250,20,0,29.72,M,28,M,M,M,M,M,M,M,2.4
0CO,3/24/24,5:55:00 AM,17.6,15.8,92.5,250,14,0,29.67,M,17,BKN,BKN,OVC,M,200,600,1100,2.6
0CO,3/24/24,6:55:00 AM,17.6,14,85.51,280,17,0,29.63,M,29,M,M,M,M,M,M,M,1.21
0CO,3/24/24,7:55:00 AM,17.6,15.8,92.5,280,18,0,29.62,M,24,BKN,OVC,M,M,100,500,M,0.79
0CO,3/24/24,8:55:00 AM,15.8,12.2,85.4,280,23,0,29.55,M,30,M,M,M,M,M,M,M,-3.46
0CO,3/24/24,9:55:00 AM,17.6,14,85.51,280,23,0,29.53,M,32,M,M,M,M,M,M,M,-1.04
0CO,3/24/24,10:55:00 AM,17.6,14,85.51,280,16,0,29.52,M,19,OVC,M,M,M,300,M,M,1.65
0CO,3/24/24,11:55:00 AM,14,12.2,92.38,310,19,0,29.49,M,26,M,M,M,M,M,M,M,-4.37
0CO,3/24/24,12:55:00 PM,14,10.4,85.28,280,16,0,29.48,M,24,M,M,M,M,M,M,M,-3.04
0CO,3/24/24,1:55:00 PM,14,10.4,85.28,270,10,0,29.49,M,20,M,M,M,M,M,M,M,0.4
0CO,3/24/24,2:55:00 PM,14,10.4,85.28,260,8,0,29.49,M,16,M,M,M,M,M,M,M,1.94
0CO,3/24/24,3:55:00 PM,15.8,8.6,72.73,150,5,0,29.48,M,M,SCT,M,M,M,12000,M,M,7.16
0CO,3/24/24,4:55:00 PM,17.6,3.2,52.6,200,10,0,29.47,M,16,BKN,M,M,M,12000,M,M,4.91
0CO,3/24/24,5:55:00 PM,21.2,8.6,57.69,280,3,0,29.45,M,M,SCT,BKN,BKN,M,3600,4600,10000,16.34
0CO,3/24/24,6:55:00 PM,19.4,10.4,67.51,90,10,0,29.43,M,16,SCT,BKN,OVC,M,1900,3000,3900,7.17
0CO,3/24/24,7:55:00 PM,17.6,14,85.51,110,12,0,29.41,M,21,OVC,M,M,M,100,M,M,3.67
0CO,3/24/24,8:55:00 PM,17.6,14,85.51,130,10,0,29.39,M,18,OVC,M,M,M,100,M,M,4.91
0CO,3/25/24,9:55:00 PM,15.8,14,92.44,110,17,0,29.38,M,25,BKN,OVC,M,M,1000,1400,M,-1.15
0CO,3/25/24,10:55:00 PM,17.6,14,85.51,110,19,0,29.36,M,25,OVC,M,M,M,200,M,M,0.39
0CO,3/25/24,11:55:00 PM,17.6,14,85.51,110,8,0,29.37,M,23,OVC,M,M,M,200,M,M,6.37
0CO,3/25/24,12:55:00 AM,15.8,14,92.44,120,21,0,29.38,M,35,OVC,M,M,M,200,M,M,-2.75
0CO,3/25/24,1:55:00 AM,14,12.2,92.38,M,M,0.01,29.39,M,M,OVC,M,M,M,200,M,M,M
0CO,3/25/24,2:55:00 AM,10.4,8.6,92.25,M,M,0,29.4,M,M,OVC,M,M,M,400,M,M,M
0CO,3/25/24,3:55:00 AM,10.4,6.8,85.05,M,M,0,29.41,M,M,OVC,M,M,M,200,M,M,M
0CO,3/25/24,4:55:00 AM,8.6,5,84.93,M,M,0,29.42,M,M,M,M,M,M,M,M,M,M
0CO,3/25/24,5:55:00 AM,8.6,5,84.93,120,6,0.02,29.42,M,M,BKN,BKN,OVC,M,1600,2700,4000,-2.65
0CO,3/25/24,6:55:00 AM,8.6,5,84.93,30,4,0.01,29.42,M,M,OVC,M,M,M,600,M,M,0.09
0CO,3/25/24,7:55:00 AM,8.6,5,84.93,10,6,0.02,29.42,M,M,OVC,M,M,M,400,M,M,-2.65
0CO,3/25/24,8:55:00 AM,6.8,3.2,84.8,10,5,0.01,29.42,M,M,OVC,M,M,M,200,M,M,-3.53
0CO,3/25/24,9:55:00 AM,6.8,3.2,84.8,350,9,0,29.41,M,15,BKN,OVC,M,M,200,900,M,-7.82
0CO,3/25/24,10:55:00 AM,5,1.4,84.68,10,9,0,29.42,M,14,BKN,OVC,M,M,100,600,M,-10.06
0CO,3/25/24,11:55:00 AM,3.2,-0.4,84.56,10,8,0,29.42,M,17,OVC,M,M,M,100,M,M,-11.36
0CO,3/25/24,12:55:00 PM,3.2,-0.4,84.56,350,11,0,29.42,M,22,OVC,M,M,M,100,M,M,-13.93
0CO,3/25/24,1:55:00 PM,3.2,-0.4,84.56,10,8,0,29.44,M,M,OVC,M,M,M,100,M,M,-11.36
0CO,3/25/24,2:55:00 PM,3.2,-0.4,84.56,360,8,0,29.45,M,17,OVC,M,M,M,100,M,M,-11.36
0CO,3/25/24,3:55:00 PM,3.2,-0.4,84.56,10,8,0,29.47,M,20,OVC,M,M,M,100,M,M,-11.36
0CO,3/25/24,4:55:00 PM,5,1.4,84.68,360,9,0,29.48,M,19,OVC,M,M,M,100,M,M,-10.06
0CO,3/25/24,5:55:00 PM,5,3.2,92.06,10,6,0,29.5,M,14,OVC,M,M,M,100,M,M,-6.99
0CO,3/25/24,6:55:00 PM,5,3.2,92.06,360,13,0,29.5,M,22,BKN,OVC,M,M,100,500,M,-13.02
0CO,3/25/24,7:55:00 PM,5,3.2,92.06,10,9,0,29.51,M,21,BKN,OVC,M,M,100,600,M,-10.06
0CO,3/25/24,8:55:00 PM,6.8,3.2,84.8,10,9,0.01,29.51,M,19,OVC,M,M,M,100,M,M,-7.82
0CO,3/26/24,9:55:00 PM,8.6,3.2,78.18,360,11,0,29.52,M,23,OVC,M,M,M,100,M,M,-7.1
0CO,3/26/24,10:55:00 PM,6.8,3.2,84.8,350,20,0,29.52,M,32,BKN,BKN,OVC,M,100,900,1500,-14.33
0CO,3/26/24,11:55:00 PM,6.8,3.2,84.8,340,26,0,29.53,M,32,OVC,M,M,M,100,M,M,-16.66
0CO,3/26/24,12:55:00 AM,5,1.4,84.68,350,20,0,29.56,M,32,BKN,OVC,M,M,300,700,M,-16.72
0CO,3/26/24,1:55:00 AM,5,1.4,84.68,360,10,0,29.58,M,32,BKN,OVC,M,M,100,500,M,-10.89
0CO,3/26/24,2:55:00 AM,5,1.4,84.68,350,10,0,29.6,M,29,BKN,OVC,M,M,300,700,M,-10.89
0CO,3/26/24,3:55:00 AM,3.2,-0.4,84.56,340,12,0,29.62,M,20,OVC,M,M,M,100,M,M,-14.65
0CO,3/26/24,4:55:00 AM,3.2,-0.4,84.56,340,11,0,29.62,M,M,OVC,M,M,M,100,M,M,-13.93
0CO,3/26/24,5:55:00 AM,3.2,-0.4,84.56,350,12,0,29.62,M,23,OVC,M,M,M,100,M,M,-14.65
0CO,3/26/24,6:55:00 AM,3.2,-0.4,84.56,340,20,0,29.62,M,M,OVC,M,M,M,100,M,M,-19.11
0CO,3/26/24,7:55:00 AM,1.4,-2.2,84.43,320,14,0,29.62,M,17,OVC,M,M,M,100,M,M,-18.28
0CO,3/26/24,8:55:00 AM,1.4,-4,77.49,350,12,0,29.62,M,22,M,M,M,M,M,M,M,-16.94
0CO,3/26/24,9:55:00 AM,1.4,-2.2,84.43,310,25,0,29.58,M,34,M,M,M,M,M,M,M,-23.62
0CO,3/26/24,10:55:00 AM,1.4,-2.2,84.43,310,19,0,29.58,M,32,M,M,M,M,M,M,M,-21.03
0CO,3/26/24,11:55:00 AM,1.4,-0.4,91.92,310,28,0,29.58,M,37,M,M,M,M,M,M,M,-24.72
0CO,3/26/24,12:55:00 PM,3.2,-0.4,84.56,300,29,0,29.58,M,35,M,M,M,M,M,M,M,-22.59
0CO,3/26/24,1:55:00 PM,3.2,-0.4,84.56,310,21,0,29.59,M,35,BKN,OVC,M,M,600,1200,M,-19.56
0CO,3/26/24,2:55:00 PM,3.2,-0.4,84.56,300,27,0,29.6,M,35,OVC,M,M,M,600,M,M,-21.91
0CO,3/26/24,3:55:00 PM,5,1.4,84.68,290,30,0,29.61,M,M,M,M,M,M,M,M,M,-20.45
0CO,3/26/24,4:55:00 PM,5,3.2,92.06,330,20,0,29.64,M,32,OVC,M,M,M,500,M,M,-16.72
0CO,3/26/24,5:55:00 PM,6.8,3.2,84.8,330,26,0,29.64,M,32,OVC,M,M,M,100,M,M,-16.66
0CO,3/26/24,6:55:00 PM,8.6,3.2,78.18,330,22,0,29.65,M,32,BKN,BKN,OVC,M,200,600,900,-12.76
0CO,3/26/24,7:55:00 PM,8.6,5,84.93,340,22,0,29.65,M,32,OVC,M,M,M,200,M,M,-12.76
0CO,3/26/24,8:55:00 PM,8.6,3.2,78.18,350,26,0,29.66,M,42,BKN,OVC,M,M,200,800,M,-14.21
0CO,3/27/24,9:55:00 PM,8.6,3.2,78.18,320,21,0,29.67,M,29,M,M,M,M,M,M,M,-12.36
0CO,3/27/24,10:55:00 PM,8.6,5,84.93,320,22,0,29.69,M,35,M,M,M,M,M,M,M,-12.76
0CO,3/27/24,11:55:00 PM,8.6,3.2,78.18,320,21,0,29.7,M,28,M,M,M,M,M,M,M,-12.36
0CO,3/27/24,12:55:00 AM,6.8,3.2,84.8,320,18,0,29.73,M,24,BKN,OVC,M,M,100,600,M,-13.42
0CO,3/27/24,1:55:00 AM,5,1.4,84.68,320,19,0,29.74,M,27,BKN,BKN,BKN,M,100,600,8000,-16.27
0CO,3/27/24,2:55:00 AM,5,1.4,84.68,330,21,0,29.76,M,27,BKN,BKN,OVC,M,200,1000,1400,-17.16
0CO,3/27/24,3:55:00 AM,5,1.4,84.68,320,17,0,29.78,M,27,M,M,M,M,M,M,M,-15.3
0CO,3/27/24,4:55:00 AM,5,1.4,84.68,310,18,0,29.79,M,M,M,M,M,M,M,M,M,-15.79
0CO,3/27/24,5:55:00 AM,3.2,1.4,91.99,310,18,0,29.79,M,M,M,M,M,M,M,M,M,-18.16
0CO,3/27/24,6:55:00 AM,3.2,-0.4,84.56,320,20,0,29.8,M,25,M,M,M,M,M,M,M,-19.11
0CO,3/27/24,7:55:00 AM,3.2,-0.4,84.56,310,17,0,29.8,M,M,M,M,M,M,M,M,M,-17.65
0CO,3/27/24,8:55:00 AM,3.2,-0.4,84.56,320,14,0,29.81,M,M,M,M,M,M,M,M,M,-15.96
0CO,3/27/24,9:55:00 AM,3.2,-0.4,84.56,320,21,0,29.81,M,27,M,M,M,M,M,M,M,-19.56
0CO,3/27/24,10:55:00 AM,3.2,-0.4,84.56,300,19,0,29.83,M,29,M,M,M,M,M,M,M,-18.65
0CO,3/27/24,11:55:00 AM,3.2,1.4,91.99,310,17,0,29.85,M,M,BKN,BKN,OVC,M,400,1400,1800,-17.65
0CO,3/27/24,12:55:00 PM,3.2,-0.4,84.56,330,20,0,29.87,M,29,BKN,BKN,OVC,M,200,800,2000,-19.11
0CO,3/27/24,1:55:00 PM,3.2,-0.4,84.56,340,26,0,29.9,M,34,BKN,OVC,M,M,200,800,M,-21.55
0CO,3/27/24,2:55:00 PM,3.2,1.4,91.99,340,19,0,29.93,M,32,OVC,M,M,M,200,M,M,-18.65
0CO,3/27/24,3:55:00 PM,5,1.4,84.68,330,18,0,29.96,M,27,BKN,OVC,M,M,200,700,M,-15.79
0CO,3/27/24,4:55:00 PM,5,1.4,84.68,320,15,0,30,M,23,M,M,M,M,M,M,M,-14.22
0CO,3/27/24,5:55:00 PM,6.8,3.2,84.8,320,19,0,30.01,M,27,M,M,M,M,M,M,M,-13.89
0CO,3/27/24,6:55:00 PM,8.6,3.2,78.18,310,21,0,30.01,M,M,M,M,M,M,M,M,M,-12.36
0CO,3/27/24,7:55:00 PM,8.6,5,84.93,310,24,0,30.01,M,29,M,M,M,M,M,M,M,-13.51
0CO,3/27/24,8:55:00 PM,8.6,5,84.93,310,23,0,30.01,M,29,M,M,M,M,M,M,M,-13.14
0CO,3/28/24,9:55:00 PM,10.4,6.8,85.05,290,24,0,30.01,M,29,M,M,M,M,M,M,M,-11.08
0CO,3/28/24,10:55:00 PM,10.4,5,78.35,M,M,0,30.01,M,M,M,M,M,M,M,M,M,M
0CO,3/28/24,11:55:00 PM,8.6,5,84.93,M,M,0,30.02,M,M,M,M,M,M,M,M,M,M
0CO,3/28/24,12:55:00 AM,8.6,5,84.93,310,24,0,30.03,M,36,M,M,M,M,M,M,M,-13.51
0CO,3/28/24,1:55:00 AM,8.6,5,84.93,320,26,0,30.01,M,38,M,M,M,M,M,M,M,-14.21
0CO,3/28/24,2:55:00 AM,8.6,5,84.93,320,31,0,30.03,M,42,M,M,M,M,M,M,M,-15.79
0CO,3/28/24,3:55:00 AM,8.6,3.2,78.18,330,21,0,30.07,M,38,M,M,M,M,M,M,M,-12.36
0CO,3/28/24,4:55:00 AM,6.8,3.2,84.8,320,23,0,30.07,M,28,M,M,M,M,M,M,M,-15.56
0CO,3/28/24,5:55:00 AM,8.6,3.2,78.18,320,24,0,30.06,M,36,M,M,M,M,M,M,M,-13.51
0CO,3/28/24,6:55:00 AM,8.6,5,84.93,310,32,0,30.03,M,43,M,M,M,M,M,M,M,-16.08
0CO,3/28/24,7:55:00 AM,10.4,5,78.35,310,29,0,30.03,M,41,CLR,M,M,M,M,M,M,-12.72
0CO,3/28/24,8:55:00 AM,10.4,3.2,72.12,310,28,0,30.03,M,37,CLR,M,M,M,M,M,M,-12.41
0CO,3/28/24,9:55:00 AM,10.4,3.2,72.12,310,27,0,30.05,M,34,CLR,M,M,M,M,M,M,-12.1
0CO,3/28/24,10:55:00 AM,8.6,3.2,78.18,330,21,0,30.04,M,28,CLR,M,M,M,M,M,M,-12.36
0CO,3/28/24,11:55:00 AM,8.6,3.2,78.18,310,28,0,30.03,M,33,CLR,M,M,M,M,M,M,-14.87
0CO,3/28/24,12:55:00 PM,12.2,3.2,66.58,300,25,0,30.03,M,M,CLR,M,M,M,M,M,M,-8.99
0CO,3/28/24,1:55:00 PM,14,5,66.82,300,28,0,30.03,M,40,CLR,M,M,M,M,M,M,-7.49
0CO,3/28/24,2:55:00 PM,14,5,66.82,330,22,0,30.03,M,32,CLR,M,M,M,M,M,M,-5.52
0CO,3/28/24,3:55:00 PM,19.4,5,52.89,290,20,0,30.04,M,32,CLR,M,M,M,M,M,M,2.4
0CO,3/28/24,4:55:00 PM,21.2,5,48.99,290,27,0,30.03,M,45,CLR,M,M,M,M,M,M,2.62
0CO,3/28/24,5:55:00 PM,23,6.8,49.29,270,26,0,30.03,M,35,CLR,M,M,M,M,M,M,5.35
0CO,3/28/24,6:55:00 PM,23,8.6,53.47,290,24,0,30.02,M,40,CLR,M,M,M,M,M,M,5.92
0CO,3/28/24,7:55:00 PM,26.6,10.4,49.88,260,21,0,30.01,M,33,SCT,SCT,M,M,3900,4700,M,11.65
0CO,3/28/24,8:55:00 PM,23,10.4,57.96,280,22,0,29.99,M,37,SCT,SCT,SCT,M,2500,3400,4500,6.53
0CO,3/29/24,9:55:00 PM,23,12.2,62.78,250,20,0,29.99,M,28,SCT,SCT,BKN,M,2700,4600,11000,7.19
0CO,3/29/24,10:55:00 PM,23,10.4,57.96,250,22,0,29.98,M,37,SCT,BKN,M,M,8000,9000,M,6.53
0CO,3/29/24,11:55:00 PM,23,10.4,57.96,250,26,0,29.96,M,43,BKN,BKN,M,M,10000,12000,M,5.35
0CO,3/29/24,12:55:00 AM,21.2,10.4,62.53,250,21,0,29.97,M,29,SCT,BKN,BKN,M,3800,4800,5000,4.45
0CO,3/29/24,1:55:00 AM,21.2,10.4,62.53,260,18,0,29.99,M,24,SCT,BKN,OVC,M,2300,3900,6000,5.53
0CO,3/29/24,2:55:00 AM,19.4,12.2,73.13,270,17,0,29.99,M,23,SCT,BKN,OVC,M,1500,2500,4600,3.57
0CO,3/29/24,3:55:00 AM,19.4,12.2,73.13,260,26,0,29.97,M,33,SCT,SCT,BKN,M,2800,3700,12000,0.46
0CO,3/29/24,4:55:00 AM,19.4,12.2,73.13,220,13,0,29.96,M,27,SCT,SCT,M,M,2400,9500,M,5.43
0CO,3/29/24,5:55:00 AM,17.6,12.2,79,230,20,0,29.95,M,27,SCT,SCT,M,M,2400,2900,M,0.01
0CO,3/29/24,6:55:00 AM,17.6,14,85.51,230,20,0,29.93,M,27,M,M,M,M,M,M,M,0.01
0CO,3/29/24,7:55:00 AM,19.4,15.8,85.63,250,19,0,29.93,M,25,M,M,M,M,M,M,M,2.77
0CO,3/29/24,8:55:00 AM,19.4,17.6,92.57,270,17,0,29.92,M,26,M,M,M,M,M,M,M,3.57
0CO,3/29/24,9:55:00 AM,19.4,17.6,92.57,290,16,0,29.92,M,28,OVC,M,M,M,300,M,M,4
0CO,3/29/24,10:55:00 AM,17.6,15.8,92.5,280,16,0,29.9,M,23,BKN,OVC,M,M,300,900,M,1.65
0CO,3/29/24,11:55:00 AM,17.6,15.8,92.5,290,11,0,29.9,M,M,OVC,M,M,M,500,M,M,4.27
0CO,3/29/24,12:55:00 PM,17.6,15.8,92.5,230,10,0,29.89,M,14,M,M,M,M,M,M,M,4.91
0CO,3/29/24,1:55:00 PM,17.6,15.8,92.5,250,12,0,29.89,M,15,BKN,OVC,M,M,200,600,M,3.67
0CO,3/29/24,2:55:00 PM,19.4,15.8,85.63,240,9,0.05,29.89,M,15,BKN,OVC,M,M,200,500,M,7.85
0CO,3/29/24,3:55:00 PM,19.4,17.6,92.57,240,20,0,29.88,M,26,M,M,M,M,M,M,M,2.4
0CO,3/29/24,4:55:00 PM,19.4,15.8,85.63,250,30,0,29.89,M,37,M,M,M,M,M,M,M,-0.64
0CO,3/29/24,5:55:00 PM,21.2,17.6,85.74,240,20,0,29.91,M,30,SCT,BKN,OVC,M,400,1900,2500,4.79
0CO,3/29/24,6:55:00 PM,21.2,15.8,79.31,250,21,0,29.91,M,33,SCT,BKN,OVC,M,1400,2000,2800,4.45
0CO,3/29/24,7:55:00 PM,23,14,67.96,260,18,0,29.9,M,36,BKN,BKN,BKN,M,1800,2600,3200,7.9
0CO,3/29/24,8:55:00 PM,21.2,17.6,85.74,270,18,0,29.92,M,26,M,M,M,M,M,M,M,5.53
0CO,3/30/24,9:55:00 PM,21.2,15.8,79.31,320,11,0,29.92,M,36,SCT,BKN,OVC,M,500,1900,12000,8.82
0CO,3/30/24,10:55:00 PM,19.4,17.6,92.57,270,18,0,29.94,M,24,BKN,BKN,OVC,M,200,700,1200,3.16
0CO,3/30/24,11:55:00 PM,19.4,17.6,92.57,280,12,0,29.95,M,17,M,M,M,M,M,M,M,5.97
0CO,3/30/24,12:55:00 AM,17.6,17.6,100,270,8,0,29.96,M,20,BKN,OVC,M,M,200,600,M,6.37
0CO,3/30/24,1:55:00 AM,17.6,15.8,92.5,300,9,0.01,29.97,M,M,OVC,M,M,M,200,M,M,5.61
0CO,3/30/24,2:55:00 AM,17.6,14,85.51,250,14,0,29.99,M,M,M,M,M,M,M,M,M,2.6
0CO,3/30/24,3:55:00 AM,17.6,15.8,92.5,220,16,0,30,M,23,M,M,M,M,M,M,M,1.65
0CO,3/30/24,4:55:00 AM,17.6,15.8,92.5,240,21,0,29.98,M,25,M,M,M,M,M,M,M,-0.35
0CO,3/30/24,5:55:00 AM,17.6,15.8,92.5,230,16,0,29.98,M,27,M,M,M,M,M,M,M,1.65
0CO,3/30/24,6:55:00 AM,17.6,15.8,92.5,220,8,0,29.97,M,24,M,M,M,M,M,M,M,6.37
0CO,3/30/24,7:55:00 AM,17.6,15.8,92.5,220,14,0,29.97,M,27,M,M,M,M,M,M,M,2.6
0CO,3/30/24,8:55:00 AM,19.4,14,79.16,220,12,0,29.96,M,25,SCT,BKN,OVC,M,1900,2500,4600,5.97
0CO,3/30/24,9:55:00 AM,19.4,14,79.16,220,14,0,29.95,M,27,M,M,M,M,M,M,M,4.92
0CO,3/30/24,10:55:00 AM,17.6,14,85.51,250,20,0,29.94,M,32,M,M,M,M,M,M,M,0.01
0CO,3/30/24,11:55:00 AM,17.6,14,85.51,250,27,0,29.93,M,35,M,M,M,M,M,M,M,-2.28
0CO,3/30/24,12:55:00 PM,17.6,14,85.51,250,32,0,29.93,M,40,M,M,M,M,M,M,M,-3.63
0CO,3/30/24,1:55:00 PM,19.4,14,79.16,270,23,0,29.94,M,38,SCT,SCT,M,M,1600,2300,M,1.38
0CO,3/30/24,2:55:00 PM,19.4,14,79.16,260,23,0,29.96,M,35,SCT,SCT,M,M,1700,2300,M,1.38
0CO,3/30/24,3:55:00 PM,21.2,14,73.32,270,24,0,29.96,M,32,BKN,BKN,M,M,1900,2600,M,3.49
0CO,3/30/24,4:55:00 PM,23,14,67.96,250,27,0,29.96,M,41,SCT,BKN,BKN,M,2100,2600,3100,5.08
0CO,3/30/24,5:55:00 PM,24.8,14,63.03,250,29,0,29.96,M,47,SCT,SCT,M,M,2700,3500,M,7.03
0CO,3/30/24,6:55:00 PM,26.6,12.2,54.03,250,24,0,29.96,M,38,SCT,M,M,M,3300,M,M,10.77
0CO,3/30/24,7:55:00 PM,26.6,12.2,54.03,270,25,0,29.95,M,40,SCT,M,M,M,4000,M,M,10.5
0CO,3/30/24,8:55:00 PM,28.4,12.2,50.17,250,19,0,29.96,M,38,SCT,M,M,M,4700,M,M,14.68
0CO,3/31/24,9:55:00 PM,28.4,12.2,50.17,240,29,0,29.94,M,40,SCT,BKN,BKN,M,5000,6000,8500,11.97
0CO,3/31/24,10:55:00 PM,28.4,14,54.31,240,17,0,29.95,M,29,SCT,SCT,SCT,M,3700,4500,5000,15.36
0CO,3/31/24,11:55:00 PM,26.6,12.2,54.03,250,13,0,29.95,M,27,OVC,M,M,M,7000,M,M,14.65
0CO,3/31/24,12:55:00 AM,26.6,12.2,54.03,200,11,0,29.96,M,15,SCT,SCT,BKN,M,2700,4200,5500,15.64
0CO,3/31/24,1:55:00 AM,26.6,12.2,54.03,230,9,0,29.96,M,19,SCT,OVC,M,M,7000,8000,M,16.8
0CO,3/31/24,2:55:00 AM,23,14,67.96,230,12,0,29.96,M,22,OVC,M,M,M,8000,M,M,10.55
0CO,3/31/24,3:55:00 AM,23,14,67.96,230,13,0,29.95,M,18,M,M,M,M,M,M,M,10.04
0CO,3/31/24,4:55:00 AM,23,14,67.96,210,8,0,29.93,M,16,OVC,M,M,M,8000,M,M,13.03
0CO,3/31/24,5:55:00 AM,21.2,14,73.32,230,11,0,29.92,M,28,SCT,SCT,SCT,M,2900,3400,7000,8.82
0CO,3/31/24,6:55:00 AM,21.2,14,73.32,220,11,0,29.91,M,20,CLR,M,M,M,M,M,M,8.82
0CO,3/31/24,7:55:00 AM,19.4,14,79.16,210,9,0,29.89,M,15,SCT,M,M,M,11000,M,M,7.85
0CO,3/31/24,8:55:00 AM,19.4,15.8,85.63,250,15,0,29.87,M,22,M,M,M,M,M,M,M,4.45
0CO,3/31/24,9:55:00 AM,19.4,14,79.16,240,21,0,29.85,M,M,BKN,BKN,BKN,M,1400,3900,5000,2.05
0CO,3/31/24,10:55:00 AM,19.4,14,79.16,260,24,0,29.84,M,29,SCT,BKN,OVC,M,1100,3100,4600,1.06
0CO,3/31/24,11:55:00 AM,17.6,15.8,92.5,210,12,0,29.84,M,18,M,M,M,M,M,M,M,3.67
0CO,3/31/24,12:55:00 PM,19.4,14,79.16,230,11,0,29.83,M,24,M,M,M,M,M,M,M,6.54
0CO,3/31/24,1:55:00 PM,19.4,15.8,85.63,210,8,0,29.84,M,23,M,M,M,M,M,M,M,8.59
0CO,3/31/24,2:55:00 PM,19.4,17.6,92.57,220,6,0,29.82,M,M,M,M,M,M,M,M,M,10.36
0CO,3/31/24,3:55:00 PM,21.2,15.8,79.31,220,16,0,29.81,M,23,SCT,BKN,OVC,M,1000,1700,3200,6.34
0CO,3/31/24,4:55:00 PM,23,14,67.96,250,19,0,29.81,M,27,SCT,SCT,BKN,M,800,1600,2400,7.54
0CO,3/31/24,5:55:00 PM,23,12.2,62.78,200,12,0,29.81,M,24,BKN,OVC,M,M,2800,3400,M,10.55
0CO,3/31/24,6:55:00 PM,26.6,10.4,49.88,240,13,0,29.8,M,31,SCT,BKN,OVC,M,3400,4100,6000,14.65
0CO,3/31/24,7:55:00 PM,26.6,10.4,49.88,220,9,0,29.79,M,19,SCT,SCT,SCT,M,4400,7000,8500,16.8
0CO,3/31/24,8:55:00 PM,24.8,12.2,58.22,190,12,0,29.77,M,24,SCT,BKN,OVC,M,4000,4600,5000,12.84
0CO,4/1/24,9:55:00 PM,26.6,12.2,54.03,210,9,0,29.76,M,22,BKN,BKN,OVC,M,4400,5000,8500,16.8
0CO,4/1/24,10:55:00 PM,21.2,17.6,85.74,200,15,0,29.77,M,21,M,M,M,M,M,M,M,6.78
0CO,4/1/24,11:55:00 PM,21.2,19.4,92.63,160,15,0,29.77,M,18,BKN,OVC,M,M,300,800,M,6.78
0CO,4/1/24,12:55:00 AM,21.2,19.4,92.63,30,3,0.01,29.77,M,M,OVC,M,M,M,100,M,M,16.34
0CO,4/1/24,1:55:00 AM,19.4,17.6,92.57,330,7,0,29.8,M,16,BKN,OVC,M,M,100,600,M,9.42
0CO,4/1/24,2:55:00 AM,17.6,14,85.51,40,5,0.02,29.79,M,M,BKN,OVC,M,M,100,700,M,9.29
0CO,4/1/24,3:55:00 AM,15.8,14,92.44,290,15,0,29.8,M,24,M,M,M,M,M,M,M,-0.22
0CO,4/1/24,4:55:00 AM,14,12.2,92.38,280,20,0.01,29.78,M,27,M,M,M,M,M,M,M,-4.77
0CO,4/1/24,5:55:00 AM,14,6.8,72.53,280,19,0,29.78,M,32,SCT,SCT,OVC,M,6000,8000,10000,-4.37
0CO,4/1/24,6:55:00 AM,14,8.6,78.68,360,7,0,29.77,M,21,BKN,OVC,M,M,6000,8500,M,2.84
0CO,4/1/24,7:55:00 AM,14,12.2,92.38,340,10,0,29.77,M,20,OVC,M,M,M,100,M,M,0.4
0CO,4/1/24,8:55:00 AM,12.2,10.4,92.32,310,10,0,29.76,M,M,OVC,M,M,M,100,M,M,-1.86
0CO,4/1/24,9:55:00 AM,12.2,8.6,85.17,310,17,0,29.76,M,M,BKN,BKN,OVC,M,100,600,3400,-5.86
0CO,4/1/24,10:55:00 AM,10.4,8.6,92.25,320,16,0,29.76,M,24,M,M,M,M,M,M,M,-7.74
0CO,4/1/24,11:55:00 AM,10.4,8.6,92.25,310,14,0,29.77,M,19,BKN,BKN,OVC,M,100,700,2800,-6.68
0CO,4/1/24,12:55:00 PM,10.4,8.6,92.25,330,18,0,29.78,M,23,OVC,M,M,M,100,M,M,-8.69
0CO,4/1/24,1:55:00 PM,10.4,8.6,92.25,340,16,0.01,29.78,M,23,OVC,M,M,M,100,M,M,-7.74
0CO,4/1/24,2:55:00 PM,10.4,8.6,92.25,340,17,0,29.79,M,22,BKN,OVC,M,M,100,500,M,-8.22
0CO,4/1/24,3:55:00 PM,12.2,10.4,92.32,360,8,0,29.79,M,22,BKN,OVC,M,M,100,900,M,-0.28
0CO,4/1/24,4:55:00 PM,12.2,10.4,92.32,330,16,0,29.81,M,21,OVC,M,M,M,100,M,M,-5.39
0CO,4/1/24,5:55:00 PM,14,10.4,85.28,360,11,0.01,29.82,M,19,OVC,M,M,M,100,M,M,-0.28
0CO,4/1/24,6:55:00 PM,12.2,10.4,92.32,360,11,0,29.83,M,19,BKN,BKN,BKN,M,300,800,2000,-2.56
0CO,4/1/24,7:55:00 PM,14,12.2,92.38,10,4,0,29.84,M,M,BKN,BKN,OVC,M,1000,1400,2500,6.4
0CO,4/1/24,8:55:00 PM,14,12.2,92.38,20,9,0.01,29.84,M,23,M,M,M,M,M,M,M,1.13
0CO,4/2/24,9:55:00 PM,15.8,12.2,85.4,350,14,0,29.84,M,24,M,M,M,M,M,M,M,0.28
0CO,4/2/24,10:55:00 PM,14,12.2,92.38,360,8,0,29.86,M,16,BKN,BKN,OVC,M,600,1000,4700,1.94
0CO,4/2/24,11:55:00 PM,14,10.4,85.28,360,8,0,29.88,M,22,OVC,M,M,M,600,M,M,1.94
0CO,4/2/24,12:55:00 AM,12.2,10.4,92.32,360,10,0,29.89,M,22,M,M,M,M,M,M,M,-1.86
0CO,4/2/24,1:55:00 AM,12.2,10.4,92.32,350,16,0,29.92,M,26,OVC,M,M,M,200,M,M,-5.39
0CO,4/2/24,2:55:00 AM,12.2,10.4,92.32,360,12,0,29.94,M,25,OVC,M,M,M,200,M,M,-3.2
0CO,4/2/24,3:55:00 AM,12.2,10.4,92.32,350,17,0,29.96,M,34,OVC,M,M,M,200,M,M,-5.86
0CO,4/2/24,4:55:00 AM,12.2,10.4,92.32,350,18,0,29.97,M,35,OVC,M,M,M,200,M,M,-6.32
0CO,4/2/24,5:55:00 AM,12.2,8.6,85.17,340,25,0,29.98,M,33,OVC,M,M,M,200,M,M,-8.99
0CO,4/2/24,6:55:00 AM,10.4,8.6,92.25,360,15,0,29.99,M,28,OVC,M,M,M,200,M,M,-7.22
0CO,4/2/24,7:55:00 AM,10.4,6.8,85.05,350,17,0,30,M,29,OVC,M,M,M,200,M,M,-8.22
0CO,4/2/24,8:55:00 AM,10.4,6.8,85.05,360,12,0,30.02,M,24,OVC,M,M,M,200,M,M,-5.49
0CO,4/2/24,9:55:00 AM,10.4,6.8,85.05,360,11,0,30.04,M,26,OVC,M,M,M,200,M,M,-4.83
0CO,4/2/24,10:55:00 AM,8.6,5,84.93,360,12,0,30.05,M,26,OVC,M,M,M,200,M,M,-7.78
0CO,4/2/24,11:55:00 AM,8.6,5,84.93,10,8,0,30.08,M,18,OVC,M,M,M,200,M,M,-4.71
0CO,4/2/24,12:55:00 PM,8.6,5,84.93,20,9,0,30.11,M,22,OVC,M,M,M,200,M,M,-5.58
0CO,4/2/24,1:55:00 PM,8.6,5,84.93,360,8,0.01,30.15,M,18,OVC,M,M,M,200,M,M,-4.71
0CO,4/2/24,2:55:00 PM,8.6,5,84.93,360,7,0,30.19,M,M,OVC,M,M,M,200,M,M,-3.74
0CO,4/2/24,3:55:00 PM,10.4,5,78.35,350,9,0,30.21,M,M,OVC,M,M,M,200,M,M,-3.34
0CO,4/2/24,4:55:00 PM,12.2,8.6,85.17,360,8,0,30.23,M,18,OVC,M,M,M,200,M,M,-0.28
0CO,4/2/24,5:55:00 PM,12.2,10.4,92.32,360,9,0,30.25,M,22,M,M,M,M,M,M,M,-1.11
0CO,4/2/24,6:55:00 PM,14,10.4,85.28,340,21,0,30.24,M,26,M,M,M,M,M,M,M,-5.15
0CO,4/2/24,7:55:00 PM,14,12.2,92.38,360,13,0.01,30.25,M,23,M,M,M,M,M,M,M,-1.49
0CO,4/2/24,8:55:00 PM,14,12.2,92.38,360,13,0,30.25,M,23,M,M,M,M,M,M,M,-1.49
0CO,4/3/24,9:55:00 PM,15.8,12.2,85.4,350,16,0.01,30.26,M,36,M,M,M,M,M,M,M,-0.7
0CO,4/3/24,10:55:00 PM,19.4,10.4,67.51,340,21,0.01,30.26,M,29,CLR,M,M,M,M,M,M,2.05
0CO,4/3/24,11:55:00 PM,19.4,8.6,62.28,350,14,0,30.28,M,31,CLR,M,M,M,M,M,M,4.92
0CO,4/3/24,12:55:00 AM,17.6,8.6,67.28,330,21,0,30.29,M,31,CLR,M,M,M,M,M,M,-0.35
0CO,4/3/24,1:55:00 AM,14,8.6,78.68,340,19,0,30.3,M,24,CLR,M,M,M,M,M,M,-4.37
0CO,4/3/24,2:55:00 AM,14,10.4,85.28,340,18,0,30.33,M,32,M,M,M,M,M,M,M,-3.95
0CO,4/3/24,3:55:00 AM,17.6,14,85.51,330,24,0,30.34,M,31,OVC,M,M,M,900,M,M,-1.37
0CO,4/3/24,4:55:00 AM,17.6,14,85.51,330,23,0,30.33,M,33,BKN,BKN,OVC,M,1300,1900,2400,-1.04
0CO,4/3/24,5:55:00 AM,17.6,14,85.51,330,24,0,30.32,M,29,BKN,OVC,M,M,1000,1800,M,-1.37
0CO,4/3/24,6:55:00 AM,17.6,14,85.51,320,22,0,30.31,M,35,M,M,M,M,M,M,M,-0.7
0CO,4/3/24,7:55:00 AM,17.6,15.8,92.5,330,25,0,30.31,M,30,M,M,M,M,M,M,M,-1.68
0CO,4/3/24,8:55:00 AM,19.4,17.6,92.57,330,22,0,30.29,M,37,BKN,OVC,M,M,300,800,M,1.71
0CO,4/3/24,9:55:00 AM,17.6,15.8,92.5,330,30,0,30.26,M,40,BKN,OVC,M,M,100,600,M,-3.11
0CO,4/3/24,10:55:00 AM,17.6,15.8,92.5,340,30,0,30.26,M,41,OVC,M,M,M,100,M,M,-3.11
0CO,4/3/24,11:55:00 AM,17.6,15.8,92.5,340,24,0,30.27,M,34,OVC,M,M,M,100,M,M,-1.37
0CO,4/3/24,12:55:00 PM,17.6,15.8,92.5,340,28,0,30.28,M,34,OVC,M,M,M,100,M,M,-2.57
0CO,4/3/24,1:55:00 PM,17.6,15.8,92.5,340,25,0,30.28,M,31,OVC,M,M,M,100,M,M,-1.68
0CO,4/3/24,2:55:00 PM,19.4,17.6,92.57,340,20,0,30.31,M,30,OVC,M,M,M,100,M,M,2.4
0CO,4/3/24,3:55:00 PM,19.4,17.6,92.57,340,17,0,30.32,M,23,BKN,OVC,M,M,100,600,M,3.57
0CO,4/3/24,4:55:00 PM,21.2,19.4,92.63,350,7,0,30.34,M,M,BKN,OVC,M,M,600,1100,M,11.61
0CO,4/3/24,5:55:00 PM,21.2,19.4,92.63,20,5,0,30.35,M,15,M,M,M,M,M,M,M,13.57
0CO,4/3/24,6:55:00 PM,24.8,17.6,73.7,340,7,0,30.34,M,23,CLR,M,M,M,M,M,M,16
0CO,4/3/24,7:55:00 PM,26.6,14,58.49,320,7,0,30.33,M,17,CLR,M,M,M,M,M,M,18.2
0CO,4/3/24,8:55:00 PM,28.4,14,54.31,350,8,0,30.32,M,21,CLR,M,M,M,M,M,M,19.68
0CO,4/4/24,9:55:00 PM,28.4,14,54.31,340,9,0,30.31,M,18,CLR,M,M,M,M,M,M,19.04
0CO,4/4/24,10:55:00 PM,28.4,14,54.31,300,13,0,30.3,M,20,CLR,M,M,M,M,M,M,16.96
0CO,4/4/24,11:55:00 PM,28.4,8.6,42.73,290,17,0,30.3,M,23,CLR,M,M,M,M,M,M,15.36
0CO,4/4/24,12:55:00 AM,28.4,8.6,42.73,300,10,0,30.29,M,18,CLR,M,M,M,M,M,M,18.45
0CO,4/4/24,1:55:00 AM,24.8,8.6,49.59,300,11,0,30.29,M,M,CLR,M,M,M,M,M,M,13.37
0CO,4/4/24,2:55:00 AM,24.8,10.4,53.75,310,12,0,30.3,M,M,CLR,M,M,M,M,M,M,12.84
0CO,4/4/24,3:55:00 AM,24.8,10.4,53.75,300,11,0,30.29,M,14,CLR,M,M,M,M,M,M,13.37
0CO,4/4/24,4:55:00 AM,24.8,12.2,58.22,290,18,0,30.27,M,23,CLR,M,M,M,M,M,M,10.27
0CO,4/4/24,5:55:00 AM,24.8,12.2,58.22,280,16,0,30.26,M,23,CLR,M,M,M,M,M,M,11.03
0CO,4/4/24,6:55:00 AM,24.8,10.4,53.75,260,9,0,30.26,M,M,CLR,M,M,M,M,M,M,14.56
0CO,4/4/24,7:55:00 AM,23,10.4,57.96,310,9,0,30.25,M,M,CLR,M,M,M,M,M,M,12.32
0CO,4/4/24,8:55:00 AM,23,8.6,53.47,330,9,0,30.23,M,20,CLR,M,M,M,M,M,M,12.32
0CO,4/4/24,9:55:00 AM,23,6.8,49.29,320,13,0,30.22,M,19,CLR,M,M,M,M,M,M,10.04
0CO,4/4/24,10:55:00 AM,24.8,6.8,45.71,310,11,0,30.22,M,M,CLR,M,M,M,M,M,M,13.37
0CO,4/4/24,11:55:00 AM,24.8,5,42.11,320,11,0,30.22,M,M,CLR,M,M,M,M,M,M,13.37
0CO,4/4/24,12:55:00 PM,23,5,45.41,320,11,0,30.22,M,M,CLR,M,M,M,M,M,M,11.09
0CO,4/4/24,1:55:00 PM,24.8,3.2,38.77,300,15,0,30.21,M,21,CLR,M,M,M,M,M,M,11.45
0CO,4/4/24,2:55:00 PM,26.6,3.2,35.98,280,15,0,30.22,M,M,CLR,M,M,M,M,M,M,13.78
0CO,4/4/24,3:55:00 PM,28.4,1.4,30.73,290,14,0,30.24,M,18,CLR,M,M,M,M,M,M,16.52
0CO,4/4/24,4:55:00 PM,32,3.2,28.86,250,9,0,30.25,M,15,CLR,M,M,M,M,M,M,23.51
0CO,4/4/24,5:55:00 PM,32,-0.4,24.4,240,10,0,30.24,M,25,CLR,M,M,M,M,M,M,22.97
0CO,4/4/24,6:55:00 PM,33.8,-0.4,22.7,190,8,0,30.23,M,14,CLR,M,M,M,M,M,M,26.33
0CO,4/4/24,7:55:00 PM,35.6,1.4,22.99,230,9,0,30.22,M,15,CLR,M,M,M,M,M,M,27.99
0CO,4/4/24,8:55:00 PM,35.6,1.4,22.99,170,6,0,30.2,M,M,CLR,M,M,M,M,M,M,29.87
0CO,4/5/24,9:55:00 PM,35.6,1.4,22.99,160,6,0,30.2,M,M,CLR,M,M,M,M,M,M,29.87
0CO,4/5/24,10:55:00 PM,35.6,5,27.15,210,3,0,30.19,M,M,CLR,M,M,M,M,M,M,32.8
0CO,4/5/24,11:55:00 PM,33.8,6.8,31.66,170,15,0,30.19,M,23,CLR,M,M,M,M,M,M,23.11
0CO,4/5/24,12:55:00 AM,32,6.8,34.03,160,13,0,30.17,M,20,CLR,M,M,M,M,M,M,21.57
0CO,4/5/24,1:55:00 AM,32,10.4,40.01,150,20,0,30.17,M,31,CLR,M,M,M,M,M,M,19.14
0CO,4/5/24,2:55:00 AM,32,10.4,40.01,160,26,0,30.17,M,31,CLR,M,M,M,M,M,M,17.58
0CO,4/5/24,3:55:00 AM,32,8.6,36.91,160,25,0,30.17,M,39,CLR,M,M,M,M,M,M,17.81
0CO,4/5/24,4:55:00 AM,30.2,8.6,39.7,170,15,0,30.17,M,30,CLR,M,M,M,M,M,M,18.45
0CO,4/5/24,5:55:00 AM,32,6.8,34.03,220,11,0,30.14,M,17,CLR,M,M,M,M,M,M,22.47
0CO,4/5/24,6:55:00 AM,30.2,8.6,39.7,190,14,0,30.12,M,22,CLR,M,M,M,M,M,M,18.84
0CO,4/5/24,7:55:00 AM,30.2,8.6,39.7,210,9,0,30.11,M,24,CLR,M,M,M,M,M,M,21.28
0CO,4/5/24,8:55:00 AM,30.2,8.6,39.7,210,12,0,30.09,M,21,CLR,M,M,M,M,M,M,19.71
0CO,4/5/24,9:55:00 AM,30.2,8.6,39.7,240,10,0,30.07,M,15,CLR,M,M,M,M,M,M,20.71
0CO,4/5/24,10:55:00 AM,28.4,8.6,42.73,240,11,0,30.07,M,19,CLR,M,M,M,M,M,M,17.92
0CO,4/5/24,11:55:00 AM,28.4,8.6,42.73,250,10,0,30.07,M,19,CLR,M,M,M,M,M,M,18.45
0CO,4/5/24,12:55:00 PM,26.6,8.6,46.02,240,8,0,30.07,M,M,CLR,M,M,M,M,M,M,17.46
0CO,4/5/24,1:55:00 PM,28.4,8.6,42.73,210,9,0,30.06,M,M,CLR,M,M,M,M,M,M,19.04
0CO,4/5/24,2:55:00 PM,28.4,10.4,46.32,160,15,0,30.05,M,22,CLR,M,M,M,M,M,M,16.11
0CO,4/5/24,3:55:00 PM,30.2,3.2,31.04,220,10,0,30.03,M,21,CLR,M,M,M,M,M,M,20.71
0CO,4/5/24,4:55:00 PM,32,6.8,34.03,190,17,0,30.03,M,27,CLR,M,M,M,M,M,M,20.08
0CO,4/5/24,5:55:00 PM,32,10.4,40.01,180,23,0,30.03,M,29,CLR,M,M,M,M,M,M,18.31
0CO,4/5/24,6:55:00 PM,32,10.4,40.01,200,14,0,30,M,39,CLR,M,M,M,M,M,M,21.16
0CO,4/5/24,7:55:00 PM,32,12.2,43.34,160,27,0,29.97,M,36,SCT,SCT,M,M,6000,7500,M,17.34
0CO,4/5/24,8:55:00 PM,32,8.6,36.91,200,16,0,29.94,M,44,SCT,SCT,M,M,6000,7500,M,20.42
0CO,4/6/24,9:55:00 PM,32,5,31.35,170,35,0,29.93,M,43,BKN,BKN,M,M,7500,9000,M,15.72
0CO,4/6/24,10:55:00 PM,32,6.8,34.03,150,32,0,29.9,M,41,SCT,OVC,M,M,6500,9000,M,16.29
0CO,4/6/24,11:55:00 PM,32,3.2,28.86,180,22,0,29.9,M,35,SCT,M,M,M,10000,M,M,18.58
0CO,4/6/24,12:55:00 AM,30.2,8.6,39.7,150,41,0,29.88,M,53,SCT,SCT,BKN,M,4900,6500,9000,12.15
0CO,4/6/24,1:55:00 AM,28.4,6.8,39.39,170,24,0,29.87,M,36,SCT,M,M,M,12000,M,M,13.2
0CO,4/6/24,2:55:00 AM,28.4,10.4,46.32,150,28,0,29.86,M,39,SCT,BKN,OVC,M,6000,10000,12000,12.2
0CO,4/6/24,3:55:00 AM,23,17.6,79.47,150,28,0,29.84,M,36,SCT,BKN,OVC,M,1900,3500,10000,4.82
0CO,4/6/24,4:55:00 AM,21.2,21.2,100,150,30,0,29.81,M,35,M,M,M,M,M,M,M,1.84
0CO,4/6/24,5:55:00 AM,23,19.4,85.85,150,35,0,29.76,M,51,BKN,BKN,OVC,M,1300,3500,9000,3.17
0CO,4/6/24,6:55:00 AM,21.2,19.4,92.63,150,34,0,29.73,M,46,BKN,BKN,OVC,M,100,800,1400,0.89
0CO,4/6/24,7:55:00 AM,21.2,19.4,92.63,150,43,0,29.69,M,54,BKN,BKN,OVC,M,1100,5000,11000,-0.95
0CO,4/6/24,8:55:00 AM,23,14,67.96,170,35,0,29.64,M,41,CLR,M,M,M,M,M,M,3.17
0CO,4/6/24,9:55:00 AM,21.2,14,73.32,170,22,0,29.61,M,34,SCT,BKN,OVC,M,2400,7500,9500,4.12
0CO,4/6/24,10:55:00 AM,15.8,14,92.44,360,12,0,29.59,M,22,OVC,M,M,M,100,M,M,1.38
0CO,4/6/24,11:55:00 AM,12.2,8.6,85.17,350,18,0,29.56,M,28,OVC,M,M,M,100,M,M,-6.32
0CO,4/6/24,12:55:00 PM,10.4,8.6,92.25,320,22,0,29.55,M,39,OVC,M,M,M,100,M,M,-10.35
0CO,4/6/24,1:55:00 PM,10.4,6.8,85.05,350,23,0,29.52,M,37,OVC,M,M,M,100,M,M,-10.72
0CO,4/6/24,2:55:00 PM,8.6,3.2,78.18,M,M,0,29.48,M,M,OVC,M,M,M,100,M,M,M
0CO,4/6/24,3:55:00 PM,5,1.4,84.68,M,M,0,29.48,M,M,OVC,M,M,M,100,M,M,M
0CO,4/6/24,4:55:00 PM,5,1.4,84.68,M,M,0,29.48,M,M,M,M,M,M,M,M,M,M
0CO,4/6/24,5:55:00 PM,5,3.2,92.06,M,M,0,29.49,M,M,OVC,M,M,M,400,M,M,M
0CO,4/6/24,6:55:00 PM,5,1.4,84.68,M,M,0,29.46,M,M,BKN,OVC,M,M,500,1000,M,M
0CO,4/6/24,7:55:00 PM,5,1.4,84.68,M,M,0,29.49,M,M,OVC,M,M,M,200,M,M,M
0CO,4/6/24,8:55:00 PM,5,3.2,92.06,M,M,0,29.53,M,M,OVC,M,M,M,200,M,M,M
0CO,4/7/24,9:55:00 PM,5,3.2,92.06,M,M,0,29.52,M,M,OVC,M,M,M,200,M,M,M
0CO,4/7/24,10:55:00 PM,5,1.4,84.68,M,M,0,29.5,M,M,OVC,M,M,M,200,M,M,M
0CO,4/7/24,11:55:00 PM,5,3.2,92.06,M,M,0,29.51,M,M,OVC,M,M,M,200,M,M,M
0CO,4/7/24,12:55:00 AM,5,1.4,84.68,M,M,0,29.52,M,M,OVC,M,M,M,200,M,M,M
0CO,4/7/24,1:55:00 AM,5,1.4,84.68,M,M,0,29.55,M,M,OVC,M,M,M,200,M,M,M
0CO,4/7/24,2:55:00 AM,5,1.4,84.68,M,M,0,29.6,M,M,OVC,M,M,M,200,M,M,M
0CO,4/7/24,3:55:00 AM,5,1.4,84.68,M,M,0,29.59,M,M,BKN,OVC,M,M,200,500,M,M
0CO,4/7/24,4:55:00 AM,3.2,-0.4,84.56,M,M,0,29.58,M,M,BKN,OVC,M,M,400,900,M,M
0CO,4/7/24,5:55:00 AM,3.2,-0.4,84.56,M,M,0,29.57,M,M,BKN,OVC,M,M,200,900,M,M
0CO,4/7/24,6:55:00 AM,3.2,-0.4,84.56,M,M,0,29.58,M,M,BKN,OVC,M,M,400,800,M,M
0CO,4/7/24,7:55:00 AM,1.4,-2.2,84.43,M,M,0,29.6,M,M,OVC,M,M,M,200,M,M,M
0CO,4/7/24,8:55:00 AM,1.4,-0.4,91.92,M,M,0,29.64,M,M,OVC,M,M,M,200,M,M,M
0CO,4/7/24,9:55:00 AM,1.4,-2.2,84.43,M,M,0,29.62,M,M,BKN,OVC,M,M,200,600,M,M
0CO,4/7/24,10:55:00 AM,1.4,-2.2,84.43,M,M,0,29.62,M,M,BKN,OVC,M,M,400,900,M,M
0CO,4/7/24,11:55:00 AM,1.4,-2.2,84.43,M,M,0,29.6,M,M,BKN,OVC,M,M,400,900,M,M
0CO,4/7/24,12:55:00 PM,1.4,-2.2,84.43,M,M,0,29.66,M,M,OVC,M,M,M,200,M,M,M
0CO,4/7/24,1:55:00 PM,3.2,-0.4,84.56,M,M,0,29.7,M,M,OVC,M,M,M,200,M,M,M
0CO,4/7/24,2:55:00 PM,3.2,-0.4,84.56,M,M,0,29.72,M,M,BKN,OVC,M,M,400,1000,M,M
0CO,4/7/24,3:55:00 PM,3.2,-0.4,84.56,M,M,0,29.7,M,M,OVC,M,M,M,1000,M,M,M
0CO,4/7/24,4:55:00 PM,5,1.4,84.68,310,40,0,29.76,M,53,M,M,M,M,M,M,M,-23.24
0CO,4/7/24,5:55:00 PM,6.8,3.2,84.8,300,37,0,29.79,M,50,M,M,M,M,M,M,M,-19.95
0CO,4/7/24,6:55:00 PM,8.6,5,84.93,310,33,0,29.81,M,44,M,M,M,M,M,M,M,-16.36
0CO,4/7/24,7:55:00 PM,8.6,5,84.93,320,30,0,29.81,M,41,M,M,M,M,M,M,M,-15.49
0CO,4/7/24,8:55:00 PM,10.4,5,78.35,320,31,0,29.82,M,40,M,M,M,M,M,M,M,-13.31
0CO,4/8/24,9:55:00 PM,10.4,8.6,92.25,310,33,0,29.81,M,42,M,M,M,M,M,M,M,-13.87
0CO,4/8/24,10:55:00 PM,12.2,8.6,85.17,320,28,0,29.85,M,39,BKN,BKN,M,M,1500,2100,M,-9.95
0CO,4/8/24,11:55:00 PM,10.4,5,78.35,300,31,0,29.85,M,40,SCT,M,M,M,1900,M,M,-13.31
0CO,4/8/24,12:55:00 AM,10.4,3.2,72.12,310,26,0,29.86,M,35,SCT,M,M,M,1900,M,M,-11.77
0CO,4/8/24,1:55:00 AM,8.6,3.2,78.18,300,31,0,29.86,M,39,SCT,M,M,M,1800,M,M,-15.79
0CO,4/8/24,2:55:00 AM,8.6,3.2,78.18,280,37,0,29.86,M,49,SCT,M,M,M,1500,M,M,-17.42
0CO,4/8/24,3:55:00 AM,8.6,1.4,71.92,M,M,0,29.88,M,M,SCT,M,M,M,1800,M,M,M
0CO,4/8/24,4:55:00 AM,8.6,3.2,78.18,M,M,0,29.87,M,M,SCT,SCT,SCT,M,1400,1900,2600,M
0CO,4/8/24,5:55:00 AM,8.6,1.4,71.92,290,26,0,29.88,M,39,CLR,M,M,M,M,M,M,-14.21
0CO,4/8/24,6:55:00 AM,6.8,3.2,84.8,M,M,0,29.88,M,M,M,M,M,M,M,M,M,M
0CO,4/8/24,7:55:00 AM,6.8,3.2,84.8,M,M,0,29.86,M,M,BKN,BKN,OVC,M,600,1300,2100,M
0CO,4/8/24,8:55:00 AM,5,3.2,92.06,M,M,0,29.85,M,M,M,M,M,M,M,M,M,M
0CO,4/8/24,9:55:00 AM,5,3.2,92.06,330,23,0,29.84,M,32,M,M,M,M,M,M,M,-17.98
0CO,4/8/24,10:55:00 AM,5,1.4,84.68,330,19,0,29.86,M,29,OVC,M,M,M,100,M,M,-16.27
0CO,4/8/24,11:55:00 AM,5,1.4,84.68,M,M,0,29.86,M,M,BKN,OVC,M,M,100,500,M,M
0CO,4/8/24,12:55:00 PM,5,1.4,84.68,M,M,0,29.87,M,M,M,M,M,M,M,M,M,M
0CO,4/8/24,1:55:00 PM,5,1.4,84.68,M,M,0,29.89,M,M,M,M,M,M,M,M,M,M
0CO,4/8/24,2:55:00 PM,6.8,1.4,78.01,310,19,0,29.91,M,30,CLR,M,M,M,M,M,M,-13.89
0CO,4/8/24,3:55:00 PM,6.8,3.2,84.8,340,12,0,29.94,M,16,BKN,M,M,M,100,M,M,-10.07
0CO,4/8/24,4:55:00 PM,10.4,5,78.35,310,12,0,29.97,M,20,CLR,M,M,M,M,M,M,-5.49
0CO,4/8/24,5:55:00 PM,12.2,5,72.33,310,12,0,29.98,M,22,SCT,SCT,M,M,100,700,M,-3.2
0CO,4/8/24,6:55:00 PM,10.4,5,78.35,300,12,0,29.98,M,15,SCT,SCT,M,M,100,700,M,-5.49
0CO,4/8/24,7:55:00 PM,15.8,3.2,56.86,270,19,0.01,30,M,30,CLR,M,M,M,M,M,M,-1.99
0CO,4/8/24,8:55:00 PM,17.6,-0.4,44.48,280,16,0,30.03,M,25,CLR,M,M,M,M,M,M,1.65
0CO,4/9/24,9:55:00 PM,17.6,5,57.14,340,11,0,30.03,M,17,SCT,BKN,M,M,4100,4800,M,4.27
0CO,4/9/24,10:55:00 PM,17.6,8.6,67.28,310,6,0,30.05,M,M,SCT,SCT,M,M,2800,3600,M,8.19
0CO,4/9/24,11:55:00 PM,17.6,8.6,67.28,280,7,0,30.07,M,M,SCT,SCT,SCT,M,3700,4500,5000,7.23
0CO,4/9/24,12:55:00 AM,15.8,6.8,67.05,10,3,0,30.07,M,M,SCT,SCT,M,M,3300,4000,M,10.17
0CO,4/9/24,1:55:00 AM,14,5,66.82,200,5,0,30.08,M,15,CLR,M,M,M,M,M,M,5.02
0CO,4/9/24,2:55:00 AM,14,5,66.82,160,11,0,30.11,M,16,CLR,M,M,M,M,M,M,-0.28
0CO,4/9/24,3:55:00 AM,14,5,66.82,140,14,0,30.12,M,17,CLR,M,M,M,M,M,M,-2.04
0CO,4/9/24,4:55:00 AM,14,5,66.82,130,9,0,30.13,M,M,CLR,M,M,M,M,M,M,1.13
0CO,4/9/24,5:55:00 AM,12.2,5,72.33,150,14,0,30.13,M,18,CLR,M,M,M,M,M,M,-4.36
0CO,4/9/24,6:55:00 AM,14,5,66.82,180,13,0,30.12,M,20,CLR,M,M,M,M,M,M,-1.49
0CO,4/9/24,7:55:00 AM,12.2,8.6,85.17,240,15,0,30.11,M,M,CLR,M,M,M,M,M,M,-4.89
0CO,4/9/24,8:55:00 AM,12.2,6.8,78.51,260,12,0,30.09,M,19,CLR,M,M,M,M,M,M,-3.2
0CO,4/9/24,9:55:00 AM,10.4,5,78.35,320,11,0,30.07,M,19,CLR,M,M,M,M,M,M,-4.83
0CO,4/9/24,10:55:00 AM,8.6,3.2,78.18,330,9,0,30.07,M,M,CLR,M,M,M,M,M,M,-5.58
0CO,4/9/24,11:55:00 AM,8.6,5,84.93,320,16,0,30.06,M,M,M,M,M,M,M,M,M,-10.08
0CO,4/9/24,12:55:00 PM,8.6,3.2,78.18,320,17,0,30.06,M,22,CLR,M,M,M,M,M,M,-10.58
0CO,4/9/24,1:55:00 PM,10.4,3.2,72.12,330,20,0,30.08,M,26,CLR,M,M,M,M,M,M,-9.55
0CO,4/9/24,2:55:00 PM,10.4,3.2,72.12,340,20,0,30.08,M,27,CLR,M,M,M,M,M,M,-9.55
0CO,4/9/24,3:55:00 PM,12.2,5,72.33,350,17,0,30.1,M,26,CLR,M,M,M,M,M,M,-5.86
0CO,4/9/24,4:55:00 PM,14,5,66.82,340,19,0,30.11,M,26,CLR,M,M,M,M,M,M,-4.37
0CO,4/9/24,5:55:00 PM,19.4,6.8,57.41,330,13,0,30.11,M,22,CLR,M,M,M,M,M,M,5.43
0CO,4/9/24,6:55:00 PM,21.2,8.6,57.69,330,11,0,30.12,M,18,CLR,M,M,M,M,M,M,8.82
0CO,4/9/24,7:55:00 PM,21.2,8.6,57.69,270,5,0,30.12,M,16,CLR,M,M,M,M,M,M,13.57
0CO,4/9/24,8:55:00 PM,23,5,45.41,320,9,0,30.11,M,17,CLR,M,M,M,M,M,M,12.32
0CO,4/10/24,9:55:00 PM,23,6.8,49.29,290,6,0,30.12,M,18,CLR,M,M,M,M,M,M,14.69
0CO,4/10/24,10:55:00 PM,23,6.8,49.29,300,18,0,30.11,M,27,SCT,M,M,M,4500,M,M,7.9
0CO,4/10/24,11:55:00 PM,23,6.8,49.29,320,18,0,30.11,M,27,CLR,M,M,M,M,M,M,7.9
0CO,4/10/24,12:55:00 AM,21.2,5,48.99,300,9,0,30.13,M,20,CLR,M,M,M,M,M,M,10.08
0CO,4/10/24,1:55:00 AM,15.8,10.4,78.84,340,9,0,30.14,M,M,CLR,M,M,M,M,M,M,3.37
0CO,4/10/24,2:55:00 AM,15.8,8.6,72.73,320,19,0,30.15,M,25,SCT,BKN,BKN,M,1800,3200,4300,-1.99
0CO,4/10/24,3:55:00 AM,14,12.2,92.38,330,19,0,30.15,M,29,M,M,M,M,M,M,M,-4.37
0CO,4/10/24,4:55:00 AM,14,12.2,92.38,310,22,0,30.14,M,M,M,M,M,M,M,M,M,-5.52
0CO,4/10/24,5:55:00 AM,14,8.6,78.68,M,M,0,30.12,M,M,CLR,M,M,M,M,M,M,M
0CO,4/10/24,6:55:00 AM,14,12.2,92.38,320,20,0,30.12,M,M,M,M,M,M,M,M,M,-4.77
0CO,4/10/24,7:55:00 AM,14,12.2,92.38,330,21,0,30.11,M,29,BKN,OVC,M,M,100,700,M,-5.15
0CO,4/10/24,8:55:00 AM,14,12.2,92.38,320,30,0,30.09,M,36,BKN,OVC,M,M,100,600,M,-8.07
0CO,4/10/24,9:55:00 AM,14,12.2,92.38,320,30,0,30.1,M,39,BKN,OVC,M,M,200,600,M,-8.07
0CO,4/10/24,10:55:00 AM,14,10.4,85.28,330,20,0,30.11,M,36,OVC,M,M,M,200,M,M,-4.77
0CO,4/10/24,11:55:00 AM,12.2,10.4,92.32,320,28,0,30.1,M,37,BKN,BKN,OVC,M,200,800,1400,-9.95
0CO,4/10/24,12:55:00 PM,12.2,8.6,85.17,320,19,0,30.14,M,29,BKN,OVC,M,M,200,600,M,-6.75
0CO,4/10/24,1:55:00 PM,12.2,8.6,85.17,330,19,0,30.14,M,28,BKN,OVC,M,M,200,600,M,-6.75
0CO,4/10/24,2:55:00 PM,14,10.4,85.28,330,22,0,30.16,M,35,OVC,M,M,M,200,M,M,-5.52
0CO,4/10/24,3:55:00 PM,14,10.4,85.28,330,20,0,30.18,M,30,BKN,OVC,M,M,600,1300,M,-4.77
0CO,4/10/24,4:55:00 PM,17.6,14,85.51,360,9,0,30.19,M,26,BKN,OVC,M,M,300,600,M,5.61
0CO,4/10/24,5:55:00 PM,17.6,14,85.51,340,15,0,30.22,M,24,BKN,OVC,M,M,300,700,M,2.11
0CO,4/10/24,6:55:00 PM,17.6,14,85.51,320,18,0,30.21,M,23,M,M,M,M,M,M,M,0.79
0CO,4/10/24,7:55:00 PM,17.6,14,85.51,320,24,0,30.21,M,30,BKN,BKN,OVC,M,300,900,1400,-1.37
0CO,4/10/24,8:55:00 PM,17.6,14,85.51,330,22,0,30.22,M,31,M,M,M,M,M,M,M,-0.7
0CO,4/11/24,9:55:00 PM,17.6,15.8,92.5,330,25,0,30.21,M,35,M,M,M,M,M,M,M,-1.68
0CO,4/11/24,10:55:00 PM,17.6,14,85.51,320,26,0,30.22,M,36,M,M,M,M,M,M,M,-1.99
0CO,4/11/24,11:55:00 PM,19.4,14,79.16,330,22,0,30.24,M,28,SCT,BKN,OVC,M,1600,2100,2800,1.71
0CO,4/11/24,12:55:00 AM,17.6,15.8,92.5,320,20,0,30.24,M,24,M,M,M,M,M,M,M,0.01
0CO,4/11/24,1:55:00 AM,17.6,14,85.51,310,20,0,30.24,M,25,M,M,M,M,M,M,M,0.01
0CO,4/11/24,2:55:00 AM,17.6,12.2,79,310,22,0,30.26,M,28,SCT,BKN,OVC,M,1000,2900,4300,-0.7
0CO,4/11/24,3:55:00 AM,17.6,10.4,72.93,310,23,0,30.27,M,31,SCT,SCT,OVC,M,1900,3200,4000,-1.04
0CO,4/11/24,4:55:00 AM,19.4,8.6,62.28,320,19,0,30.27,M,27,SCT,BKN,OVC,M,2600,4000,4600,2.77
0CO,4/11/24,5:55:00 AM,17.6,8.6,67.28,320,19,0,30.25,M,28,SCT,SCT,OVC,M,2700,3700,4400,0.39
0CO,4/11/24,6:55:00 AM,17.6,6.8,62.02,320,24,0,30.24,M,30,M,M,M,M,M,M,M,-1.37
0CO,4/11/24,7:55:00 AM,17.6,5,57.14,310,27,0,30.21,M,34,CLR,M,M,M,M,M,M,-2.28
0CO,4/11/24,8:55:00 AM,14,5,66.82,320,27,0,30.2,M,34,CLR,M,M,M,M,M,M,-7.19
0CO,4/11/24,9:55:00 AM,14,5,66.82,310,28,0,30.19,M,33,CLR,M,M,M,M,M,M,-7.49
0CO,4/11/24,10:55:00 AM,14,3.2,61.51,310,28,0,30.17,M,37,CLR,M,M,M,M,M,M,-7.49
0CO,4/11/24,11:55:00 AM,14,1.4,56.58,320,25,0,30.18,M,39,CLR,M,M,M,M,M,M,-6.56
0CO,4/11/24,12:55:00 PM,12.2,1.4,61.25,320,27,0,30.18,M,36,CLR,M,M,M,M,M,M,-9.64
0CO,4/11/24,1:55:00 PM,14,-0.4,52.01,320,24,0,30.19,M,33,CLR,M,M,M,M,M,M,-6.22
0CO,4/11/24,2:55:00 PM,17.6,1.4,48.39,320,26,0,30.2,M,36,CLR,M,M,M,M,M,M,-1.99
0CO,4/11/24,3:55:00 PM,19.4,5,52.89,320,27,0,30.21,M,35,CLR,M,M,M,M,M,M,0.17
0CO,4/11/24,4:55:00 PM,21.2,5,48.99,310,27,0,30.22,M,38,CLR,M,M,M,M,M,M,2.62
0CO,4/11/24,5:55:00 PM,23,1.4,38.45,310,27,0,30.24,M,37,CLR,M,M,M,M,M,M,5.08
0CO,4/11/24,6:55:00 PM,24.8,5,42.11,310,22,0,30.25,M,31,CLR,M,M,M,M,M,M,8.94
0CO,4/11/24,7:55:00 PM,24.8,8.6,49.59,320,24,0,30.24,M,36,CLR,M,M,M,M,M,M,8.35
0CO,4/11/24,8:55:00 PM,26.6,10.4,49.88,320,22,0,30.24,M,34,CLR,M,M,M,M,M,M,11.35
0CO,4/12/24,9:55:00 PM,28.4,8.6,42.73,320,19,0,30.25,M,M,CLR,M,M,M,M,M,M,14.68
0CO,4/12/24,10:55:00 PM,28.4,10.4,46.32,310,21,0,30.25,M,30,CLR,M,M,M,M,M,M,14.05
0CO,4/12/24,11:55:00 PM,28.4,10.4,46.32,310,17,0,30.25,M,25,CLR,M,M,M,M,M,M,15.36
0CO,4/12/24,12:55:00 AM,26.6,10.4,49.88,310,15,0,30.27,M,20,CLR,M,M,M,M,M,M,13.78
0CO,4/12/24,1:55:00 AM,23,8.6,53.47,330,12,0,30.28,M,19,CLR,M,M,M,M,M,M,10.55
0CO,4/12/24,2:55:00 AM,23,8.6,53.47,320,12,0,30.3,M,19,CLR,M,M,M,M,M,M,10.55
0CO,4/12/24,3:55:00 AM,23,6.8,49.29,310,16,0,30.31,M,22,CLR,M,M,M,M,M,M,8.69
0CO,4/12/24,4:55:00 AM,23,8.6,53.47,310,16,0,30.3,M,M,CLR,M,M,M,M,M,M,8.69
0CO,4/12/24,5:55:00 AM,23,6.8,49.29,300,19,0,30.3,M,24,CLR,M,M,M,M,M,M,7.54
0CO,4/12/24,6:55:00 AM,23,5,45.41,300,24,0,30.29,M,28,CLR,M,M,M,M,M,M,5.92
0CO,4/12/24,7:55:00 AM,23,5,45.41,310,19,0,30.3,M,24,CLR,M,M,M,M,M,M,7.54
0CO,4/12/24,8:55:00 AM,24.8,8.6,49.59,310,22,0,30.29,M,28,CLR,M,M,M,M,M,M,8.94
0CO,4/12/24,9:55:00 AM,23,8.6,53.47,310,19,0,30.3,M,25,CLR,M,M,M,M,M,M,7.54
0CO,4/12/24,10:55:00 AM,23,8.6,53.47,310,22,0,30.31,M,27,CLR,M,M,M,M,M,M,6.53
0CO,4/12/24,11:55:00 AM,23,6.8,49.29,310,20,0,30.31,M,29,CLR,M,M,M,M,M,M,7.19
0CO,4/12/24,12:55:00 PM,23,5,45.41,310,20,0,30.32,M,25,CLR,M,M,M,M,M,M,7.19
0CO,4/12/24,1:55:00 PM,26.6,5,39.08,320,13,0,30.35,M,23,CLR,M,M,M,M,M,M,14.65
0CO,4/12/24,2:55:00 PM,28.4,6.8,39.39,310,7,0,30.38,M,16,CLR,M,M,M,M,M,M,20.39
0CO,4/12/24,3:55:00 PM,30.2,10.4,43.04,310,6,0,30.38,M,20,CLR,M,M,M,M,M,M,23.36
0CO,4/12/24,4:55:00 PM,32,10.4,40.01,250,6,0,30.4,M,15,CLR,M,M,M,M,M,M,25.53
0CO,4/12/24,5:55:00 PM,32,6.8,34.03,280,16,0,30.39,M,23,CLR,M,M,M,M,M,M,20.42
0CO,4/12/24,6:55:00 PM,33.8,8.6,34.34,290,10,0,30.38,M,21,CLR,M,M,M,M,M,M,25.23
0CO,4/12/24,7:55:00 PM,33.8,10.4,37.22,290,11,0,30.38,M,22,CLR,M,M,M,M,M,M,24.74
0CO,4/12/24,8:55:00 PM,35.6,10.4,34.65,230,5,0,30.38,M,14,SCT,M,M,M,7000,M,M,30.67
0CO,4/13/24,9:55:00 PM,37.4,8.6,29.77,0,0,0,30.38,M,M,SCT,M,M,M,7000,M,M,37.4
0CO,4/13/24,10:55:00 PM,35.6,10.4,34.65,220,6,0,30.38,M,M,BKN,OVC,M,M,7000,8000,M,29.87
0CO,4/13/24,11:55:00 PM,35.6,12.2,37.53,260,5,0,30.38,M,18,SCT,M,M,M,8500,M,M,30.67
0CO,4/13/24,12:55:00 AM,33.8,10.4,37.22,260,12,0,30.36,M,16,CLR,M,M,M,M,M,M,24.29
0CO,4/13/24,1:55:00 AM,33.8,10.4,37.22,190,7,0,30.38,M,15,OVC,M,M,M,9000,M,M,26.97
0CO,4/13/24,2:55:00 AM,32,8.6,36.91,180,11,0,30.39,M,20,SCT,SCT,OVC,M,5500,7000,8500,22.47
0CO,4/13/24,3:55:00 AM,32,8.6,36.91,210,10,0,30.38,M,17,SCT,SCT,SCT,M,7000,8500,11000,22.97
0CO,4/13/24,4:55:00 AM,32,8.6,36.91,200,9,0,30.36,M,19,CLR,M,M,M,M,M,M,23.51
0CO,4/13/24,6:55:00 AM,32,10.4,40.01,250,19,0,30.36,M,23,BKN,BKN,M,M,8500,11000,M,19.44
0CO,4/13/24,7:55:00 AM,30.2,14,50.47,280,9,0,30.34,M,30,SCT,M,M,M,9500,M,M,21.28
0CO,4/13/24,8:55:00 AM,28.4,17.6,63.51,270,17,0,30.32,M,22,SCT,SCT,SCT,M,4400,9000,12000,15.36
0CO,4/13/24,9:55:00 AM,28.4,17.6,63.51,290,20,0,30.31,M,26,SCT,SCT,BKN,M,6500,8000,11000,14.36
0CO,4/13/24,10:55:00 AM,26.6,17.6,68.4,290,26,0,30.3,M,31,CLR,M,M,M,M,M,M,10.24
0CO,4/13/24,11:55:00 AM,26.6,17.6,68.4,330,21,0,30.3,M,32,CLR,M,M,M,M,M,M,11.65
0CO,4/13/24,12:55:00 PM,26.6,17.6,68.4,320,18,0,30.31,M,26,CLR,M,M,M,M,M,M,12.64
0CO,4/13/24,1:55:00 PM,26.6,15.8,63.27,320,15,0,30.33,M,20,CLR,M,M,M,M,M,M,13.78
0CO,4/13/24,2:55:00 PM,28.4,15.8,58.75,320,15,0,30.33,M,23,CLR,M,M,M,M,M,M,16.11
0CO,4/13/24,3:55:00 PM,32,17.6,54.87,330,16,0,30.34,M,24,CLR,M,M,M,M,M,M,20.42
0CO,4/13/24,4:55:00 PM,32,17.6,54.87,330,18,0,30.35,M,25,CLR,M,M,M,M,M,M,19.75
0CO,4/13/24,5:55:00 PM,33.8,19.4,55.14,330,10,0,30.37,M,18,SCT,SCT,M,M,4300,4900,M,25.23
0CO,4/13/24,6:55:00 PM,35.6,17.6,47.51,300,10,0,30.38,M,24,SCT,SCT,M,M,4800,6000,M,27.48
0CO,4/13/24,7:55:00 PM,33.8,15.8,47.22,300,17,0,30.36,M,21,SCT,BKN,BKN,M,5000,7000,9000,22.43
0CO,4/13/24,8:55:00 PM,35.6,14,40.63,310,10,0,30.36,M,15,SCT,M,M,M,5000,M,M,27.48
0CO,4/13/24,9:55:00 PM,35.6,15.8,43.95,320,6,0,30.36,M,M,SCT,BKN,OVC,M,6000,7500,9000,29.87
0CO,4/14/24,10:55:00 PM,33.8,12.2,40.32,270,7,0,30.36,M,M,BKN,BKN,M,M,7000,8000,M,26.97
0CO,4/14/24,11:55:00 PM,33.8,12.2,40.32,290,10,0,30.37,M,15,SCT,BKN,OVC,M,3600,4600,8000,25.23
0CO,4/14/24,12:55:00 AM,33.8,14,43.65,310,10,0,30.36,M,14,CLR,M,M,M,M,M,M,25.23
0CO,4/14/24,1:55:00 AM,32,12.2,43.34,0,0,0,30.37,M,M,CLR,M,M,M,M,M,M,32
0CO,4/14/24,2:55:00 AM,32,12.2,43.34,310,10,0,30.38,M,M,CLR,M,M,M,M,M,M,22.97
0CO,4/14/24,3:55:00 AM,32,10.4,40.01,290,12,0,30.38,M,M,CLR,M,M,M,M,M,M,22
0CO,4/14/24,4:55:00 AM,32,10.4,40.01,190,3,0,30.38,M,M,CLR,M,M,M,M,M,M,28.69
0CO,4/14/24,5:55:00 AM,32,12.2,43.34,180,7,0,30.38,M,M,CLR,M,M,M,M,M,M,24.78
0CO,4/14/24,6:55:00 AM,32,12.2,43.34,190,5,0,30.38,M,M,CLR,M,M,M,M,M,M,26.4
0CO,4/14/24,7:55:00 AM,30.2,12.2,46.62,240,9,0,30.37,M,M,CLR,M,M,M,M,M,M,21.28
0CO,4/14/24,8:55:00 AM,32,10.4,40.01,270,10,0,30.36,M,17,CLR,M,M,M,M,M,M,22.97
0CO,4/14/24,9:55:00 AM,30.2,10.4,43.04,240,4,0,30.35,M,M,CLR,M,M,M,M,M,M,25.32
0CO,4/14/24,10:55:00 AM,30.2,10.4,43.04,200,6,0,30.36,M,M,CLR,M,M,M,M,M,M,23.36
0CO,4/14/24,11:55:00 AM,30.2,8.6,39.7,250,9,0,30.35,M,M,CLR,M,M,M,M,M,M,21.28
0CO,4/14/24,12:55:00 PM,30.2,8.6,39.7,190,5,0,30.36,M,M,CLR,M,M,M,M,M,M,24.26
0CO,4/14/24,1:55:00 PM,32,8.6,36.91,170,12,0,30.36,M,16,CLR,M,M,M,M,M,M,22
0CO,4/14/24,2:55:00 PM,32,8.6,36.91,150,6,0,30.36,M,15,CLR,M,M,M,M,M,M,25.53
0CO,4/14/24,3:55:00 PM,32,8.6,36.91,190,7,0,30.37,M,23,CLR,M,M,M,M,M,M,24.78
0CO,4/14/24,4:55:00 PM,33.8,10.4,37.22,150,11,0,30.38,M,19,CLR,M,M,M,M,M,M,24.74
0CO,4/14/24,5:55:00 PM,35.6,6.8,29.47,170,18,0,30.36,M,29,CLR,M,M,M,M,M,M,24.49
0CO,4/14/24,6:55:00 PM,37.4,3.2,23.28,180,14,0,30.34,M,22,CLR,M,M,M,M,M,M,28.12
0CO,4/14/24,7:55:00 PM,37.4,5,25.28,200,6,0,30.34,M,16,CLR,M,M,M,M,M,M,32.03
0CO,4/14/24,8:55:00 PM,37.4,3.2,23.28,210,3,0,30.33,M,17,CLR,M,M,M,M,M,M,34.86
0CO,4/14/24,9:55:00 PM,37.4,5,25.28,210,4,0,30.3,M,17,CLR,M,M,M,M,M,M,33.73
0CO,4/15/24,10:55:00 PM,37.4,5,25.28,170,12,0,30.29,M,18,CLR,M,M,M,M,M,M,28.87
0CO,4/15/24,11:55:00 PM,37.4,6.8,27.45,200,7,0,30.28,M,28,CLR,M,M,M,M,M,M,31.36
0CO,4/15/24,12:55:00 AM,35.6,8.6,31.97,170,14,0,30.25,M,24,BKN,M,M,M,9000,M,M,25.8
0CO,4/15/24,1:55:00 AM,35.6,6.8,29.47,160,25,0,30.24,M,35,SCT,M,M,M,9000,M,M,22.69
0CO,4/15/24,2:55:00 AM,35.6,5,27.15,160,23,0,30.22,M,34,CLR,M,M,M,M,M,M,23.15
0CO,4/15/24,3:55:00 AM,33.8,5,29.16,170,26,0,30.22,M,34,CLR,M,M,M,M,M,M,20.02
0CO,4/15/24,4:55:00 AM,33.8,3.2,26.85,170,27,0,30.19,M,37,CLR,M,M,M,M,M,M,19.8
0CO,4/15/24,5:55:00 AM,32,-0.4,24.4,190,16,0,30.15,M,27,CLR,M,M,M,M,M,M,20.42
0CO,4/15/24,6:55:00 AM,32,-0.4,24.4,220,17,0,30.12,M,25,CLR,M,M,M,M,M,M,20.08
0CO,4/15/24,7:55:00 AM,32,-4,20.57,210,14,0,30.09,M,31,CLR,M,M,M,M,M,M,21.16
0CO,4/15/24,8:55:00 AM,30.2,1.4,28.55,230,14,0,30.06,M,29,CLR,M,M,M,M,M,M,18.84
0CO,4/15/24,9:55:00 AM,32,1.4,26.55,220,15,0,30.03,M,36,CLR,M,M,M,M,M,M,20.78
0CO,4/15/24,10:55:00 AM,30.2,1.4,28.55,220,14,0,30.01,M,30,CLR,M,M,M,M,M,M,18.84
0CO,4/15/24,11:55:00 AM,32,1.4,26.55,210,15,0,30,M,28,CLR,M,M,M,M,M,M,20.78
0CO,4/15/24,12:55:00 PM,30.2,1.4,28.55,240,15,0,30,M,28,CLR,M,M,M,M,M,M,18.45
0CO,4/15/24,1:55:00 PM,24.8,5,42.11,340,10,0,30,M,16,CLR,M,M,M,M,M,M,13.94
0CO,4/15/24,2:55:00 PM,26.6,6.8,42.42,200,5,0,29.96,M,M,CLR,M,M,M,M,M,M,19.98
0CO,4/15/24,3:55:00 PM,32,1.4,26.55,230,10,0,29.95,M,18,CLR,M,M,M,M,M,M,22.97
0CO,4/15/24,4:55:00 PM,32,3.2,28.86,250,21,0,29.93,M,26,CLR,M,M,M,M,M,M,18.85
0CO,4/15/24,5:55:00 PM,32,3.2,28.86,190,17,0,29.9,M,30,CLR,M,M,M,M,M,M,20.08
0CO,4/15/24,6:55:00 PM,30.2,-0.4,26.25,190,14,0,29.87,M,26,SCT,OVC,M,M,7500,8500,M,18.84
0CO,4/15/24,7:55:00 PM,32,8.6,36.91,240,15,0,29.86,M,28,SCT,BKN,OVC,M,4900,6000,7000,20.78
0CO,4/15/24,8:55:00 PM,32,5,31.35,240,15,0,29.83,M,26,SCT,BKN,OVC,M,5500,7000,8000,20.78
0CO,4/15/24,9:55:00 PM,26.6,6.8,42.42,280,5,0,29.82,M,M,SCT,BKN,OVC,M,3200,4100,6000,19.98
0CO,4/16/24,10:55:00 PM,21.2,15.8,79.31,350,14,0,29.83,M,27,SCT,BKN,OVC,M,900,2100,2700,7.24
0CO,4/16/24,11:55:00 PM,17.6,15.8,92.5,350,15,0,29.82,M,31,OVC,M,M,M,100,M,M,2.11
0CO,4/16/24,12:55:00 AM,17.6,14,85.51,310,24,0,29.82,M,31,OVC,M,M,M,100,M,M,-1.37
0CO,4/16/24,1:55:00 AM,14,12.2,92.38,310,17,0,29.83,M,M,BKN,OVC,M,M,400,1000,M,-3.51
0CO,4/16/24,3:55:00 AM,14,12.2,92.38,320,32,0,29.79,M,38,OVC,M,M,M,200,M,M,-8.61
0CO,4/16/24,4:55:00 AM,14,12.2,92.38,340,32,0,29.78,M,38,OVC,M,M,M,200,M,M,-8.61
0CO,4/16/24,5:55:00 AM,14,12.2,92.38,340,25,0,29.79,M,35,OVC,M,M,M,200,M,M,-6.56
0CO,4/16/24,6:55:00 AM,14,12.2,92.38,350,29,0,29.78,M,37,OVC,M,M,M,200,M,M,-7.78
0CO,4/16/24,7:55:00 AM,17.6,14,85.51,320,32,0,29.77,M,40,OVC,M,M,M,200,M,M,-3.63
0CO,4/16/24,8:55:00 AM,17.6,14,85.51,M,M,0,29.77,M,M,OVC,M,M,M,200,M,M,M
0CO,4/16/24,9:55:00 AM,17.6,14,85.51,330,28,0,29.82,M,35,OVC,M,M,M,200,M,M,-2.57
0CO,4/16/24,10:55:00 AM,19.4,17.6,92.57,M,M,0,29.79,M,M,OVC,M,M,M,200,M,M,M
0CO,4/16/24,11:55:00 AM,19.4,17.6,92.57,320,35,0,29.82,M,M,OVC,M,M,M,200,M,M,-1.85
0CO,4/16/24,12:55:00 PM,19.4,17.6,92.57,M,M,0,29.86,M,M,OVC,M,M,M,200,M,M,M
0CO,4/16/24,1:55:00 PM,19.4,17.6,92.57,M,M,0.01,29.9,M,M,BKN,BKN,OVC,M,200,600,1000,M
0CO,4/16/24,2:55:00 PM,21.2,19.4,92.63,320,38,0,29.91,M,M,OVC,M,M,M,200,M,M,0.02
0CO,4/16/24,3:55:00 PM,21.2,19.4,92.63,M,M,0.01,29.91,M,M,OVC,M,M,M,200,M,M,M
0CO,4/16/24,4:55:00 PM,21.2,19.4,92.63,M,M,0.01,29.93,M,M,OVC,M,M,M,200,M,M,M
0CO,4/16/24,5:55:00 PM,21.2,19.4,92.63,M,M,0,29.97,M,M,OVC,M,M,M,200,M,M,M
0CO,4/16/24,6:55:00 PM,21.2,21.2,100,M,M,0.01,30.01,M,M,OVC,M,M,M,200,M,M,M
0CO,4/16/24,7:55:00 PM,21.2,21.2,100,310,27,0.01,30.09,M,35,OVC,M,M,M,200,M,M,2.62
0CO,4/16/24,8:55:00 PM,21.2,21.2,100,310,27,0,30.11,M,42,BKN,BKN,OVC,M,200,700,1400,2.62
0CO,4/16/24,9:55:00 PM,21.2,19.4,92.63,310,27,0,30.13,M,40,M,M,M,M,M,M,M,2.62
0CO,4/16/24,10:55:00 PM,23,21.2,92.69,320,25,0,30.15,M,35,BKN,BKN,OVC,M,300,700,1200,5.63
0CO,4/17/24,11:55:00 PM,21.2,21.2,100,310,27,0,30.14,M,35,BKN,OVC,M,M,600,1900,M,2.62
0CO,4/17/24,12:55:00 AM,23,21.2,92.69,320,21,0,30.18,M,27,M,M,M,M,M,M,M,6.85
0CO,4/17/24,1:55:00 AM,21.2,19.4,92.63,300,18,0,30.19,M,25,M,M,M,M,M,M,M,5.53
0CO,4/17/24,2:55:00 AM,21.2,19.4,92.63,310,22,0,30.2,M,31,M,M,M,M,M,M,M,4.12
0CO,4/17/24,3:55:00 AM,21.2,19.4,92.63,300,26,0,30.2,M,32,M,M,M,M,M,M,M,2.9
0CO,4/17/24,4:55:00 AM,23,19.4,85.85,300,24,0,30.2,M,28,M,M,M,M,M,M,M,5.92
0CO,4/17/24,5:55:00 AM,23,17.6,79.47,280,21,0,30.21,M,30,CLR,M,M,M,M,M,M,6.85
0CO,4/17/24,6:55:00 AM,23,17.6,79.47,270,23,0,30.2,M,30,SCT,M,M,M,1800,M,M,6.22
0CO,4/17/24,7:55:00 AM,23,17.6,79.47,280,20,0,30.19,M,34,SCT,M,M,M,2900,M,M,7.19
0CO,4/17/24,8:55:00 AM,23,17.6,79.47,270,16,0,30.19,M,28,SCT,BKN,M,M,2000,2700,M,8.69
0CO,4/17/24,9:55:00 AM,23,17.6,79.47,290,15,0,30.19,M,31,SCT,SCT,M,M,1700,2400,M,9.11
0CO,4/17/24,10:55:00 AM,23,17.6,79.47,290,19,0,30.17,M,30,CLR,M,M,M,M,M,M,7.54
0CO,4/17/24,11:55:00 AM,23,15.8,73.51,290,28,0,30.14,M,35,CLR,M,M,M,M,M,M,4.82
0CO,4/17/24,12:55:00 PM,23,14,67.96,300,21,0,30.15,M,30,CLR,M,M,M,M,M,M,6.85
0CO,4/17/24,1:55:00 PM,23,15.8,73.51,290,18,0,30.15,M,30,SCT,SCT,M,M,2700,3100,M,7.9
0CO,4/17/24,2:55:00 PM,24.8,17.6,73.7,M,M,0,30.14,M,M,SCT,BKN,BKN,M,2400,2900,3700,M
0CO,4/17/24,3:55:00 PM,26.6,17.6,68.4,280,25,0,30.14,M,35,SCT,BKN,BKN,M,2400,3500,4200,10.5
0CO,4/17/24,4:55:00 PM,28.4,19.4,68.61,310,17,0,30.17,M,29,BKN,OVC,M,M,2600,3700,M,15.36
0CO,4/17/24,5:55:00 PM,28.4,19.4,68.61,280,28,0,30.15,M,35,BKN,OVC,M,M,2600,3400,M,12.2
0CO,4/17/24,6:55:00 PM,32,19.4,59.27,280,19,0,30.15,M,35,SCT,BKN,OVC,M,3400,4100,4900,19.44
0CO,4/17/24,7:55:00 PM,32,17.6,54.87,280,26,0,30.15,M,31,SCT,BKN,BKN,M,3800,4800,6000,17.58
0CO,4/17/24,8:55:00 PM,32,19.4,59.27,270,18,0,30.15,M,41,SCT,BKN,M,M,3900,4700,M,19.75
0CO,4/17/24,9:55:00 PM,32,19.4,59.27,280,30,0,30.14,M,42,SCT,BKN,BKN,M,3600,4200,5000,16.69
0CO,4/17/24,10:55:00 PM,32,17.6,54.87,280,26,0,30.15,M,34,SCT,BKN,OVC,M,2500,4900,6500,17.58
0CO,4/18/24,11:55:00 PM,32,19.4,59.27,280,25,0,30.17,M,31,CLR,M,M,M,M,M,M,17.81
0CO,4/18/24,12:55:00 AM,32,17.6,54.87,270,19,0,30.19,M,31,CLR,M,M,M,M,M,M,19.44
0CO,4/18/24,1:55:00 AM,32,17.6,54.87,270,16,0,30.22,M,31,SCT,SCT,BKN,M,4400,5000,5500,20.42
0CO,4/18/24,2:55:00 AM,26.6,21.2,79.77,280,14,0,30.22,M,25,BKN,OVC,M,M,4800,6000,M,14.2
0CO,4/18/24,3:55:00 AM,28.4,17.6,63.51,250,16,0,30.23,M,29,SCT,BKN,OVC,M,2600,7500,8500,15.73
0CO,4/18/24,4:55:00 AM,28.4,17.6,63.51,280,17,0,30.22,M,30,SCT,SCT,OVC,M,3800,5000,7000,15.36
0CO,4/18/24,5:55:00 AM,24.8,21.2,85.96,340,13,0,30.2,M,22,M,M,M,M,M,M,M,12.34
0CO,4/18/24,6:55:00 AM,23,23,100,350,8,0,30.2,M,M,OVC,M,M,M,100,M,M,13.03
0CO,4/18/24,7:55:00 AM,23,23,100,310,15,0,30.19,M,19,BKN,OVC,M,M,100,600,M,9.11
0CO,4/18/24,8:55:00 AM,23,21.2,92.69,270,20,0,30.17,M,35,M,M,M,M,M,M,M,7.19
0CO,4/18/24,9:55:00 AM,23,17.6,79.47,280,23,0,30.16,M,33,SCT,M,M,M,2500,M,M,6.22
0CO,4/18/24,10:55:00 AM,24.8,15.8,68.18,290,20,0,30.15,M,36,CLR,M,M,M,M,M,M,9.58
0CO,4/18/24,11:55:00 AM,24.8,15.8,68.18,290,23,0,30.14,M,34,SCT,M,M,M,3200,M,M,8.64
0CO,4/18/24,12:55:00 PM,24.8,17.6,73.7,270,25,0,30.16,M,37,BKN,BKN,OVC,M,2800,3700,7000,8.07
0CO,4/18/24,1:55:00 PM,24.8,19.4,79.62,280,28,0,30.16,M,36,SCT,BKN,OVC,M,1000,2500,7000,7.28
0CO,4/18/24,2:55:00 PM,26.6,21.2,79.77,270,24,0,30.17,M,37,BKN,BKN,OVC,M,1800,2600,3400,10.77
0CO,4/18/24,3:55:00 PM,26.6,21.2,79.77,270,23,0,30.17,M,34,M,M,M,M,M,M,M,11.06
0CO,4/18/24,4:55:00 PM,26.6,21.2,79.77,270,21,0,30.19,M,31,M,M,M,M,M,M,M,11.65
0CO,4/18/24,5:55:00 PM,26.6,21.2,79.77,270,24,0,30.17,M,35,SCT,BKN,OVC,M,1100,1900,2700,10.77
0CO,4/18/24,6:55:00 PM,26.6,21.2,79.77,270,34,0,30.16,M,41,SCT,BKN,OVC,M,1700,2400,4000,8.4
0CO,4/18/24,7:55:00 PM,28.4,19.4,68.61,280,24,0,30.17,M,40,SCT,BKN,OVC,M,3000,3600,5000,13.2
0CO,4/18/24,8:55:00 PM,30.2,17.6,59.01,280,27,0,30.17,M,48,SCT,BKN,OVC,M,3100,4000,5500,14.89
0CO,4/18/24,9:55:00 PM,30.2,17.6,59.01,270,29,0,30.17,M,40,BKN,OVC,M,M,4300,5000,M,14.44
0CO,4/18/24,10:55:00 PM,30.2,19.4,63.75,280,28,0,30.17,M,37,SCT,BKN,BKN,M,4000,5000,6000,14.66
0CO,4/19/24,11:55:00 PM,28.4,19.4,68.61,290,15,0,30.19,M,34,SCT,BKN,OVC,M,4100,4900,5500,16.11
0CO,4/19/24,12:55:00 AM,28.4,17.6,63.51,280,20,0,30.19,M,M,SCT,SCT,OVC,M,3400,4300,5000,14.36
0CO,4/19/24,1:55:00 AM,26.6,17.6,68.4,330,11,0,30.19,M,18,SCT,SCT,OVC,M,4200,4900,5500,15.64
0CO,4/19/24,2:55:00 AM,26.6,17.6,68.4,270,21,0,30.21,M,31,SCT,SCT,OVC,M,3700,4700,12000,11.65
0CO,4/19/24,3:55:00 AM,28.4,14,54.31,260,16,0,30.22,M,32,SCT,SCT,M,M,7500,8500,M,15.73
0CO,4/19/24,4:55:00 AM,26.6,17.6,68.4,250,28,0,30.21,M,37,SCT,BKN,OVC,M,1400,3700,7000,9.74
0CO,4/19/24,5:55:00 AM,24.8,21.2,85.96,280,33,0,30.17,M,46,M,M,M,M,M,M,M,6.11
0CO,4/19/24,6:55:00 AM,24.8,23,92.74,290,20,0,30.19,M,38,BKN,BKN,OVC,M,300,800,1400,9.58
0CO,4/19/24,7:55:00 AM,24.8,23,92.74,290,16,0,30.18,M,25,OVC,M,M,M,100,M,M,11.03
0CO,4/19/24,8:55:00 AM,24.8,23,92.74,290,20,0,30.17,M,26,M,M,M,M,M,M,M,9.58
0CO,4/19/24,9:55:00 AM,23,21.2,92.69,300,27,0,30.16,M,37,OVC,M,M,M,100,M,M,5.08
0CO,4/19/24,10:55:00 AM,21.2,21.2,100,280,35,0,30.14,M,50,BKN,OVC,M,M,500,1000,M,0.66
0CO,4/19/24,11:55:00 AM,23,21.2,92.69,290,32,0,30.12,M,51,M,M,M,M,M,M,M,3.84
0CO,4/19/24,12:55:00 PM,23,19.4,85.85,300,27,0,30.13,M,40,M,M,M,M,M,M,M,5.08
0CO,4/19/24,1:55:00 PM,23,19.4,85.85,280,27,0,30.15,M,39,M,M,M,M,M,M,M,5.08
0CO,4/19/24,2:55:00 PM,24.8,19.4,79.62,300,23,0,30.15,M,39,SCT,SCT,M,M,1600,2400,M,8.64
0CO,4/19/24,3:55:00 PM,23,21.2,92.69,330,15,0,30.17,M,31,OVC,M,M,M,200,M,M,9.11
0CO,4/19/24,4:55:00 PM,23,23,100,300,13,0,30.19,M,23,OVC,M,M,M,200,M,M,10.04
0CO,4/19/24,5:55:00 PM,26.6,23,86.07,270,21,0,30.19,M,35,M,M,M,M,M,M,M,11.65
0CO,4/19/24,6:55:00 PM,28.4,23,79.92,270,25,0,30.19,M,36,BKN,BKN,OVC,M,400,1100,3100,12.94
0CO,4/19/24,7:55:00 PM,26.6,21.2,79.77,270,27,0,30.18,M,42,SCT,SCT,BKN,M,2400,3100,3700,9.98
0CO,4/19/24,8:55:00 PM,30.2,21.2,68.83,280,19,0,30.19,M,35,SCT,BKN,OVC,M,1300,2100,3000,17.06
0CO,4/19/24,9:55:00 PM,26.6,24.8,92.8,290,8,0.01,30.19,M,17,OVC,M,M,M,100,M,M,17.46
0CO,4/19/24,10:55:00 PM,26.6,24.8,92.8,310,12,0.03,30.2,M,20,OVC,M,M,M,100,M,M,15.13
0CO,4/20/24,11:55:00 PM,24.8,23,92.74,330,13,0.02,30.2,M,22,OVC,M,M,M,100,M,M,12.34
0CO,4/20/24,12:55:00 AM,23,23,100,M,M,0.06,30.22,M,M,OVC,M,M,M,100,M,M,M
0CO,4/20/24,1:55:00 AM,23,21.2,92.69,340,7,0.02,30.22,M,M,OVC,M,M,M,100,M,M,13.81
0CO,4/20/24,2:55:00 AM,23,21.2,92.69,320,8,0.05,30.25,M,M,OVC,M,M,M,200,M,M,13.03
0CO,4/20/24,3:55:00 AM,23,23,100,270,9,0.02,30.26,M,16,BKN,OVC,M,M,200,800,M,12.32
0CO,4/20/24,4:55:00 AM,23,23,100,320,6,0,30.26,M,M,OVC,M,M,M,200,M,M,14.69
0CO,4/20/24,5:55:00 AM,23,21.2,92.69,300,10,0.02,30.25,M,M,M,M,M,M,M,M,M,11.68
0CO,4/20/24,6:55:00 AM,23,21.2,92.69,310,11,0,30.25,M,M,BKN,OVC,M,M,200,700,M,11.09
0CO,4/20/24,7:55:00 AM,23,21.2,92.69,250,9,0.01,30.24,M,M,OVC,M,M,M,200,M,M,12.32
0CO,4/20/24,8:55:00 AM,23,21.2,92.69,330,6,0.01,30.22,M,M,OVC,M,M,M,200,M,M,14.69
0CO,4/20/24,9:55:00 AM,23,21.2,92.69,330,8,0,30.22,M,16,OVC,M,M,M,200,M,M,13.03
0CO,4/20/24,10:55:00 AM,21.2,21.2,100,350,13,0.02,30.22,M,16,OVC,M,M,M,200,M,M,7.73
0CO,4/20/24,11:55:00 AM,21.2,19.4,92.63,320,14,0.02,30.2,M,20,OVC,M,M,M,200,M,M,7.24
0CO,4/20/24,12:55:00 PM,21.2,19.4,92.63,300,16,0.01,30.22,M,23,OVC,M,M,M,200,M,M,6.34
0CO,4/20/24,1:55:00 PM,21.2,19.4,92.63,300,17,0,30.23,M,22,M,M,M,M,M,M,M,5.93
0CO,4/20/24,2:55:00 PM,21.2,19.4,92.63,300,18,0,30.23,M,24,M,M,M,M,M,M,M,5.53
0CO,4/20/24,3:55:00 PM,21.2,21.2,100,290,23,0,30.22,M,36,M,M,M,M,M,M,M,3.8
0CO,4/20/24,4:55:00 PM,23,21.2,92.69,310,29,0,30.2,M,41,BKN,OVC,M,M,800,1500,M,4.56
0CO,4/20/24,5:55:00 PM,23,23,100,310,19,0,30.23,M,33,BKN,OVC,M,M,100,600,M,7.54
0CO,4/20/24,6:55:00 PM,23,23,100,310,18,0,30.23,M,30,BKN,BKN,OVC,M,100,1000,1500,7.9
0CO,4/20/24,7:55:00 PM,23,21.2,92.69,M,M,0.04,30.22,M,M,OVC,M,M,M,100,M,M,M
0CO,4/20/24,8:55:00 PM,23,21.2,92.69,330,31,0.02,30.24,M,M,BKN,OVC,M,M,200,900,M,4.07
0CO,4/20/24,9:55:00 PM,21.2,19.4,92.63,330,26,0.02,30.24,M,36,M,M,M,M,M,M,M,2.9
0CO,4/20/24,10:55:00 PM,21.2,19.4,92.63,330,24,0,30.26,M,31,M,M,M,M,M,M,M,3.49
0CO,4/21/24,11:55:00 PM,21.2,19.4,92.63,330,23,0,30.27,M,31,BKN,BKN,OVC,M,700,2000,2800,3.8
0CO,4/21/24,12:55:00 AM,21.2,19.4,92.63,340,22,0,30.28,M,32,M,M,M,M,M,M,M,4.12
0CO,4/21/24,1:55:00 AM,19.4,19.4,100,320,19,0,30.29,M,31,BKN,BKN,OVC,M,100,500,1500,2.77
0CO,4/21/24,2:55:00 AM,19.4,17.6,92.57,320,14,0,30.31,M,20,M,M,M,M,M,M,M,4.92
0CO,4/21/24,3:55:00 AM,19.4,17.6,92.57,320,10,0,30.34,M,22,OVC,M,M,M,1400,M,M,7.17
0CO,4/21/24,4:55:00 AM,19.4,17.6,92.57,320,10,0,30.34,M,19,BKN,OVC,M,M,1200,2000,M,7.17
0CO,4/21/24,5:55:00 AM,19.4,17.6,92.57,310,13,0,30.34,M,16,M,M,M,M,M,M,M,5.43
0CO,4/21/24,6:55:00 AM,19.4,17.6,92.57,320,14,0,30.34,M,M,M,M,M,M,M,M,M,4.92
0CO,4/21/24,7:55:00 AM,17.6,14,85.51,320,16,0,30.32,M,M,M,M,M,M,M,M,M,1.65
0CO,4/21/24,8:55:00 AM,17.6,15.8,92.5,330,21,0,30.32,M,26,M,M,M,M,M,M,M,-0.35
0CO,4/21/24,9:55:00 AM,17.6,15.8,92.5,320,20,0,30.32,M,M,M,M,M,M,M,M,M,0.01
0CO,4/21/24,10:55:00 AM,17.6,14,85.51,320,22,0,30.31,M,29,M,M,M,M,M,M,M,-0.7
0CO,4/21/24,11:55:00 AM,17.6,14,85.51,310,20,0,30.32,M,29,M,M,M,M,M,M,M,0.01
0CO,4/21/24,12:55:00 PM,17.6,12.2,79,320,19,0,30.33,M,23,CLR,M,M,M,M,M,M,0.39
0CO,4/21/24,1:55:00 PM,17.6,12.2,79,330,18,0,30.35,M,24,CLR,M,M,M,M,M,M,0.79
0CO,4/21/24,2:55:00 PM,19.4,12.2,73.13,330,15,0,30.37,M,24,CLR,M,M,M,M,M,M,4.45
0CO,4/21/24,3:55:00 PM,21.2,14,73.32,330,13,0,30.38,M,19,SCT,M,M,M,1100,M,M,7.73
0CO,4/21/24,4:55:00 PM,23,10.4,57.96,290,15,0,30.39,M,22,CLR,M,M,M,M,M,M,9.11
0CO,4/21/24,5:55:00 PM,26.6,14,58.49,320,13,0,30.4,M,23,CLR,M,M,M,M,M,M,14.65
0CO,4/21/24,6:55:00 PM,26.6,8.6,46.02,310,18,0,30.38,M,24,CLR,M,M,M,M,M,M,12.64
0CO,4/21/24,7:55:00 PM,28.4,10.4,46.32,310,18,0,30.38,M,25,CLR,M,M,M,M,M,M,15.01
0CO,4/21/24,8:55:00 PM,28.4,12.2,50.17,300,18,0,30.38,M,27,CLR,M,M,M,M,M,M,15.01
0CO,4/21/24,9:55:00 PM,30.2,12.2,46.62,320,19,0,30.37,M,28,CLR,M,M,M,M,M,M,17.06
0CO,4/21/24,10:55:00 PM,30.2,12.2,46.62,310,18,0,30.36,M,27,CLR,M,M,M,M,M,M,17.38
0CO,4/22/24,11:55:00 PM,30.2,12.2,46.62,290,16,0,30.36,M,22,CLR,M,M,M,M,M,M,18.07
0CO,4/22/24,12:55:00 AM,30.2,10.4,43.04,290,12,0,30.34,M,20,CLR,M,M,M,M,M,M,19.71
0CO,4/22/24,1:55:00 AM,28.4,12.2,50.17,300,16,0,30.32,M,24,CLR,M,M,M,M,M,M,15.73
0CO,4/22/24,2:55:00 AM,28.4,12.2,50.17,280,20,0,30.32,M,29,CLR,M,M,M,M,M,M,14.36
0CO,4/22/24,3:55:00 AM,28.4,12.2,50.17,300,21,0,30.31,M,33,CLR,M,M,M,M,M,M,14.05
0CO,4/22/24,4:55:00 AM,28.4,12.2,50.17,290,28,0,30.28,M,39,CLR,M,M,M,M,M,M,12.2
0CO,4/22/24,5:55:00 AM,28.4,12.2,50.17,290,36,0,30.24,M,48,CLR,M,M,M,M,M,M,10.51
0CO,4/22/24,6:55:00 AM,28.4,12.2,50.17,300,30,0,30.23,M,45,CLR,M,M,M,M,M,M,11.74
0CO,4/22/24,7:55:00 AM,28.4,14,54.31,290,32,0,30.22,M,46,CLR,M,M,M,M,M,M,11.31
0CO,4/22/24,8:55:00 AM,28.4,17.6,63.51,310,37,0,30.18,M,50,CLR,M,M,M,M,M,M,10.32
0CO,4/22/24,9:55:00 AM,26.6,15.8,63.27,310,40,0,30.15,M,53,CLR,M,M,M,M,M,M,7.24
0CO,4/22/24,10:55:00 AM,28.4,14,54.31,310,37,0,30.16,M,49,CLR,M,M,M,M,M,M,10.32
0CO,4/22/24,11:55:00 AM,28.4,14,54.31,310,34,0,30.17,M,41,CLR,M,M,M,M,M,M,10.9
0CO,4/22/24,12:55:00 PM,28.4,15.8,58.75,320,30,0,30.18,M,42,CLR,M,M,M,M,M,M,11.74
0CO,4/22/24,1:55:00 PM,30.2,17.6,59.01,310,31,0,30.17,M,58,CLR,M,M,M,M,M,M,14.01
0CO,4/22/24,2:55:00 PM,30.2,19.4,63.75,320,30,0,30.17,M,44,SCT,SCT,M,M,3900,4700,M,14.22
0CO,4/22/24,3:55:00 PM,32,19.4,59.27,300,35,0,30.17,M,50,CLR,M,M,M,M,M,M,15.72
0CO,4/22/24,4:55:00 PM,32,19.4,59.27,290,34,0,30.19,M,50,SCT,SCT,M,M,4800,5500,M,15.91
0CO,4/22/24,5:55:00 PM,32,19.4,59.27,300,34,0,30.2,M,52,SCT,SCT,M,M,4300,5500,M,15.91
0CO,4/22/24,6:55:00 PM,33.8,17.6,51.04,280,29,0,30.22,M,50,SCT,BKN,BKN,M,4600,6000,7000,19.37
0CO,4/22/24,7:55:00 PM,33.8,21.2,59.53,320,16,0,30.24,M,29,SCT,BKN,OVC,M,4100,5000,7000,22.76
0CO,4/22/24,8:55:00 PM,35.6,17.6,47.51,280,28,0,30.24,M,41,SCT,SCT,M,M,4700,6000,M,22.04
0CO,4/22/24,10:55:00 PM,33.8,19.4,55.14,280,30,0,30.21,M,38,SCT,SCT,SCT,M,4500,6500,8000,19.17
0CO,4/22/24,11:55:00 PM,32,19.4,59.27,290,27,0,30.21,M,44,SCT,SCT,BKN,M,2900,3600,5000,17.34
0CO,4/23/24,12:55:00 AM,30.2,23,74.26,280,23,0,30.21,M,48,SCT,BKN,OVC,M,1300,2000,4400,15.89
0CO,4/23/24,1:55:00 AM,32,19.4,59.27,280,38,0,30.18,M,48,SCT,BKN,OVC,M,1900,3400,6500,15.19
0CO,4/23/24,2:55:00 AM,32,21.2,63.99,M,M,0,30.2,M,M,SCT,SCT,OVC,M,3700,4600,5500,M
0CO,4/23/24,3:55:00 AM,32,19.4,59.27,310,19,0,30.22,M,39,SCT,BKN,OVC,M,1200,4500,6000,19.44
0CO,4/23/24,4:55:00 AM,30.2,21.2,68.83,300,31,0,30.2,M,38,SCT,BKN,OVC,M,2600,4000,5500,14.01
0CO,4/23/24,5:55:00 AM,30.2,19.4,63.75,310,24,0,30.22,M,33,M,M,M,M,M,M,M,15.63
0CO,4/23/24,6:55:00 AM,28.4,19.4,68.61,310,24,0,30.23,M,33,SCT,BKN,OVC,M,3000,3700,4500,13.2
0CO,4/23/24,7:55:00 AM,26.6,19.4,73.89,320,26,0,30.2,M,32,CLR,M,M,M,M,M,M,10.24
0CO,4/23/24,8:55:00 AM,26.6,17.6,68.4,320,21,0,30.22,M,27,CLR,M,M,M,M,M,M,11.65
0CO,4/23/24,9:55:00 AM,26.6,15.8,63.27,320,18,0,30.22,M,27,SCT,M,M,M,5000,M,M,12.64
0CO,4/23/24,10:55:00 AM,26.6,14,58.49,320,19,0,30.24,M,27,BKN,BKN,BKN,M,3100,4200,5000,12.3
0CO,4/23/24,11:55:00 AM,24.8,14,63.03,320,16,0,30.25,M,25,BKN,OVC,M,M,3000,5000,M,11.03
0CO,4/23/24,12:55:00 PM,24.8,15.8,68.18,320,17,0,30.25,M,M,BKN,OVC,M,M,4800,5000,M,10.64
0CO,4/23/24,1:55:00 PM,26.6,21.2,79.77,310,15,0,30.27,M,20,SCT,SCT,BKN,M,800,1400,3200,13.78
0CO,4/23/24,2:55:00 PM,28.4,19.4,68.61,280,21,0,30.26,M,34,BKN,OVC,M,M,4700,5500,M,14.05
0CO,4/23/24,3:55:00 PM,30.2,19.4,63.75,290,18,0,30.29,M,32,OVC,M,M,M,3000,M,M,17.38
0CO,4/23/24,4:55:00 PM,30.2,21.2,68.83,280,24,0,30.3,M,34,SCT,BKN,OVC,M,3600,5000,7000,15.63
0CO,4/23/24,5:55:00 PM,32,23,69.04,280,23,0,30.31,M,34,SCT,BKN,OVC,M,6000,7000,8000,18.31
0CO,4/23/24,6:55:00 PM,33.8,19.4,55.14,280,20,0,30.31,M,33,SCT,BKN,OVC,M,3400,4400,7000,21.53
0CO,4/23/24,7:55:00 PM,32,26.6,80.22,280,17,0,30.32,M,26,SCT,SCT,M,M,300,6000,M,20.08
0CO,4/23/24,8:55:00 PM,32,26.6,80.22,310,14,0,30.31,M,25,SCT,SCT,SCT,M,4700,5500,7000,21.16
0CO,4/23/24,9:55:00 PM,32,28.4,86.39,310,9,0,30.33,M,14,M,M,M,M,M,M,M,23.51
0CO,4/23/24,10:55:00 PM,33.8,28.4,80.36,0,0,0,30.32,M,M,SCT,BKN,BKN,M,1200,1800,2400,33.8
0CO,4/23/24,11:55:00 PM,32,28.4,86.39,170,7,0,30.33,M,M,M,M,M,M,M,M,M,24.78
0CO,4/24/24,12:55:00 AM,28.4,28.4,100,230,10,0,30.32,M,23,M,M,M,M,M,M,M,18.45
0CO,4/24/24,1:55:00 AM,28.4,26.6,92.86,150,5,0,30.33,M,M,BKN,BKN,BKN,M,6000,7000,8000,22.12
0CO,4/24/24,2:55:00 AM,28.4,26.6,92.86,190,8,0,30.35,M,M,BKN,BKN,M,M,100,6000,M,19.68
0CO,4/24/24,3:55:00 AM,28.4,26.6,92.86,180,13,0,30.36,M,M,M,M,M,M,M,M,M,16.96
0CO,4/24/24,4:55:00 AM,28.4,26.6,92.86,170,12,0,30.35,M,17,M,M,M,M,M,M,M,17.42
0CO,4/24/24,5:55:00 AM,28.4,24.8,86.18,240,11,0,30.34,M,21,M,M,M,M,M,M,M,17.92
0CO,4/24/24,6:55:00 AM,28.4,23,79.92,250,14,0,30.34,M,23,SCT,BKN,OVC,M,3800,5500,7000,16.52
0CO,4/24/24,7:55:00 AM,30.2,21.2,68.83,270,17,0,30.32,M,25,CLR,M,M,M,M,M,M,17.72
0CO,4/24/24,8:55:00 AM,30.2,19.4,63.75,280,20,0,30.32,M,25,SCT,BKN,OVC,M,3300,4200,5500,16.75
0CO,4/24/24,9:55:00 AM,30.2,19.4,63.75,270,18,0,30.31,M,27,SCT,M,M,M,6000,M,M,17.38
0CO,4/24/24,10:55:00 AM,32,15.8,50.75,280,24,0,30.3,M,35,CLR,M,M,M,M,M,M,18.06
0CO,4/24/24,11:55:00 AM,30.2,15.8,54.59,300,11,0,30.3,M,20,CLR,M,M,M,M,M,M,20.19
0CO,4/24/24,12:55:00 PM,32,15.8,50.75,290,16,0,30.33,M,25,CLR,M,M,M,M,M,M,20.42
0CO,4/24/24,1:55:00 PM,32,15.8,50.75,270,15,0,30.33,M,21,CLR,M,M,M,M,M,M,20.78
0CO,4/24/24,2:55:00 PM,33.8,17.6,51.04,270,15,0,30.34,M,30,SCT,M,M,M,6000,M,M,23.11
0CO,4/24/24,3:55:00 PM,33.8,15.8,47.22,280,14,0,30.36,M,26,OVC,M,M,M,6000,M,M,23.48
0CO,4/24/24,4:55:00 PM,35.6,21.2,55.41,20,5,0,30.36,M,19,SCT,SCT,M,M,5000,7000,M,30.67
0CO,4/24/24,5:55:00 PM,35.6,15.8,43.95,280,15,0,30.36,M,29,CLR,M,M,M,M,M,M,25.45
0CO,4/24/24,6:55:00 PM,35.6,15.8,43.95,280,11,0,30.36,M,20,SCT,SCT,SCT,M,6500,7000,8000,27.02
0CO,4/24/24,7:55:00 PM,39.2,17.6,41.24,280,13,0,30.34,M,20,SCT,BKN,BKN,M,6000,7000,8000,30.79
0CO,4/24/24,8:55:00 PM,39.2,14,35.26,280,9,0,30.33,M,21,SCT,SCT,M,M,6000,7000,M,32.47
0CO,4/24/24,9:55:00 PM,41,17.6,38.45,240,12,0,30.31,M,18,BKN,BKN,BKN,M,7000,8000,9000,33.46
0CO,4/24/24,10:55:00 PM,39.2,15.8,38.15,260,11,0,30.3,M,17,SCT,SCT,M,M,6500,7500,M,31.57
0CO,4/24/24,11:55:00 PM,39.2,15.8,38.15,260,15,0,30.3,M,18,CLR,M,M,M,M,M,M,30.11
0CO,4/25/24,12:55:00 AM,35.6,21.2,55.41,20,4,0,30.29,M,M,CLR,M,M,M,M,M,M,31.62
0CO,4/25/24,1:55:00 AM,33.8,24.8,69.25,210,5,0,30.27,M,M,SCT,SCT,M,M,8000,9000,M,28.53
0CO,4/25/24,2:55:00 AM,33.8,23,64.23,230,5,0,30.28,M,16,OVC,M,M,M,8000,M,M,28.53
0CO,4/25/24,3:55:00 AM,33.8,17.6,51.04,270,13,0,30.28,M,16,BKN,M,M,M,10000,M,M,23.87
0CO,4/25/24,4:55:00 AM,33.8,17.6,51.04,210,3,0,30.28,M,M,SCT,BKN,OVC,M,4500,7000,9000,30.75
0CO,4/25/24,5:55:00 AM,33.8,15.8,47.22,270,8,0,30.28,M,23,SCT,BKN,OVC,M,2500,5000,8500,26.33
0CO,4/25/24,6:55:00 AM,32,14,46.92,250,18,0,30.27,M,29,SCT,BKN,OVC,M,4700,6000,7000,19.75
0CO,4/25/24,7:55:00 AM,32,14,46.92,270,20,0,30.24,M,23,CLR,M,M,M,M,M,M,19.14
0CO,4/25/24,8:55:00 AM,32,14,46.92,260,18,0,30.21,M,23,CLR,M,M,M,M,M,M,19.75
0CO,4/25/24,9:55:00 AM,30.2,15.8,54.59,270,25,0,30.17,M,30,CLR,M,M,M,M,M,M,15.38
0CO,4/25/24,10:55:00 AM,30.2,14,50.47,270,19,0,30.18,M,29,CLR,M,M,M,M,M,M,17.06
0CO,4/25/24,11:55:00 AM,30.2,14,50.47,290,10,0,30.17,M,21,CLR,M,M,M,M,M,M,20.71
0CO,4/25/24,12:55:00 PM,30.2,14,50.47,280,18,0,30.16,M,24,CLR,M,M,M,M,M,M,17.38
0CO,4/25/24,1:55:00 PM,30.2,12.2,46.62,290,15,0,30.16,M,22,CLR,M,M,M,M,M,M,18.45
0CO,4/25/24,2:55:00 PM,32,10.4,40.01,260,8,0,30.15,M,18,CLR,M,M,M,M,M,M,24.11
0CO,4/25/24,3:55:00 PM,33.8,12.2,40.32,240,10,0,30.13,M,M,CLR,M,M,M,M,M,M,25.23
0CO,4/25/24,4:55:00 PM,33.8,10.4,37.22,250,6,0,30.13,M,M,CLR,M,M,M,M,M,M,27.7
0CO,4/25/24,5:55:00 PM,35.6,10.4,34.65,210,5,0,30.11,M,M,CLR,M,M,M,M,M,M,30.67
0CO,4/25/24,6:55:00 PM,33.8,15.8,47.22,30,5,0,30.08,M,M,SCT,BKN,OVC,M,5500,7000,9500,28.53
0CO,4/25/24,7:55:00 PM,32,14,46.92,160,15,0,30.05,M,24,SCT,SCT,OVC,M,2500,3400,5000,20.78
0CO,4/25/24,8:55:00 PM,30.2,21.2,68.83,350,5,0,30.02,M,M,SCT,SCT,OVC,M,2200,3700,6000,24.26
0CO,4/25/24,9:55:00 PM,30.2,21.2,68.83,330,12,0,29.98,M,19,BKN,BKN,OVC,M,3400,4300,6000,19.71
0CO,4/25/24,10:55:00 PM,26.6,23,86.07,250,14,0,29.99,M,17,M,M,M,M,M,M,M,14.2
0CO,4/25/24,11:55:00 PM,24.8,23,92.74,260,14,0,29.95,M,27,M,M,M,M,M,M,M,11.88
0CO,4/26/24,12:55:00 AM,24.8,23,92.74,320,19,0,29.93,M,26,BKN,OVC,M,M,100,900,M,9.92
0CO,4/26/24,1:55:00 AM,23,23,100,330,26,0,29.91,M,M,OVC,M,M,M,100,M,M,5.35
0CO,4/26/24,2:55:00 AM,23,21.2,92.69,M,M,0,29.92,M,M,OVC,M,M,M,100,M,M,M
0CO,4/26/24,3:55:00 AM,23,21.2,92.69,M,M,0.01,29.92,M,M,OVC,M,M,M,100,M,M,M
0CO,4/26/24,4:55:00 AM,21.2,21.2,100,M,M,0,29.89,M,M,OVC,M,M,M,100,M,M,M
0CO,4/26/24,5:55:00 AM,21.2,21.2,100,320,22,0,29.87,M,27,OVC,M,M,M,100,M,M,4.12
0CO,4/26/24,6:55:00 AM,21.2,21.2,100,320,25,0,29.86,M,36,OVC,M,M,M,100,M,M,3.19
0CO,4/26/24,7:55:00 AM,21.2,19.4,92.63,320,27,0,29.82,M,34,OVC,M,M,M,100,M,M,2.62
0CO,4/26/24,8:55:00 AM,21.2,21.2,100,320,31,0,29.8,M,45,OVC,M,M,M,100,M,M,1.59
0CO,4/26/24,9:55:00 AM,21.2,21.2,100,330,32,0,29.79,M,50,OVC,M,M,M,100,M,M,1.35
0CO,4/26/24,10:55:00 AM,21.2,19.4,92.63,330,39,0,29.79,M,47,OVC,M,M,M,100,M,M,-0.18
0CO,4/26/24,11:55:00 AM,21.2,19.4,92.63,330,35,0,29.79,M,48,OVC,M,M,M,100,M,M,0.66
0CO,4/26/24,12:55:00 PM,21.2,19.4,92.63,330,27,0,29.8,M,47,OVC,M,M,M,100,M,M,2.62
0CO,4/26/24,1:55:00 PM,21.2,19.4,92.63,320,28,0,29.81,M,43,BKN,OVC,M,M,100,700,M,2.35
0CO,4/26/24,2:55:00 PM,21.2,19.4,92.63,330,25,0.01,29.82,M,39,OVC,M,M,M,100,M,M,3.19
0CO,4/26/24,3:55:00 PM,21.2,19.4,92.63,320,21,0,29.84,M,32,OVC,M,M,M,100,M,M,4.45
0CO,4/26/24,4:55:00 PM,23,21.2,92.69,330,19,0,29.86,M,30,BKN,BKN,OVC,M,400,1000,2400,7.54
0CO,4/26/24,5:55:00 PM,21.2,19.4,92.63,310,24,0,29.86,M,30,M,M,M,M,M,M,M,3.49
0CO,4/26/24,6:55:00 PM,24.8,23,92.74,340,19,0,29.86,M,29,M,M,M,M,M,M,M,9.92
0CO,4/26/24,7:55:00 PM,26.6,24.8,92.8,320,12,0,29.88,M,26,M,M,M,M,M,M,M,15.13
0CO,4/26/24,8:55:00 PM,26.6,24.8,92.8,300,8,0,29.89,M,15,OVC,M,M,M,100,M,M,17.46
0CO,4/26/24,9:55:00 PM,26.6,26.6,100,290,6,0,29.88,M,M,M,M,M,M,M,M,M,19.03
0CO,4/26/24,10:55:00 PM,26.6,26.6,100,280,9,0,29.88,M,15,BKN,BKN,OVC,M,200,1600,4200,16.8
0CO,4/26/24,11:55:00 PM,26.6,24.8,92.8,330,9,0,29.87,M,14,M,M,M,M,M,M,M,16.8
0CO,4/27/24,12:55:00 AM,26.6,24.8,92.8,170,10,0,29.88,M,M,OVC,M,M,M,200,M,M,16.2
0CO,4/27/24,1:55:00 AM,23,21.2,92.69,190,11,0.05,29.89,M,M,OVC,M,M,M,200,M,M,11.09
0CO,4/27/24,2:55:00 AM,23,23,100,170,5,0.02,29.9,M,17,OVC,M,M,M,200,M,M,15.71
0CO,4/27/24,3:55:00 AM,23,21.2,92.69,180,9,0,29.91,M,M,OVC,M,M,M,200,M,M,12.32
0CO,4/27/24,4:55:00 AM,23,21.2,92.69,170,8,0,29.91,M,M,OVC,M,M,M,200,M,M,13.03
0CO,4/27/24,5:55:00 AM,21.2,21.2,100,320,6,0,29.89,M,M,M,M,M,M,M,M,M,12.52
0CO,4/27/24,6:55:00 AM,21.2,19.4,92.63,220,3,0,29.9,M,M,BKN,OVC,M,M,400,900,M,16.34
0CO,4/27/24,7:55:00 AM,21.2,19.4,92.63,170,7,0.01,29.89,M,M,OVC,M,M,M,200,M,M,11.61
0CO,4/27/24,8:55:00 AM,19.4,17.6,92.57,220,4,0,29.86,M,M,M,M,M,M,M,M,M,12.71
0CO,4/27/24,9:55:00 AM,21.2,19.4,92.63,160,8,0,29.86,M,22,M,M,M,M,M,M,M,10.81
0CO,4/27/24,10:55:00 AM,21.2,19.4,92.63,230,7,0,29.84,M,M,OVC,M,M,M,100,M,M,11.61
0CO,4/27/24,11:55:00 AM,21.2,19.4,92.63,260,5,0,29.85,M,14,BKN,OVC,M,M,500,900,M,13.57
0CO,4/27/24,12:55:00 PM,21.2,19.4,92.63,240,11,0.03,29.86,M,M,OVC,M,M,M,300,M,M,8.82
0CO,4/27/24,1:55:00 PM,19.4,17.6,92.57,260,8,0.12,29.86,M,15,OVC,M,M,M,100,M,M,8.59
0CO,4/27/24,2:55:00 PM,19.4,17.6,92.57,200,6,0.05,29.86,M,M,BKN,OVC,M,M,500,1000,M,10.36
0CO,4/27/24,3:55:00 PM,17.6,15.8,92.5,130,7,0.03,29.86,M,M,OVC,M,M,M,400,M,M,7.23
0CO,4/27/24,4:55:00 PM,17.6,14,85.51,160,13,0.03,29.88,M,30,OVC,M,M,M,400,M,M,3.12
0CO,4/27/24,5:55:00 PM,15.8,14,92.44,120,8,0.02,29.88,M,21,OVC,M,M,M,600,M,M,4.16
0CO,4/27/24,6:55:00 PM,17.6,14,85.51,50,5,0.02,29.89,M,M,OVC,M,M,M,200,M,M,9.29
0CO,4/27/24,7:55:00 PM,19.4,17.6,92.57,250,4,0.02,29.89,M,M,BKN,BKN,OVC,M,300,800,1100,12.71
0CO,4/27/24,8:55:00 PM,17.6,14,85.51,100,8,0.02,29.9,M,16,BKN,OVC,M,M,400,900,M,6.37
0CO,4/27/24,9:55:00 PM,17.6,14,85.51,330,5,0,29.9,M,17,M,M,M,M,M,M,M,9.29
0CO,4/27/24,10:55:00 PM,17.6,15.8,92.5,190,3,0,29.91,M,M,M,M,M,M,M,M,M,12.23
0CO,4/27/24,11:55:00 PM,17.6,15.8,92.5,150,8,0,29.93,M,14,OVC,M,M,M,100,M,M,6.37
0CO,4/28/24,12:55:00 AM,17.6,15.8,92.5,210,7,0,29.93,M,15,OVC,M,M,M,100,M,M,7.23
0CO,4/28/24,1:55:00 AM,17.6,14,85.51,160,12,0,29.94,M,16,OVC,M,M,M,100,M,M,3.67
0CO,4/28/24,2:55:00 AM,17.6,14,85.51,160,16,0,29.96,M,M,OVC,M,M,M,100,M,M,1.65
0CO,4/28/24,3:55:00 AM,17.6,14,85.51,140,8,0,29.97,M,17,OVC,M,M,M,100,M,M,6.37
0CO,4/28/24,4:55:00 AM,15.8,14,92.44,230,5,0.01,29.95,M,M,M,M,M,M,M,M,M,7.16
0CO,4/28/24,5:55:00 AM,17.6,14,85.51,300,5,0,29.95,M,M,BKN,OVC,M,M,400,1000,M,9.29
0CO,4/28/24,6:55:00 AM,17.6,15.8,92.5,280,13,0,29.93,M,18,BKN,OVC,M,M,200,1900,M,3.12
0CO,4/28/24,7:55:00 AM,17.6,15.8,92.5,330,12,0,29.92,M,17,OVC,M,M,M,100,M,M,3.67
0CO,4/28/24,8:55:00 AM,17.6,14,85.51,340,23,0,29.91,M,30,OVC,M,M,M,100,M,M,-1.04
0CO,4/28/24,9:55:00 AM,17.6,14,85.51,M,M,0,29.92,M,M,OVC,M,M,M,100,M,M,M
0CO,4/28/24,10:55:00 AM,17.6,14,85.51,330,24,0,29.92,M,32,OVC,M,M,M,100,M,M,-1.37
0CO,4/28/24,11:55:00 AM,17.6,14,85.51,340,25,0,29.91,M,34,OVC,M,M,M,100,M,M,-1.68
0CO,4/28/24,12:55:00 PM,17.6,14,85.51,330,29,0,29.93,M,37,OVC,M,M,M,100,M,M,-2.84
0CO,4/28/24,1:55:00 PM,17.6,14,85.51,340,28,0,29.96,M,38,OVC,M,M,M,100,M,M,-2.57
0CO,4/28/24,2:55:00 PM,15.8,14,92.44,340,23,0.01,29.98,M,33,OVC,M,M,M,100,M,M,-3.46
0CO,4/28/24,3:55:00 PM,17.6,14,85.51,330,25,0,29.98,M,30,OVC,M,M,M,100,M,M,-1.68
0CO,4/28/24,4:55:00 PM,17.6,14,85.51,330,27,0.01,29.98,M,43,M,M,M,M,M,M,M,-2.28
0CO,4/28/24,5:55:00 PM,19.4,17.6,92.57,330,32,0,29.99,M,40,M,M,M,M,M,M,M,-1.14
0CO,4/28/24,6:55:00 PM,19.4,17.6,92.57,330,28,0.01,30,M,40,BKN,OVC,M,M,200,900,M,-0.11
0CO,4/28/24,7:55:00 PM,21.2,19.4,92.63,340,34,0.01,30,M,41,BKN,BKN,OVC,M,300,1000,1400,0.89
0CO,4/28/24,8:55:00 PM,21.2,21.2,100,330,22,0,30.03,M,37,OVC,M,M,M,200,M,M,4.12
0CO,4/28/24,9:55:00 PM,21.2,19.4,92.63,320,20,0.05,30.04,M,39,OVC,M,M,M,200,M,M,4.79
0CO,4/28/24,10:55:00 PM,21.2,19.4,92.63,300,21,0,30.05,M,29,M,M,M,M,M,M,M,4.45
0CO,4/28/24,11:55:00 PM,21.2,19.4,92.63,320,25,0.01,30.05,M,37,BKN,OVC,M,M,200,700,M,3.19
0CO,4/29/24,12:55:00 AM,19.4,19.4,100,310,23,0.01,30.07,M,31,M,M,M,M,M,M,M,1.38
0CO,4/29/24,1:55:00 AM,21.2,19.4,92.63,300,26,0,30.06,M,M,BKN,BKN,OVC,M,200,900,1400,2.9
0CO,4/29/24,2:55:00 AM,19.4,19.4,100,M,M,0,30.08,M,M,BKN,OVC,M,M,300,1100,M,M
0CO,4/29/24,3:55:00 AM,19.4,17.6,92.57,310,24,0,30.09,M,33,BKN,BKN,OVC,M,300,1000,1400,1.06
0CO,4/29/24,4:55:00 AM,21.2,19.4,92.63,300,25,0,30.09,M,M,BKN,OVC,M,M,200,600,M,3.19
0CO,4/29/24,5:55:00 AM,19.4,17.6,92.57,320,26,0,30.08,M,36,OVC,M,M,M,200,M,M,0.46
0CO,4/29/24,6:55:00 AM,19.4,17.6,92.57,310,24,0,30.08,M,38,BKN,OVC,M,M,300,800,M,1.06
0CO,4/29/24,7:55:00 AM,19.4,17.6,92.57,320,26,0,30.07,M,36,BKN,OVC,M,M,300,900,M,0.46
0CO,4/29/24,8:55:00 AM,19.4,17.6,92.57,320,26,0,30.05,M,43,OVC,M,M,M,100,M,M,0.46
0CO,4/29/24,9:55:00 AM,19.4,17.6,92.57,320,19,0,30.07,M,30,OVC,M,M,M,100,M,M,2.77
0CO,4/29/24,10:55:00 AM,19.4,17.6,92.57,310,33,0,30.05,M,45,BKN,BKN,OVC,M,200,900,1300,-1.38
0CO,4/29/24,11:55:00 AM,17.6,15.8,92.5,320,21,0,30.07,M,M,M,M,M,M,M,M,M,-0.35
0CO,4/29/24,12:55:00 PM,17.6,14,85.51,310,22,0,30.09,M,34,M,M,M,M,M,M,M,-0.7
0CO,4/29/24,1:55:00 PM,17.6,15.8,92.5,310,21,0,30.11,M,32,BKN,M,M,M,1200,M,M,-0.35
0CO,4/29/24,2:55:00 PM,19.4,17.6,92.57,300,15,0,30.13,M,30,OVC,M,M,M,800,M,M,4.45
0CO,4/29/24,3:55:00 PM,19.4,17.6,92.57,310,16,0,30.14,M,31,M,M,M,M,M,M,M,4
0CO,4/29/24,4:55:00 PM,21.2,19.4,92.63,300,16,0,30.15,M,28,OVC,M,M,M,1700,M,M,6.34
0CO,4/29/24,5:55:00 PM,23,21.2,92.69,300,19,0,30.16,M,24,M,M,M,M,M,M,M,7.54
0CO,4/29/24,6:55:00 PM,21.2,19.4,92.63,270,18,0.02,30.15,M,31,M,M,M,M,M,M,M,5.53
0CO,4/29/24,7:55:00 PM,23,21.2,92.69,290,14,0,30.14,M,35,M,M,M,M,M,M,M,9.56
0CO,4/29/24,8:55:00 PM,23,21.2,92.69,270,15,0,30.14,M,27,M,M,M,M,M,M,M,9.11
0CO,4/29/24,9:55:00 PM,24.8,23,92.74,270,14,0,30.14,M,31,BKN,OVC,M,M,2100,2800,M,11.88
0CO,4/29/24,10:55:00 PM,26.6,23,86.07,260,16,0,30.13,M,29,BKN,BKN,OVC,M,2100,2900,5500,13.38
0CO,4/29/24,11:55:00 PM,24.8,23,92.74,270,16,0,30.14,M,29,M,M,M,M,M,M,M,11.03
0CO,4/30/24,12:55:00 AM,26.6,21.2,79.77,270,22,0,30.13,M,33,M,M,M,M,M,M,M,11.35
0CO,4/30/24,1:55:00 AM,24.8,21.2,85.96,240,10,0,30.13,M,16,BKN,OVC,M,M,2200,2600,M,13.94
0CO,4/30/24,2:55:00 AM,24.8,19.4,79.62,290,10,0,30.12,M,19,SCT,SCT,OVC,M,2400,3100,6000,13.94
0CO,4/30/24,3:55:00 AM,24.8,19.4,79.62,260,15,0,30.12,M,28,CLR,M,M,M,M,M,M,11.45
0CO,4/30/24,4:55:00 AM,26.6,19.4,73.89,260,26,0,30.1,M,39,CLR,M,M,M,M,M,M,10.24
0CO,4/30/24,5:55:00 AM,26.6,19.4,73.89,260,21,0,30.08,M,33,SCT,SCT,M,M,4500,5000,M,11.65
0CO,4/30/24,6:55:00 AM,26.6,17.6,68.4,260,31,0,30.04,M,47,SCT,SCT,M,M,3000,3900,M,9.04
0CO,4/30/24,7:55:00 AM,26.6,19.4,73.89,270,22,0,30.04,M,39,SCT,SCT,BKN,M,2000,2900,3600,11.35
0CO,4/30/24,8:55:00 AM,24.8,19.4,79.62,270,29,0.01,30,M,44,SCT,BKN,OVC,M,500,2200,2800,7.03
0CO,4/30/24,9:55:00 AM,23,23,100,270,34,0.01,29.99,M,48,M,M,M,M,M,M,M,3.39
0CO,4/30/24,10:55:00 AM,23,21.2,92.69,290,23,0,30.01,M,36,M,M,M,M,M,M,M,6.22
0CO,4/30/24,11:55:00 AM,23,21.2,92.69,280,23,0,30.02,M,29,BKN,OVC,M,M,200,700,M,6.22
0CO,4/30/24,12:55:00 PM,23,21.2,92.69,280,28,0,30.03,M,40,M,M,M,M,M,M,M,4.82
0CO,4/30/24,1:55:00 PM,23,19.4,85.85,270,27,0,30.05,M,38,M,M,M,M,M,M,M,5.08
0CO,4/30/24,2:55:00 PM,23,19.4,85.85,280,28,0,30.05,M,47,BKN,BKN,OVC,M,1700,2500,5000,4.82
0CO,4/30/24,3:55:00 PM,21.2,19.4,92.63,280,23,0,30.07,M,36,BKN,OVC,M,M,600,1200,M,3.8
0CO,4/30/24,4:55:00 PM,23,19.4,85.85,260,22,0,30.1,M,45,SCT,BKN,OVC,M,400,1000,2100,6.53
0CO,4/30/24,5:55:00 PM,26.6,17.6,68.4,270,37,0,30.09,M,53,SCT,SCT,SCT,M,1900,2900,3500,7.8
0CO,4/30/24,6:55:00 PM,28.4,14,54.31,280,29,0,30.12,M,40,CLR,M,M,M,M,M,M,11.97
0CO,4/30/24,7:55:00 PM,30.2,14,50.47,290,28,0,30.13,M,39,CLR,M,M,M,M,M,M,14.66
0CO,4/30/24,8:55:00 PM,30.2,14,50.47,280,24,0,30.14,M,34,CLR,M,M,M,M,M,M,15.63
0CO,4/30/24,9:55:00 PM,32,12.2,43.34,280,25,0,30.15,M,32,CLR,M,M,M,M,M,M,17.81
0CO,4/30/24,10:55:00 PM,32,12.2,43.34,270,15,0,30.17,M,34,CLR,M,M,M,M,M,M,20.78
0CO,4/30/24,11:55:00 PM,32,12.2,43.34,240,23,0,30.17,M,28,CLR,M,M,M,M,M,M,18.31
0CO,5/1/24,12:55:00 AM,32,12.2,43.34,250,23,0,30.17,M,33,CLR,M,M,M,M,M,M,18.31
0CO,5/1/24,1:55:00 AM,30.2,5,33.72,240,13,0,30.19,M,22,CLR,M,M,M,M,M,M,19.26
0CO,5/1/24,2:55:00 AM,32,3.2,28.86,190,9,0,30.21,M,16,CLR,M,M,M,M,M,M,23.51
0CO,5/1/24,3:55:00 AM,30.2,5,33.72,200,10,0,30.21,M,19,CLR,M,M,M,M,M,M,20.71
0CO,5/1/24,4:55:00 AM,28.4,17.6,63.51,170,11,0,30.19,M,24,SCT,M,M,M,9000,M,M,17.92
0CO,5/1/24,5:55:00 AM,26.6,24.8,92.8,160,21,0,30.17,M,30,M,M,M,M,M,M,M,11.65
0CO,5/1/24,6:55:00 AM,28.4,17.6,63.51,190,10,0,30.16,M,17,BKN,OVC,M,M,6500,7000,M,18.45
0CO,5/1/24,7:55:00 AM,28.4,14,54.31,210,12,0,30.14,M,21,BKN,OVC,M,M,6000,7000,M,17.42
0CO,5/1/24,8:55:00 AM,30.2,12.2,46.62,200,15,0,30.11,M,19,SCT,SCT,OVC,M,4900,6000,7000,18.45
0CO,5/1/24,9:55:00 AM,28.4,12.2,50.17,200,13,0,30.09,M,19,M,M,M,M,M,M,M,16.96
0CO,5/1/24,10:55:00 AM,28.4,14,54.31,240,23,0,30.08,M,29,SCT,SCT,BKN,M,2800,3900,7000,13.47
0CO,5/1/24,11:55:00 AM,26.6,14,58.49,250,11,0,30.06,M,23,CLR,M,M,M,M,M,M,15.64
0CO,5/1/24,12:55:00 PM,26.6,19.4,73.89,250,28,0,30.05,M,36,SCT,BKN,OVC,M,1600,2400,2800,9.74
0CO,5/1/24,1:55:00 PM,26.6,21.2,79.77,250,24,0,30.06,M,37,SCT,SCT,BKN,M,700,1200,1700,10.77
0CO,5/1/24,2:55:00 PM,28.4,23,79.92,250,20,0,30.04,M,33,SCT,BKN,OVC,M,1000,1900,2500,14.36
0CO,5/1/24,3:55:00 PM,30.2,23,74.26,250,21,0,30.02,M,32,SCT,BKN,BKN,M,1200,1700,2300,16.45
0CO,5/1/24,4:55:00 PM,32,21.2,63.99,250,24,0,30.01,M,34,SCT,SCT,BKN,M,700,1400,3400,18.06
0CO,5/1/24,5:55:00 PM,32,17.6,54.87,270,22,0,30.01,M,35,SCT,SCT,BKN,M,2700,3400,5000,18.58
0CO,5/1/24,6:55:00 PM,28.4,23,79.92,300,15,0,30.03,M,20,BKN,OVC,M,M,1000,3900,M,16.11
0CO,5/1/24,7:55:00 PM,28.4,26.6,92.86,290,14,0,30.03,M,24,BKN,OVC,M,M,100,500,M,16.52
0CO,5/1/24,8:55:00 PM,26.6,23,86.07,260,14,0,30.03,M,22,OVC,M,M,M,100,M,M,14.2
0CO,5/1/24,9:55:00 PM,24.8,23,92.74,330,8,0,30.01,M,17,BKN,OVC,M,M,100,700,M,15.24
0CO,5/1/24,10:55:00 PM,23,21.2,92.69,340,9,0,30.01,M,18,BKN,OVC,M,M,100,900,M,12.32
0CO,5/1/24,11:55:00 PM,23,21.2,92.69,250,21,0.01,30.03,M,35,OVC,M,M,M,300,M,M,6.85
0CO,5/2/24,12:55:00 AM,21.2,19.4,92.63,260,25,0,30.01,M,36,M,M,M,M,M,M,M,3.19
0CO,5/2/24,1:55:00 AM,23,15.8,73.51,270,27,0,30,M,37,BKN,BKN,OVC,M,3200,4000,5000,5.08
0CO,5/2/24,2:55:00 AM,21.2,17.6,85.74,290,16,0,30.03,M,37,M,M,M,M,M,M,M,6.34
0CO,5/2/24,3:55:00 AM,21.2,19.4,92.63,300,21,0,30.03,M,27,OVC,M,M,M,100,M,M,4.45
0CO,5/2/24,4:55:00 AM,17.6,15.8,92.5,290,26,0,30.01,M,40,BKN,BKN,BKN,M,600,1400,2000,-1.99
0CO,5/2/24,5:55:00 AM,17.6,15.8,92.5,290,24,0,30.01,M,29,M,M,M,M,M,M,M,-1.37
0CO,5/2/24,6:55:00 AM,15.8,12.2,85.4,M,M,0,30,M,M,M,M,M,M,M,M,M,M
0CO,5/2/24,7:55:00 AM,15.8,10.4,78.84,290,22,0,29.98,M,34,CLR,M,M,M,M,M,M,-3.11
0CO,5/2/24,8:55:00 AM,14,8.6,78.68,280,29,0,29.97,M,37,CLR,M,M,M,M,M,M,-7.78
0CO,5/2/24,9:55:00 AM,12.2,1.4,61.25,270,32,0,29.97,M,43,CLR,M,M,M,M,M,M,-11.1
0CO,5/2/24,10:55:00 AM,12.2,-0.4,56.3,280,35,0,29.96,M,M,CLR,M,M,M,M,M,M,-11.89
0CO,5/2/24,11:55:00 AM,12.2,-2.2,51.71,280,23,0,30,M,37,CLR,M,M,M,M,M,M,-8.3
0CO,5/2/24,12:55:00 PM,12.2,-2.2,51.71,280,26,0,30.01,M,33,CLR,M,M,M,M,M,M,-9.32
0CO,5/2/24,1:55:00 PM,14,-0.4,52.01,280,20,0,30.03,M,29,CLR,M,M,M,M,M,M,-4.77
0CO,5/2/24,2:55:00 PM,14,-0.4,52.01,300,18,0,30.03,M,31,CLR,M,M,M,M,M,M,-3.95
0CO,5/2/24,3:55:00 PM,17.6,1.4,48.39,280,19,0,30.03,M,38,CLR,M,M,M,M,M,M,0.39
0CO,5/2/24,4:55:00 PM,21.2,3.2,45.1,300,15,0,30.04,M,34,CLR,M,M,M,M,M,M,6.78
0CO,5/2/24,5:55:00 PM,21.2,3.2,45.1,240,24,0,30.05,M,36,CLR,M,M,M,M,M,M,3.49
0CO,5/2/24,6:55:00 PM,23,5,45.41,250,33,0,30.04,M,44,CLR,M,M,M,M,M,M,3.61
0CO,5/2/24,7:55:00 PM,26.6,6.8,42.42,250,23,0,30.06,M,46,SCT,SCT,M,M,4900,5500,M,11.06
0CO,5/2/24,8:55:00 PM,26.6,8.6,46.02,240,26,0,30.06,M,38,BKN,M,M,M,5500,M,M,10.24
0CO,5/2/24,9:55:00 PM,28.4,8.6,42.73,270,20,0,30.06,M,36,M,M,M,M,M,M,M,14.36
0CO,5/2/24,10:55:00 PM,28.4,8.6,42.73,280,25,0,30.07,M,36,SCT,BKN,BKN,M,4800,5500,7000,12.94
0CO,5/2/24,11:55:00 PM,28.4,6.8,39.39,280,24,0,30.09,M,35,CLR,M,M,M,M,M,M,13.2
0CO,5/3/24,12:55:00 AM,26.6,6.8,42.42,270,15,0,30.11,M,27,CLR,M,M,M,M,M,M,13.78
0CO,5/3/24,1:55:00 AM,23,6.8,49.29,270,15,0,30.13,M,18,CLR,M,M,M,M,M,M,9.11
0CO,5/3/24,2:55:00 AM,23,6.8,49.29,210,5,0,30.16,M,M,CLR,M,M,M,M,M,M,15.71
0CO,5/3/24,3:55:00 AM,23,6.8,49.29,230,8,0,30.17,M,M,CLR,M,M,M,M,M,M,13.03
0CO,5/3/24,4:55:00 AM,23,5,45.41,220,7,0,30.15,M,17,SCT,M,M,M,11000,M,M,13.81
0CO,5/3/24,5:55:00 AM,23,5,45.41,220,7,0,30.14,M,16,OVC,M,M,M,9000,M,M,13.81
0CO,5/3/24,6:55:00 AM,23,8.6,53.47,250,22,0,30.13,M,29,SCT,SCT,OVC,M,3400,4000,4500,6.53
0CO,5/3/24,7:55:00 AM,23,8.6,53.47,230,13,0,30.12,M,26,SCT,SCT,OVC,M,3800,4400,5000,10.04
0CO,5/3/24,8:55:00 AM,23,10.4,57.96,250,25,0,30.09,M,30,SCT,SCT,OVC,M,4300,4900,7000,5.63
0CO,5/3/24,9:55:00 AM,23,8.6,53.47,230,15,0,30.07,M,28,SCT,SCT,SCT,M,3100,4300,4900,9.11
0CO,5/3/24,10:55:00 AM,23,8.6,53.47,240,14,0,30.07,M,24,M,M,M,M,M,M,M,9.56
0CO,5/3/24,11:55:00 AM,23,8.6,53.47,250,17,0,30.06,M,29,M,M,M,M,M,M,M,8.28
0CO,5/3/24,12:55:00 PM,24.8,6.8,45.71,260,26,0,30.05,M,36,CLR,M,M,M,M,M,M,7.79
0CO,5/3/24,1:55:00 PM,26.6,6.8,42.42,270,17,0,30.06,M,37,CLR,M,M,M,M,M,M,13
0CO,5/3/24,2:55:00 PM,28.4,8.6,42.73,250,28,0,30.06,M,44,SCT,M,M,M,4900,M,M,12.2
0CO,5/3/24,3:55:00 PM,30.2,8.6,39.7,260,32,0,30.04,M,45,SCT,M,M,M,4900,M,M,13.8
0CO,5/3/24,4:55:00 PM,30.2,8.6,39.7,260,35,0,30.03,M,49,CLR,M,M,M,M,M,M,13.21
0CO,5/3/24,5:55:00 PM,32,8.6,36.91,260,31,0,30.06,M,49,CLR,M,M,M,M,M,M,16.49
0CO,5/3/24,6:55:00 PM,32,10.4,40.01,240,17,0,30.09,M,30,SCT,BKN,BKN,M,4200,5000,6000,20.08
0CO,5/3/24,7:55:00 PM,32,10.4,40.01,260,32,0,30.08,M,41,SCT,BKN,OVC,M,4800,6000,7000,16.29
0CO,5/3/24,8:55:00 PM,33.8,10.4,37.22,280,28,0,30.1,M,37,SCT,SCT,M,M,6000,7000,M,19.58
0CO,5/3/24,9:55:00 PM,33.8,12.2,40.32,260,25,0,30.1,M,37,SCT,SCT,M,M,5000,7000,M,20.25
0CO,5/3/24,10:55:00 PM,32,12.2,43.34,280,18,0,30.11,M,30,SCT,OVC,M,M,4900,6000,M,19.75
0CO,5/3/24,11:55:00 PM,32,15.8,50.75,270,16,0,30.14,M,26,SCT,BKN,OVC,M,4000,4800,5000,20.42
0CO,5/4/24,12:55:00 AM,24.8,23,92.74,200,4,0,30.16,M,17,BKN,OVC,M,M,300,1500,M,19.01
0CO,5/4/24,1:55:00 AM,21.2,19.4,92.63,340,11,0,30.17,M,15,OVC,M,M,M,100,M,M,8.82
0CO,5/4/24,2:55:00 AM,19.4,17.6,92.57,340,9,0,30.17,M,16,OVC,M,M,M,100,M,M,7.85
0CO,5/4/24,3:55:00 AM,17.6,15.8,92.5,300,14,0,30.18,M,25,BKN,OVC,M,M,100,700,M,2.6
0CO,5/4/24,4:55:00 AM,19.4,17.6,92.57,300,16,0,30.18,M,22,BKN,OVC,M,M,100,900,M,4
0CO,5/4/24,5:55:00 AM,19.4,17.6,92.57,290,12,0,30.19,M,21,BKN,BKN,BKN,M,100,700,1100,5.97
0CO,5/4/24,6:55:00 AM,19.4,17.6,92.57,240,9,0,30.19,M,21,M,M,M,M,M,M,M,7.85
0CO,5/4/24,7:55:00 AM,19.4,17.6,92.57,260,18,0,30.19,M,23,M,M,M,M,M,M,M,3.16
0CO,5/4/24,8:55:00 AM,19.4,14,79.16,250,16,0,30.17,M,26,CLR,M,M,M,M,M,M,4
0CO,5/4/24,9:55:00 AM,23,14,67.96,260,20,0,30.16,M,33,CLR,M,M,M,M,M,M,7.19
0CO,5/4/24,10:55:00 AM,23,10.4,57.96,260,27,0,30.15,M,39,CLR,M,M,M,M,M,M,5.08
0CO,5/4/24,11:55:00 AM,24.8,8.6,49.59,250,15,0,30.18,M,31,CLR,M,M,M,M,M,M,11.45
0CO,5/4/24,12:55:00 PM,24.8,8.6,49.59,250,15,0,30.19,M,25,CLR,M,M,M,M,M,M,11.45
0CO,5/4/24,1:55:00 PM,26.6,8.6,46.02,250,10,0,30.2,M,21,CLR,M,M,M,M,M,M,16.2
0CO,5/4/24,2:55:00 PM,28.4,8.6,42.73,260,15,0,30.21,M,23,CLR,M,M,M,M,M,M,16.11
0CO,5/4/24,3:55:00 PM,30.2,8.6,39.7,260,16,0,30.22,M,26,CLR,M,M,M,M,M,M,18.07
0CO,5/4/24,4:55:00 PM,32,8.6,36.91,280,24,0,30.22,M,33,CLR,M,M,M,M,M,M,18.06
0CO,5/4/24,5:55:00 PM,32,10.4,40.01,280,17,0,30.22,M,39,CLR,M,M,M,M,M,M,20.08
0CO,5/4/24,6:55:00 PM,33.8,12.2,40.32,290,20,0,30.22,M,26,CLR,M,M,M,M,M,M,21.53
0CO,5/4/24,7:55:00 PM,33.8,12.2,40.32,280,14,0,30.24,M,24,CLR,M,M,M,M,M,M,23.48
0CO,5/4/24,8:55:00 PM,35.6,12.2,37.53,300,14,0,30.22,M,21,SCT,SCT,M,M,6000,7000,M,25.8
0CO,5/4/24,9:55:00 PM,37.4,14,37.84,250,15,0,30.22,M,M,CLR,M,M,M,M,M,M,27.78
0CO,5/4/24,10:55:00 PM,32,26.6,80.22,190,3,0,30.22,M,M,SCT,SCT,BKN,M,4500,6000,7000,28.69
0CO,5/4/24,11:55:00 PM,32,26.6,80.22,180,6,0,30.21,M,M,SCT,BKN,OVC,M,4600,7500,8500,25.53
0CO,5/5/24,12:55:00 AM,30.2,26.6,86.28,190,8,0,30.19,M,M,M,M,M,M,M,M,M,21.9
0CO,5/5/24,1:55:00 AM,28.4,26.6,92.86,150,19,0,30.19,M,24,OVC,M,M,M,100,M,M,14.68
0CO,5/5/24,2:55:00 AM,28.4,26.6,92.86,160,18,0,30.21,M,23,BKN,BKN,M,M,100,500,M,15.01
0CO,5/5/24,3:55:00 AM,28.4,23,79.92,210,11,0,30.2,M,15,CLR,M,M,M,M,M,M,17.92
0CO,5/5/24,4:55:00 AM,28.4,21.2,74.08,240,12,0,30.19,M,18,CLR,M,M,M,M,M,M,17.42
0CO,5/5/24,5:55:00 AM,28.4,21.2,74.08,240,11,0,30.17,M,22,CLR,M,M,M,M,M,M,17.92
0CO,5/5/24,6:55:00 AM,28.4,21.2,74.08,250,14,0,30.17,M,19,CLR,M,M,M,M,M,M,16.52
0CO,5/5/24,7:55:00 AM,28.4,19.4,68.61,230,10,0,30.15,M,15,CLR,M,M,M,M,M,M,18.45
0CO,5/5/24,8:55:00 AM,28.4,19.4,68.61,240,9,0,30.12,M,15,CLR,M,M,M,M,M,M,19.04
0CO,5/5/24,9:55:00 AM,28.4,17.6,63.51,250,11,0,30.11,M,21,CLR,M,M,M,M,M,M,17.92
0CO,5/5/24,10:55:00 AM,28.4,15.8,58.75,240,14,0,30.11,M,20,CLR,M,M,M,M,M,M,16.52
0CO,5/5/24,11:55:00 AM,28.4,17.6,63.51,240,10,0,30.11,M,17,CLR,M,M,M,M,M,M,18.45
0CO,5/5/24,12:55:00 PM,32,12.2,43.34,180,12,0,30.1,M,25,CLR,M,M,M,M,M,M,22
0CO,5/5/24,1:55:00 PM,30.2,15.8,54.59,190,11,0,30.1,M,23,SCT,SCT,OVC,M,4800,6000,8500,20.19
0CO,5/5/24,2:55:00 PM,30.2,15.8,54.59,190,15,0,30.07,M,19,BKN,M,M,M,12000,M,M,18.45
0CO,5/5/24,3:55:00 PM,32,19.4,59.27,160,18,0,30.07,M,23,SCT,M,M,M,12000,M,M,19.75
0CO,5/5/24,4:55:00 PM,33.8,14,43.65,160,18,0,30.05,M,26,CLR,M,M,M,M,M,M,22.12
0CO,5/5/24,5:55:00 PM,33.8,17.6,51.04,210,10,0,30.03,M,32,SCT,M,M,M,4500,M,M,25.23
0CO,5/5/24,6:55:00 PM,35.6,19.4,51.33,200,15,0,30.02,M,23,SCT,SCT,M,M,4100,5000,M,25.45
0CO,5/5/24,7:55:00 PM,35.6,19.4,51.33,200,7,0,30,M,21,SCT,SCT,M,M,4800,6000,M,29.17
0CO,5/5/24,8:55:00 PM,35.6,21.2,55.41,170,11,0,30,M,20,SCT,BKN,M,M,5000,6000,M,27.02
0CO,5/5/24,9:55:00 PM,37.4,21.2,51.61,190,10,0,29.97,M,22,SCT,SCT,SCT,M,5000,6000,7000,29.74
0CO,5/5/24,10:55:00 PM,35.6,19.4,51.33,M,M,0,29.96,M,M,SCT,OVC,M,M,4700,6500,M,M
0CO,5/5/24,11:55:00 PM,35.6,19.4,51.33,150,25,0,29.94,M,40,SCT,BKN,OVC,M,4900,5500,8000,22.69
0CO,5/6/24,12:55:00 AM,35.6,17.6,47.51,180,15,0,29.94,M,35,SCT,BKN,BKN,M,4900,5500,7500,25.45
0CO,5/6/24,1:55:00 AM,33.8,15.8,47.22,200,22,0,29.91,M,41,CLR,M,M,M,M,M,M,20.99
0CO,5/6/24,2:55:00 AM,32,19.4,59.27,200,16,0,29.92,M,35,CLR,M,M,M,M,M,M,20.42
0CO,5/6/24,3:55:00 AM,32,21.2,63.99,180,27,0,29.91,M,36,CLR,M,M,M,M,M,M,17.34
0CO,5/6/24,4:55:00 AM,30.2,21.2,68.83,190,23,0,29.86,M,39,CLR,M,M,M,M,M,M,15.89
0CO,5/6/24,5:55:00 AM,30.2,17.6,59.01,180,33,0,29.81,M,44,CLR,M,M,M,M,M,M,13.6
0CO,5/6/24,6:55:00 AM,30.2,19.4,63.75,180,32,0,29.77,M,46,CLR,M,M,M,M,M,M,13.8
0CO,5/6/24,7:55:00 AM,28.4,19.4,68.61,190,22,0,29.71,M,49,SCT,BKN,OVC,M,2100,3800,4500,13.76
0CO,5/6/24,8:55:00 AM,28.4,17.6,63.51,200,18,0,29.66,M,45,SCT,BKN,OVC,M,2200,3200,5000,15.01
0CO,5/6/24,9:55:00 AM,23,17.6,79.47,230,20,0,29.63,M,37,SCT,SCT,BKN,M,800,2100,3000,7.19
0CO,5/6/24,10:55:00 AM,17.6,15.8,92.5,290,18,0,29.6,M,43,OVC,M,M,M,200,M,M,0.79
0CO,5/6/24,11:55:00 AM,12.2,10.4,92.32,290,33,0,29.6,M,40,BKN,OVC,M,M,400,700,M,-11.37
0CO,5/6/24,12:55:00 PM,10.4,6.8,85.05,280,37,0,29.58,M,M,M,M,M,M,M,M,M,-14.9
0CO,5/6/24,1:55:00 PM,8.6,5,84.93,280,35,0,29.55,M,54,M,M,M,M,M,M,M,-16.91
0CO,5/6/24,2:55:00 PM,10.4,5,78.35,290,31,0,29.57,M,48,SCT,BKN,OVC,M,1100,1900,2500,-13.31
0CO,5/6/24,3:55:00 PM,10.4,6.8,85.05,290,35,0,29.6,M,54,M,M,M,M,M,M,M,-14.4
0CO,5/6/24,4:55:00 PM,10.4,8.6,92.25,300,37,0,29.61,M,M,OVC,M,M,M,500,M,M,-14.9
0CO,5/6/24,5:55:00 PM,12.2,8.6,85.17,M,M,0,29.64,M,M,OVC,M,M,M,300,M,M,M
0CO,5/6/24,6:55:00 PM,12.2,8.6,85.17,300,40,0,29.65,M,M,BKN,OVC,M,M,500,1100,M,-13.08
0CO,5/6/24,7:55:00 PM,14,10.4,85.28,310,37,0,29.63,M,53,BKN,BKN,OVC,M,800,1500,2300,-9.86
0CO,5/6/24,8:55:00 PM,14,8.6,78.68,290,43,0,29.65,M,60,BKN,OVC,M,M,800,1600,M,-11.18
0CO,5/6/24,9:55:00 PM,14,10.4,85.28,M,M,0,29.64,M,M,OVC,M,M,M,500,M,M,M
0CO,5/6/24,10:55:00 PM,14,10.4,85.28,300,50,0,29.64,M,60,M,M,M,M,M,M,M,-12.54
0CO,5/6/24,11:55:00 PM,14,10.4,85.28,M,M,0,29.65,M,M,BKN,BKN,OVC,M,900,1400,2600,M
0CO,5/7/24,12:55:00 AM,14,12.2,92.38,M,M,0,29.66,M,M,BKN,OVC,M,M,500,1100,M,M
0CO,5/7/24,1:55:00 AM,14,12.2,92.38,M,M,0,29.69,M,M,M,M,M,M,M,M,M,M
0CO,5/7/24,2:55:00 AM,14,12.2,92.38,M,M,0,29.68,M,M,BKN,OVC,M,M,400,800,M,M
0CO,5/7/24,3:55:00 AM,14,12.2,92.38,M,M,0,29.66,M,M,BKN,OVC,M,M,300,700,M,M
0CO,5/7/24,4:55:00 AM,14,10.4,85.28,M,M,0,29.66,M,M,BKN,BKN,OVC,M,300,700,1200,M
0CO,5/7/24,5:55:00 AM,12.2,10.4,92.32,320,47,0,29.67,M,M,BKN,OVC,M,M,700,1500,M,-14.55
0CO,5/7/24,6:55:00 AM,12.2,8.6,85.17,300,52,0,29.65,M,62,BKN,OVC,M,M,500,1300,M,-15.5
0CO,5/7/24,7:55:00 AM,10.4,8.6,92.25,310,43,0,29.68,M,56,BKN,BKN,OVC,M,1100,1700,2200,-16.29
0CO,5/7/24,8:55:00 AM,12.2,8.6,85.17,300,39,0,29.67,M,60,BKN,OVC,M,M,600,1000,M,-12.85
0CO,5/7/24,9:55:00 AM,12.2,8.6,85.17,310,43,0,29.64,M,59,M,M,M,M,M,M,M,-13.74
0CO,5/7/24,10:55:00 AM,12.2,8.6,85.17,M,M,0,29.61,M,M,BKN,OVC,M,M,600,1200,M,M
0CO,5/7/24,11:55:00 AM,12.2,8.6,85.17,M,M,0,29.6,M,M,OVC,M,M,M,300,M,M,M
0CO,5/7/24,12:55:00 PM,12.2,8.6,85.17,300,43,0,29.62,M,67,BKN,OVC,M,M,600,1400,M,-13.74
0CO,5/7/24,1:55:00 PM,12.2,8.6,85.17,M,M,0,29.6,M,M,OVC,M,M,M,500,M,M,M
0CO,5/7/24,2:55:00 PM,12.2,10.4,92.32,300,42,0,29.63,M,M,OVC,M,M,M,300,M,M,-13.52
0CO,5/7/24,3:55:00 PM,14,10.4,85.28,290,32,0,29.65,M,60,BKN,OVC,M,M,600,900,M,-8.61
0CO,5/7/24,4:55:00 PM,14,12.2,92.38,M,M,0,29.66,M,M,OVC,M,M,M,200,M,M,M
0CO,5/7/24,5:55:00 PM,14,10.4,85.28,M,M,0,29.66,M,M,OVC,M,M,M,200,M,M,M
0CO,5/7/24,6:55:00 PM,14,12.2,92.38,300,19,0,29.68,M,M,OVC,M,M,M,200,M,M,-4.37
0CO,5/7/24,7:55:00 PM,12.2,10.4,92.32,M,M,0,29.68,M,M,OVC,M,M,M,200,M,M,M
0CO,5/7/24,8:55:00 PM,14,12.2,92.38,M,M,0,29.7,M,M,OVC,M,M,M,200,M,M,M
0CO,5/7/24,9:55:00 PM,14,10.4,85.28,M,M,0,29.69,M,M,M,M,M,M,M,M,M,M
0CO,5/7/24,10:55:00 PM,14,12.2,92.38,M,M,0,29.72,M,M,OVC,M,M,M,300,M,M,M
0CO,5/7/24,11:55:00 PM,14,10.4,85.28,M,M,0,29.73,M,M,OVC,M,M,M,500,M,M,M
0CO,5/8/24,12:55:00 AM,14,10.4,85.28,M,M,0,29.71,M,M,BKN,OVC,M,M,300,900,M,M
0CO,5/8/24,1:55:00 AM,12.2,10.4,92.32,M,M,0,29.72,M,M,BKN,BKN,OVC,M,500,1300,2300,M
0CO,5/8/24,2:55:00 AM,12.2,8.6,85.17,M,M,0,29.71,M,M,M,M,M,M,M,M,M,M
0CO,5/8/24,3:55:00 AM,10.4,8.6,92.25,M,M,0,29.73,M,M,OVC,M,M,M,300,M,M,M
0CO,5/8/24,4:55:00 AM,10.4,6.8,85.05,M,M,0,29.72,M,M,BKN,OVC,M,M,300,900,M,M
0CO,5/8/24,5:55:00 AM,10.4,6.8,85.05,M,M,0,29.72,M,M,OVC,M,M,M,300,M,M,M
0CO,5/8/24,6:55:00 AM,8.6,5,84.93,M,M,0,29.68,M,M,OVC,M,M,M,400,M,M,M
0CO,5/8/24,7:55:00 AM,6.8,3.2,84.8,M,M,0,29.66,M,M,M,M,M,M,M,M,M,M
0CO,5/8/24,8:55:00 AM,5,3.2,92.06,M,M,0,29.66,M,M,M,M,M,M,M,M,M,M
0CO,5/8/24,9:55:00 AM,5,1.4,84.68,310,40,0,29.65,M,53,M,M,M,M,M,M,M,-23.24
0CO,5/8/24,10:55:00 AM,5,1.4,84.68,M,M,0,29.65,M,M,M,M,M,M,M,M,M,M
0CO,5/8/24,11:55:00 AM,5,1.4,84.68,M,M,0,29.7,M,M,BKN,OVC,M,M,200,600,M,M
0CO,5/8/24,12:55:00 PM,5,1.4,84.68,350,24,0,29.74,M,36,BKN,OVC,M,M,200,800,M,-18.37
0CO,5/8/24,1:55:00 PM,5,3.2,92.06,360,19,0,29.77,M,35,OVC,M,M,M,200,M,M,-16.27
0CO,5/8/24,2:55:00 PM,6.8,3.2,84.8,360,14,0,29.79,M,37,OVC,M,M,M,200,M,M,-11.32
0CO,5/8/24,3:55:00 PM,8.6,5,84.93,330,23,0,29.8,M,39,OVC,M,M,M,200,M,M,-13.14
0CO,5/8/24,4:55:00 PM,10.4,6.8,85.05,340,22,0,29.82,M,42,OVC,M,M,M,200,M,M,-10.35
0CO,5/8/24,5:55:00 PM,10.4,8.6,92.25,360,12,0.01,29.85,M,29,OVC,M,M,M,200,M,M,-5.49
0CO,5/8/24,6:55:00 PM,12.2,8.6,85.17,340,21,0,29.88,M,29,OVC,M,M,M,200,M,M,-7.55
0CO,5/8/24,7:55:00 PM,12.2,10.4,92.32,340,25,0,29.89,M,36,OVC,M,M,M,200,M,M,-8.99
0CO,5/8/24,8:55:00 PM,12.2,10.4,92.32,350,19,0,29.93,M,31,OVC,M,M,M,200,M,M,-6.75
0CO,5/8/24,9:55:00 PM,12.2,10.4,92.32,320,22,0,29.94,M,32,BKN,BKN,OVC,M,200,900,1700,-7.93
0CO,5/8/24,10:55:00 PM,14,10.4,85.28,360,12,0,29.95,M,35,BKN,OVC,M,M,100,700,M,-0.91
0CO,5/8/24,11:55:00 PM,12.2,10.4,92.32,340,21,0,29.98,M,32,M,M,M,M,M,M,M,-7.55
0CO,5/9/24,12:55:00 AM,12.2,10.4,92.32,360,10,0,30,M,21,OVC,M,M,M,100,M,M,-1.86
0CO,5/9/24,1:55:00 AM,12.2,8.6,85.17,330,17,0,30.02,M,26,BKN,OVC,M,M,100,500,M,-5.86
0CO,5/9/24,2:55:00 AM,10.4,8.6,92.25,330,15,0,30.06,M,M,BKN,OVC,M,M,100,500,M,-7.22
0CO,5/9/24,3:55:00 AM,10.4,8.6,92.25,330,15,0,30.07,M,M,BKN,BKN,M,M,100,12000,M,-7.22
0CO,5/9/24,4:55:00 AM,10.4,8.6,92.25,350,13,0,30.08,M,M,M,M,M,M,M,M,M,-6.1
0CO,5/9/24,5:55:00 AM,10.4,8.6,92.25,360,8,0,30.08,M,M,OVC,M,M,M,9000,M,M,-2.49
0CO,5/9/24,6:55:00 AM,10.4,8.6,92.25,350,10,0.01,30.08,M,14,OVC,M,M,M,9000,M,M,-4.12
0CO,5/9/24,7:55:00 AM,12.2,8.6,85.17,10,8,0,30.08,M,M,BKN,OVC,M,M,6000,8000,M,-0.28
0CO,5/9/24,8:55:00 AM,12.2,10.4,92.32,80,7,0,30.08,M,M,M,M,M,M,M,M,M,0.64
0CO,5/9/24,9:55:00 AM,14,10.4,85.28,190,5,0,30.1,M,M,BKN,OVC,M,M,5500,7500,M,5.02
0CO,5/9/24,10:55:00 AM,12.2,10.4,92.32,150,5,0,30.11,M,15,M,M,M,M,M,M,M,2.88
0CO,5/9/24,11:55:00 AM,12.2,10.4,92.32,30,8,0,30.11,M,19,BKN,OVC,M,M,1300,2000,M,-0.28
0CO,5/9/24,12:55:00 PM,12.2,10.4,92.32,70,9,0.02,30.12,M,15,OVC,M,M,M,200,M,M,-1.11
0CO,5/9/24,1:55:00 PM,12.2,10.4,92.32,220,8,0.01,30.14,M,16,OVC,M,M,M,200,M,M,-0.28
0CO,5/9/24,2:55:00 PM,14,12.2,92.38,180,9,0.01,30.17,M,22,OVC,M,M,M,200,M,M,1.13
0CO,5/9/24,3:55:00 PM,14,12.2,92.38,170,12,0,30.17,M,28,OVC,M,M,M,200,M,M,-0.91
0CO,5/9/24,4:55:00 PM,17.6,14,85.51,20,6,0,30.2,M,M,OVC,M,M,M,200,M,M,8.19
0CO,5/9/24,5:55:00 PM,17.6,15.8,92.5,210,4,0,30.22,M,M,OVC,M,M,M,200,M,M,10.6
0CO,5/9/24,6:55:00 PM,19.4,17.6,92.57,160,5,0,30.23,M,M,OVC,M,M,M,200,M,M,11.43
0CO,5/9/24,7:55:00 PM,19.4,17.6,92.57,50,5,0,30.24,M,M,OVC,M,M,M,200,M,M,11.43
0CO,5/9/24,8:55:00 PM,19.4,17.6,92.57,50,8,0.01,30.25,M,21,OVC,M,M,M,200,M,M,8.59
0CO,5/9/24,9:55:00 PM,19.4,17.6,92.57,190,10,0.02,30.25,M,24,OVC,M,M,M,200,M,M,7.17
0CO,5/9/24,10:55:00 PM,19.4,17.6,92.57,230,7,0.03,30.26,M,22,BKN,OVC,M,M,200,700,M,9.42
0CO,5/9/24,11:55:00 PM,19.4,17.6,92.57,140,7,0.02,30.29,M,M,BKN,OVC,M,M,100,600,M,9.42
0CO,5/10/24,12:55:00 AM,17.6,15.8,92.5,220,6,0,30.29,M,14,OVC,M,M,M,100,M,M,8.19
0CO,5/10/24,1:55:00 AM,19.4,17.6,92.57,230,7,0.01,30.32,M,15,OVC,M,M,M,100,M,M,9.42
0CO,5/10/24,2:55:00 AM,17.6,15.8,92.5,240,7,0.02,30.33,M,17,BKN,OVC,M,M,100,1200,M,7.23
0CO,5/10/24,3:55:00 AM,17.6,15.8,92.5,150,8,0.04,30.36,M,19,OVC,M,M,M,100,M,M,6.37
0CO,5/10/24,4:55:00 AM,17.6,15.8,92.5,110,8,0.04,30.34,M,18,OVC,M,M,M,100,M,M,6.37
0CO,5/10/24,5:55:00 AM,17.6,15.8,92.5,200,6,0,30.36,M,18,OVC,M,M,M,100,M,M,8.19
0CO,5/10/24,6:55:00 AM,17.6,15.8,92.5,210,9,0,30.34,M,17,OVC,M,M,M,100,M,M,5.61
0CO,5/10/24,7:55:00 AM,17.6,15.8,92.5,130,23,0,30.34,M,30,OVC,M,M,M,100,M,M,-1.04
0CO,5/10/24,8:55:00 AM,19.4,17.6,92.57,240,7,0,30.32,M,18,OVC,M,M,M,100,M,M,9.42
0CO,5/10/24,9:55:00 AM,19.4,17.6,92.57,240,7,0.01,30.33,M,M,OVC,M,M,M,100,M,M,9.42
0CO,5/10/24,10:55:00 AM,19.4,15.8,85.63,190,9,0.01,30.33,M,23,OVC,M,M,M,100,M,M,7.85
0CO,5/10/24,11:55:00 AM,19.4,15.8,85.63,200,10,0,30.33,M,22,OVC,M,M,M,100,M,M,7.17
0CO,5/10/24,12:55:00 PM,19.4,17.6,92.57,140,20,0,30.34,M,33,OVC,M,M,M,100,M,M,2.4
0CO,5/10/24,1:55:00 PM,19.4,17.6,92.57,140,16,0,30.35,M,30,OVC,M,M,M,100,M,M,4
0CO,5/10/24,2:55:00 PM,19.4,17.6,92.57,140,21,0,30.36,M,34,OVC,M,M,M,100,M,M,2.05
0CO,5/10/24,3:55:00 PM,19.4,19.4,100,150,19,0,30.37,M,25,OVC,M,M,M,100,M,M,2.77
0CO,5/10/24,4:55:00 PM,21.2,19.4,92.63,150,12,0,30.38,M,26,OVC,M,M,M,100,M,M,8.26
0CO,5/10/24,5:55:00 PM,21.2,21.2,100,140,18,0,30.38,M,26,OVC,M,M,M,100,M,M,5.53
0CO,5/10/24,6:55:00 PM,23,21.2,92.69,140,17,0,30.38,M,23,OVC,M,M,M,100,M,M,8.28
0CO,5/10/24,7:55:00 PM,21.2,21.2,100,140,16,0,30.37,M,24,OVC,M,M,M,100,M,M,6.34
0CO,5/10/24,8:55:00 PM,23,21.2,92.69,180,9,0,30.36,M,19,OVC,M,M,M,100,M,M,12.32
0CO,5/10/24,9:55:00 PM,23,21.2,92.69,160,13,0,30.35,M,19,OVC,M,M,M,100,M,M,10.04
0CO,5/10/24,10:55:00 PM,23,21.2,92.69,160,18,0,30.35,M,21,OVC,M,M,M,100,M,M,7.9
0CO,5/10/24,11:55:00 PM,23,21.2,92.69,160,22,0,30.35,M,M,OVC,M,M,M,100,M,M,6.53
0CO,5/11/24,12:55:00 AM,23,21.2,92.69,160,18,0,30.34,M,24,OVC,M,M,M,100,M,M,7.9
0CO,5/11/24,1:55:00 AM,21.2,21.2,100,160,12,0,30.35,M,23,OVC,M,M,M,100,M,M,8.26
0CO,5/11/24,2:55:00 AM,21.2,19.4,92.63,180,5,0,30.36,M,M,OVC,M,M,M,100,M,M,13.57
0CO,5/11/24,3:55:00 AM,21.2,19.4,92.63,180,6,0,30.36,M,M,M,M,M,M,M,M,M,12.52
0CO,5/11/24,4:55:00 AM,21.2,19.4,92.63,200,5,0,30.36,M,M,M,M,M,M,M,M,M,13.57
0CO,5/11/24,5:55:00 AM,21.2,19.4,92.63,240,3,0,30.34,M,M,M,M,M,M,M,M,M,16.34
0CO,5/11/24,6:55:00 AM,19.4,17.6,92.57,250,9,0,30.33,M,M,M,M,M,M,M,M,M,7.85
0CO,5/11/24,7:55:00 AM,21.2,19.4,92.63,170,3,0,30.3,M,M,M,M,M,M,M,M,M,16.34
0CO,5/11/24,8:55:00 AM,19.4,19.4,100,160,7,0,30.29,M,M,M,M,M,M,M,M,M,9.42
0CO,5/11/24,9:55:00 AM,19.4,17.6,92.57,180,8,0,30.28,M,M,M,M,M,M,M,M,M,8.59
0CO,5/11/24,10:55:00 AM,21.2,19.4,92.63,170,8,0,30.28,M,M,BKN,M,M,M,9500,M,M,10.81
0CO,5/11/24,11:55:00 AM,19.4,19.4,100,190,9,0,30.27,M,M,OVC,M,M,M,10000,M,M,7.85
0CO,5/11/24,12:55:00 PM,21.2,19.4,92.63,240,12,0,30.27,M,20,M,M,M,M,M,M,M,8.26
0CO,5/11/24,1:55:00 PM,21.2,19.4,92.63,170,5,0,30.26,M,M,M,M,M,M,M,M,M,13.57
0CO,5/11/24,2:55:00 PM,24.8,17.6,73.7,150,5,0.08,30.25,M,M,CLR,M,M,M,M,M,M,17.84
0CO,5/11/24,3:55:00 PM,28.4,21.2,74.08,140,7,0.04,30.25,M,M,SCT,SCT,M,M,10000,12000,M,20.39
0CO,5/11/24,4:55:00 PM,28.4,23,79.92,M,M,0.04,30.24,M,M,CLR,M,M,M,M,M,M,M
0CO,5/11/24,5:55:00 PM,30.2,19.4,63.75,160,8,0.01,30.24,M,21,BKN,BKN,M,M,9000,12000,M,21.9
0CO,5/11/24,6:55:00 PM,30.2,21.2,68.83,190,7,0,30.22,M,21,SCT,BKN,OVC,M,2600,5000,6500,22.59
0CO,5/11/24,7:55:00 PM,26.6,21.2,79.77,140,10,0.02,30.22,M,23,SCT,BKN,OVC,M,500,1400,2000,16.2
0CO,5/11/24,9:55:00 PM,28.4,23,79.92,200,6,0,30.19,M,M,M,M,M,M,M,M,M,21.19
0CO,5/11/24,10:55:00 PM,26.6,23,86.07,100,9,0.02,30.17,M,M,M,M,M,M,M,M,M,16.8
0CO,5/11/24,11:55:00 PM,26.6,24.8,92.8,70,8,0,30.16,M,M,M,M,M,M,M,M,M,17.46
0CO,5/11/24,12:55:00 AM,28.4,23,79.92,240,6,0,30.15,M,M,SCT,SCT,OVC,M,1900,3300,4100,21.19
0CO,5/12/24,1:55:00 AM,26.6,21.2,79.77,150,9,0,30.15,M,29,SCT,SCT,SCT,M,4100,5000,10000,16.8
0CO,5/12/24,2:55:00 AM,26.6,23,86.07,120,6,0,30.17,M,M,BKN,BKN,OVC,M,1400,1900,2800,19.03
0CO,5/12/24,3:55:00 AM,26.6,24.8,92.8,80,7,0.02,30.17,M,M,M,M,M,M,M,M,M,18.2
0CO,5/12/24,4:55:00 AM,26.6,24.8,92.8,80,11,0.02,30.17,M,20,M,M,M,M,M,M,M,15.64
0CO,5/12/24,5:55:00 AM,24.8,21.2,85.96,90,7,0,30.16,M,M,M,M,M,M,M,M,M,16
0CO,5/12/24,6:55:00 AM,24.8,21.2,85.96,80,4,0,30.14,M,M,M,M,M,M,M,M,M,19.01
0CO,5/12/24,7:55:00 AM,23,23,100,350,7,0.03,30.12,M,17,BKN,BKN,OVC,M,300,900,1500,13.81
0CO,5/12/24,8:55:00 AM,24.8,23,92.74,90,3,0.04,30.11,M,M,OVC,M,M,M,200,M,M,20.46
0CO,5/12/24,9:55:00 AM,24.8,23,92.74,360,4,0.07,30.1,M,M,OVC,M,M,M,200,M,M,19.01
0CO,5/12/24,10:55:00 AM,24.8,23,92.74,350,5,0.1,30.1,M,M,OVC,M,M,M,200,M,M,17.84
0CO,5/12/24,11:55:00 AM,24.8,23,92.74,20,4,0.02,30.1,M,M,OVC,M,M,M,200,M,M,19.01
0CO,5/12/24,12:55:00 PM,23,23,100,30,6,0.01,30.09,M,M,OVC,M,M,M,200,M,M,14.69
0CO,5/12/24,1:55:00 PM,24.8,23,92.74,230,3,0,30.11,M,M,OVC,M,M,M,200,M,M,20.46
0CO,5/12/24,2:55:00 PM,24.8,23,92.74,40,6,0.01,30.12,M,M,OVC,M,M,M,200,M,M,16.86
0CO,5/12/24,3:55:00 PM,26.6,24.8,92.8,140,7,0,30.13,M,M,OVC,M,M,M,200,M,M,18.2
0CO,5/12/24,4:55:00 PM,26.6,24.8,92.8,10,10,0,30.14,M,16,M,M,M,M,M,M,M,16.2
0CO,5/12/24,5:55:00 PM,28.4,19.4,68.61,60,9,0,30.17,M,M,BKN,BKN,M,M,4300,5000,M,19.04
0CO,5/12/24,6:55:00 PM,28.4,19.4,68.61,180,7,0,30.17,M,M,SCT,BKN,OVC,M,1300,3700,6000,20.39
0CO,5/12/24,7:55:00 PM,30.2,21.2,68.83,70,6,0,30.18,M,M,SCT,SCT,BKN,M,3300,3900,4900,23.36
0CO,5/12/24,8:55:00 PM,30.2,21.2,68.83,340,10,0,30.17,M,28,BKN,BKN,OVC,M,2700,3200,3900,20.71
0CO,5/12/24,9:55:00 PM,30.2,23,74.26,30,6,0,30.2,M,M,SCT,BKN,OVC,M,1600,2100,3900,23.36
0CO,5/12/24,10:55:00 PM,30.2,23,74.26,310,12,0,30.19,M,20,BKN,BKN,OVC,M,1900,2900,4000,19.71
0CO,5/12/24,11:55:00 PM,30.2,23,74.26,350,6,0,30.22,M,17,SCT,M,M,M,1800,M,M,23.36
0CO,5/12/24,12:55:00 AM,30.2,23,74.26,330,18,0,30.2,M,25,SCT,M,M,M,2600,M,M,17.38
0CO,5/13/24,1:55:00 AM,28.4,26.6,92.86,350,12,0,30.22,M,27,M,M,M,M,M,M,M,17.42
0CO,5/13/24,2:55:00 AM,26.6,24.8,92.8,300,4,0,30.26,M,M,OVC,M,M,M,100,M,M,21.11
0CO,5/13/24,3:55:00 AM,26.6,24.8,92.8,350,6,0,30.26,M,9,BKN,M,M,M,100,M,M,19.03
0CO,5/13/24,4:55:00 AM,24.8,23,92.74,350,9,0,30.27,M,16,M,M,M,M,M,M,M,14.56
0CO,5/13/24,5:55:00 AM,24.8,23,92.74,40,4,0,30.27,M,M,M,M,M,M,M,M,M,19.01
0CO,5/13/24,6:55:00 AM,24.8,23,92.74,360,6,0,30.26,M,M,M,M,M,M,M,M,M,16.86
0CO,5/13/24,7:55:00 AM,24.8,23,92.74,350,8,0,30.25,M,17,M,M,M,M,M,M,M,15.24
0CO,5/13/24,8:55:00 AM,23,23,100,350,9,0,30.25,M,14,M,M,M,M,M,M,M,12.32
0CO,5/13/24,9:55:00 AM,23,23,100,340,15,0,30.25,M,M,M,M,M,M,M,M,M,9.11
0CO,5/13/24,10:55:00 AM,24.8,23,92.74,330,8,0,30.27,M,M,M,M,M,M,M,M,M,15.24
0CO,5/13/24,11:55:00 AM,24.8,23,92.74,350,7,0,30.27,M,15,M,M,M,M,M,M,M,16
0CO,5/13/24,12:55:00 PM,24.8,23,92.74,340,10,0,30.28,M,15,BKN,OVC,M,M,300,3400,M,13.94
0CO,5/13/24,1:55:00 PM,26.6,24.8,92.8,10,6,0,30.3,M,22,M,M,M,M,M,M,M,19.03
0CO,5/13/24,2:55:00 PM,28.4,24.8,86.18,300,10,0,30.32,M,18,M,M,M,M,M,M,M,18.45
0CO,5/13/24,3:55:00 PM,30.2,24.8,80.07,290,9,0,30.32,M,21,SCT,BKN,OVC,M,1200,2000,2700,21.28
0CO,5/13/24,4:55:00 PM,32,26.6,80.22,310,13,0,30.32,M,19,SCT,SCT,BKN,M,2400,3300,5500,21.57
0CO,5/13/24,5:55:00 PM,32,26.6,80.22,320,16,0,30.32,M,29,SCT,SCT,OVC,M,1700,3000,5000,20.42
0CO,5/13/24,6:55:00 PM,33.8,21.2,59.53,320,21,0,30.32,M,27,SCT,SCT,BKN,M,3600,4300,5000,21.25
0CO,5/13/24,7:55:00 PM,33.8,19.4,55.14,310,11,0,30.31,M,25,SCT,BKN,OVC,M,4000,4500,6500,24.74
0CO,5/13/24,8:55:00 PM,35.6,23,59.79,290,14,0,30.31,M,21,SCT,SCT,SCT,M,4200,6500,7500,25.8
0CO,5/13/24,9:55:00 PM,37.4,17.6,44.25,330,19,0,30.3,M,29,BKN,M,M,M,5500,M,M,26.58
0CO,5/13/24,10:55:00 PM,37.4,17.6,44.25,320,22,0,30.29,M,32,BKN,M,M,M,5500,M,M,25.81
0CO,5/13/24,11:55:00 PM,35.6,17.6,47.51,310,23,0,30.29,M,30,SCT,SCT,M,M,6000,8000,M,23.15
0CO,5/13/24,12:55:00 AM,35.6,19.4,51.33,300,21,0,30.29,M,31,CLR,M,M,M,M,M,M,23.65
0CO,5/14/24,1:55:00 AM,33.8,21.2,59.53,310,18,0,30.3,M,25,CLR,M,M,M,M,M,M,22.12
0CO,5/14/24,2:55:00 AM,32,23,69.04,330,20,0,30.3,M,32,CLR,M,M,M,M,M,M,19.14
0CO,5/14/24,3:55:00 AM,30.2,26.6,86.28,330,14,0,30.32,M,26,M,M,M,M,M,M,M,18.84
0CO,5/14/24,4:55:00 AM,30.2,21.2,68.83,320,23,0,30.3,M,27,CLR,M,M,M,M,M,M,15.89
0CO,5/14/24,5:55:00 AM,30.2,23,74.26,310,26,0,30.3,M,32,CLR,M,M,M,M,M,M,15.13
0CO,5/14/24,6:55:00 AM,28.4,24.8,86.18,360,7,0,30.32,M,23,M,M,M,M,M,M,M,20.39
0CO,5/14/24,7:55:00 AM,30.2,24.8,80.07,300,17,0,30.29,M,22,SCT,BKN,OVC,M,100,3700,5000,17.72
0CO,5/14/24,8:55:00 AM,30.2,23,74.26,300,17,0,30.27,M,25,CLR,M,M,M,M,M,M,17.72
0CO,5/14/24,9:55:00 AM,30.2,23,74.26,300,25,0,30.25,M,37,SCT,M,M,M,2700,M,M,15.38
0CO,5/14/24,10:55:00 AM,30.2,23,74.26,280,23,0,30.24,M,33,CLR,M,M,M,M,M,M,15.89
0CO,5/14/24,11:55:00 AM,28.4,23,79.92,320,17,0,30.25,M,21,M,M,M,M,M,M,M,15.36
0CO,5/14/24,12:55:00 PM,26.6,26.6,100,300,21,0,30.24,M,27,M,M,M,M,M,M,M,11.65
0CO,5/14/24,1:55:00 PM,30.2,23,74.26,290,27,0,30.23,M,39,CLR,M,M,M,M,M,M,14.89
0CO,5/14/24,2:55:00 PM,32,23,69.04,310,29,0,30.23,M,38,BKN,M,M,M,2300,M,M,16.9
0CO,5/14/24,3:55:00 PM,32,23,69.04,300,29,0,30.23,M,37,BKN,BKN,M,M,2500,3100,M,16.9
0CO,5/14/24,4:55:00 PM,32,23,69.04,310,16,0,30.26,M,41,BKN,BKN,M,M,3000,3900,M,20.42
0CO,5/14/24,5:55:00 PM,33.8,21.2,59.53,300,23,0,30.25,M,41,BKN,OVC,M,M,3500,4700,M,20.73
0CO,5/14/24,6:55:00 PM,35.6,21.2,55.41,280,28,0,30.25,M,39,BKN,BKN,OVC,M,3900,4700,5500,22.04
0CO,5/14/24,7:55:00 PM,32,23,69.04,290,22,0,30.26,M,29,SCT,BKN,BKN,M,1400,3500,5500,18.58
0CO,5/14/24,8:55:00 PM,32,21.2,63.99,280,18,0,30.27,M,26,CLR,M,M,M,M,M,M,19.75
0CO,5/14/24,9:55:00 PM,33.8,19.4,55.14,280,23,0,30.24,M,36,SCT,SCT,M,M,4200,4800,M,20.73
0CO,5/14/24,10:55:00 PM,32,26.6,80.22,350,10,0,30.23,M,27,SCT,SCT,BKN,M,1400,2300,4600,22.97
0CO,5/14/24,11:55:00 PM,32,23,69.04,290,13,0,30.24,M,25,CLR,M,M,M,M,M,M,21.57
0CO,5/14/24,12:55:00 AM,28.4,26.6,92.86,320,23,0,30.26,M,30,BKN,OVC,M,M,200,1100,M,13.47
0CO,5/15/24,1:55:00 AM,30.2,21.2,68.83,300,14,0,30.22,M,20,CLR,M,M,M,M,M,M,18.84
0CO,5/15/24,2:55:00 AM,28.4,21.2,74.08,280,10,0,30.24,M,19,CLR,M,M,M,M,M,M,18.45
0CO,5/15/24,3:55:00 AM,28.4,23,79.92,320,8,0,30.26,M,14,M,M,M,M,M,M,M,19.68
0CO,5/15/24,4:55:00 AM,28.4,23,79.92,310,8,0,30.27,M,M,M,M,M,M,M,M,M,19.68
0CO,5/15/24,5:55:00 AM,28.4,23,79.92,250,12,0,30.25,M,16,SCT,M,M,M,12000,M,M,17.42
0CO,5/15/24,6:55:00 AM,28.4,23,79.92,250,9,0,30.24,M,19,SCT,BKN,BKN,M,4500,5000,12000,19.04
0CO,5/15/24,7:55:00 AM,28.4,23,79.92,260,16,0,30.22,M,19,M,M,M,M,M,M,M,15.73
0CO,5/15/24,8:55:00 AM,28.4,23,79.92,270,14,0,30.2,M,24,M,M,M,M,M,M,M,16.52
0CO,5/15/24,9:55:00 AM,26.6,23,86.07,280,11,0,30.2,M,21,M,M,M,M,M,M,M,15.64
0CO,5/15/24,10:55:00 AM,26.6,23,86.07,310,15,0,30.19,M,M,M,M,M,M,M,M,M,13.78
0CO,5/15/24,11:55:00 AM,24.8,21.2,85.96,310,19,0,30.19,M,28,M,M,M,M,M,M,M,9.92
0CO,5/15/24,12:55:00 PM,23,21.2,92.69,310,19,0,30.19,M,25,M,M,M,M,M,M,M,7.54
0CO,5/15/24,1:55:00 PM,23,21.2,92.69,310,23,0,30.19,M,27,M,M,M,M,M,M,M,6.22
0CO,5/15/24,2:55:00 PM,23,21.2,92.69,300,19,0,30.22,M,23,M,M,M,M,M,M,M,7.54
0CO,5/15/24,3:55:00 PM,26.6,23,86.07,330,16,0,30.22,M,23,BKN,BKN,OVC,M,100,500,900,13.38
0CO,5/15/24,4:55:00 PM,28.4,21.2,74.08,310,12,0,30.23,M,27,BKN,BKN,M,M,2000,2700,M,17.42
0CO,5/15/24,5:55:00 PM,30.2,19.4,63.75,300,21,0,30.24,M,29,SCT,M,M,M,3300,M,M,16.45
0CO,5/15/24,6:55:00 PM,30.2,19.4,63.75,280,17,0,30.25,M,25,BKN,BKN,M,M,3600,4800,M,17.72
0CO,5/15/24,7:55:00 PM,32,19.4,59.27,280,15,0,30.26,M,23,SCT,BKN,BKN,M,3200,4500,5500,20.78
0CO,5/15/24,8:55:00 PM,32,17.6,54.87,290,10,0,30.27,M,21,BKN,BKN,M,M,5000,6500,M,22.97
0CO,5/15/24,9:55:00 PM,32,19.4,59.27,290,12,0,30.25,M,20,BKN,OVC,M,M,4100,5000,M,22
0CO,5/15/24,10:55:00 PM,32,21.2,63.99,310,7,0,30.26,M,M,SCT,BKN,BKN,M,4200,5000,6500,24.78
0CO,5/15/24,11:55:00 PM,33.8,21.2,59.53,30,5,0,30.26,M,15,SCT,SCT,BKN,M,3800,4600,6000,28.53
0CO,5/15/24,12:55:00 AM,30.2,26.6,86.28,180,4,0,30.27,M,M,M,M,M,M,M,M,M,25.32
0CO,5/16/24,1:55:00 AM,30.2,26.6,86.28,230,3,0,30.28,M,M,M,M,M,M,M,M,M,26.63
0CO,5/16/24,2:55:00 AM,28.4,28.4,100,0,0,0,30.28,M,M,OVC,M,M,M,100,M,M,28.4
0CO,5/16/24,3:55:00 AM,28.4,28.4,100,150,8,0,30.29,M,M,OVC,M,M,M,100,M,M,19.68
0CO,5/16/24,4:55:00 AM,26.6,26.6,100,150,6,0,30.29,M,M,OVC,M,M,M,100,M,M,19.03
0CO,5/16/24,5:55:00 AM,26.6,26.6,100,160,6,0,30.29,M,M,OVC,M,M,M,100,M,M,19.03
0CO,5/16/24,6:55:00 AM,26.6,26.6,100,160,10,0,30.28,M,14,BKN,M,M,M,100,M,M,16.2
0CO,5/16/24,7:55:00 AM,26.6,24.8,92.8,250,7,0,30.27,M,15,M,M,M,M,M,M,M,18.2
0CO,5/16/24,8:55:00 AM,24.8,23,92.74,330,8,0,30.25,M,M,M,M,M,M,M,M,M,15.24
0CO,5/16/24,9:55:00 AM,26.6,24.8,92.8,300,8,0,30.26,M,M,M,M,M,M,M,M,M,17.46
0CO,5/16/24,10:55:00 AM,26.6,23,86.07,340,10,0,30.25,M,M,M,M,M,M,M,M,M,16.2
0CO,5/16/24,11:55:00 AM,24.8,23,92.74,150,4,0,30.25,M,M,M,M,M,M,M,M,M,19.01
0CO,5/16/24,12:55:00 PM,26.6,23,86.07,330,9,0,30.25,M,M,M,M,M,M,M,M,M,16.8
0CO,5/16/24,1:55:00 PM,26.6,23,86.07,290,8,0,30.25,M,M,M,M,M,M,M,M,M,17.46
0CO,5/16/24,2:55:00 PM,28.4,23,79.92,0,0,0,30.27,M,M,BKN,M,M,M,1500,M,M,28.4
0CO,5/16/24,3:55:00 PM,30.2,23,74.26,180,6,0,30.28,M,M,SCT,BKN,M,M,2100,2600,M,23.36
0CO,5/16/24,4:55:00 PM,32,23,69.04,240,6,0,30.28,M,M,CLR,M,M,M,M,M,M,25.53
0CO,5/16/24,5:55:00 PM,33.8,21.2,59.53,270,7,0,30.28,M,18,SCT,M,M,M,3500,M,M,26.97
0CO,5/16/24,6:55:00 PM,32,21.2,63.99,360,4,0,30.28,M,18,SCT,SCT,SCT,M,3400,4400,5000,27.42
0CO,5/16/24,7:55:00 PM,35.6,17.6,47.51,20,8,0,30.27,M,19,SCT,M,M,M,4900,M,M,28.55
0CO,5/16/24,8:55:00 PM,35.6,14,40.63,270,11,0,30.27,M,22,CLR,M,M,M,M,M,M,27.02
0CO,5/16/24,9:55:00 PM,37.4,19.4,47.8,290,13,0,30.26,M,19,BKN,M,M,M,6500,M,M,28.49
0CO,5/16/24,10:55:00 PM,37.4,19.4,47.8,290,14,0,30.25,M,24,SCT,BKN,M,M,6000,7000,M,28.12
0CO,5/16/24,11:55:00 PM,35.6,19.4,51.33,300,13,0,30.25,M,26,SCT,M,M,M,5000,M,M,26.18
0CO,5/16/24,12:55:00 AM,35.6,19.4,51.33,310,18,0,30.24,M,26,CLR,M,M,M,M,M,M,24.49
0CO,5/17/24,1:55:00 AM,33.8,21.2,59.53,320,17,0,30.25,M,24,CLR,M,M,M,M,M,M,22.43
0CO,5/17/24,2:55:00 AM,32,21.2,63.99,320,10,0,30.26,M,M,SCT,M,M,M,4800,M,M,22.97
0CO,5/17/24,3:55:00 AM,32,19.4,59.27,320,18,0,30.27,M,27,CLR,M,M,M,M,M,M,19.75
0CO,5/17/24,4:55:00 AM,32,19.4,59.27,330,17,0,30.26,M,27,CLR,M,M,M,M,M,M,20.08
0CO,5/17/24,5:55:00 AM,32,21.2,63.99,310,14,0,30.25,M,20,CLR,M,M,M,M,M,M,21.16
0CO,5/17/24,6:55:00 AM,32,19.4,59.27,300,17,0,30.24,M,M,CLR,M,M,M,M,M,M,20.08
0CO,5/17/24,7:55:00 AM,32,19.4,59.27,310,21,0,30.21,M,29,CLR,M,M,M,M,M,M,18.85
0CO,5/17/24,8:55:00 AM,30.2,19.4,63.75,320,24,0,30.19,M,29,CLR,M,M,M,M,M,M,15.63
0CO,5/17/24,9:55:00 AM,30.2,19.4,63.75,330,24,0,30.21,M,31,CLR,M,M,M,M,M,M,15.63
0CO,5/17/24,10:55:00 AM,30.2,21.2,68.83,350,17,0,30.22,M,27,CLR,M,M,M,M,M,M,17.72
0CO,5/17/24,11:55:00 AM,28.4,21.2,74.08,320,22,0,30.22,M,26,CLR,M,M,M,M,M,M,13.76
0CO,5/17/24,12:55:00 PM,30.2,19.4,63.75,310,18,0,30.22,M,27,CLR,M,M,M,M,M,M,17.38
0CO,5/17/24,1:55:00 PM,32,21.2,63.99,330,13,0,30.24,M,27,CLR,M,M,M,M,M,M,21.57
0CO,5/17/24,2:55:00 PM,32,21.2,63.99,300,18,0,30.25,M,33,CLR,M,M,M,M,M,M,19.75
0CO,5/17/24,3:55:00 PM,33.8,21.2,59.53,290,26,0,30.23,M,38,CLR,M,M,M,M,M,M,20.02
0CO,5/17/24,4:55:00 PM,35.6,23,59.79,300,23,0,30.23,M,34,SCT,M,M,M,3800,M,M,23.15
0CO,5/17/24,5:55:00 PM,35.6,21.2,55.41,290,24,0,30.23,M,29,SCT,M,M,M,4000,M,M,22.92
0CO,5/17/24,6:55:00 PM,37.4,19.4,47.8,300,24,0,30.22,M,30,CLR,M,M,M,M,M,M,25.34
0CO,5/17/24,7:55:00 PM,37.4,17.6,44.25,290,24,0,30.23,M,42,CLR,M,M,M,M,M,M,25.34
0CO,5/17/24,8:55:00 PM,39.2,17.6,41.24,300,24,0,30.22,M,35,SCT,M,M,M,6500,M,M,27.77
0CO,5/17/24,9:55:00 PM,39.2,19.4,44.55,280,30,0,30.23,M,37,SCT,BKN,M,M,6000,7000,M,26.6
0CO,5/17/24,10:55:00 PM,39.2,21.2,48.1,290,32,0,30.22,M,45,SCT,SCT,SCT,M,5000,7000,7500,26.25
0CO,5/17/24,11:55:00 PM,37.4,21.2,51.61,280,29,0,30.22,M,38,SCT,SCT,BKN,M,4800,6000,7000,24.31
0CO,5/17/24,12:55:00 AM,37.4,21.2,51.61,290,27,0,30.22,M,39,CLR,M,M,M,M,M,M,24.7
0CO,5/18/24,1:55:00 AM,35.6,21.2,55.41,280,22,0,30.24,M,36,CLR,M,M,M,M,M,M,23.4
0CO,5/18/24,2:55:00 AM,35.6,21.2,55.41,280,30,0,30.25,M,35,CLR,M,M,M,M,M,M,21.65
0CO,5/18/24,3:55:00 AM,35.6,21.2,55.41,280,29,0,30.26,M,40,CLR,M,M,M,M,M,M,21.84
0CO,5/18/24,4:55:00 AM,33.8,21.2,59.53,290,19,0,30.27,M,30,CLR,M,M,M,M,M,M,21.82
0CO,5/18/24,5:55:00 AM,32,23,69.04,300,22,0,30.27,M,32,SCT,BKN,OVC,M,2000,4600,6500,18.58
0CO,5/18/24,6:55:00 AM,32,23,69.04,310,20,0,30.27,M,29,CLR,M,M,M,M,M,M,19.14
0CO,5/18/24,7:55:00 AM,32,21.2,63.99,300,16,0,30.27,M,24,SCT,M,M,M,5000,M,M,20.42
0CO,5/18/24,8:55:00 AM,32,19.4,59.27,310,20,0,30.25,M,28,CLR,M,M,M,M,M,M,19.14
0CO,5/18/24,9:55:00 AM,32,19.4,59.27,300,21,0,30.27,M,30,CLR,M,M,M,M,M,M,18.85
0CO,5/18/24,10:55:00 AM,32,19.4,59.27,300,17,0,30.29,M,32,CLR,M,M,M,M,M,M,20.08
0CO,5/18/24,11:55:00 AM,32,19.4,59.27,290,11,0,30.33,M,24,CLR,M,M,M,M,M,M,22.47
0CO,5/18/24,12:55:00 PM,32,21.2,63.99,270,10,0,30.36,M,M,CLR,M,M,M,M,M,M,22.97
0CO,5/18/24,1:55:00 PM,33.8,19.4,55.14,270,16,0,30.37,M,31,CLR,M,M,M,M,M,M,22.76
0CO,5/18/24,2:55:00 PM,35.6,19.4,51.33,270,26,0,30.37,M,36,CLR,M,M,M,M,M,M,22.47
0CO,5/18/24,3:55:00 PM,37.4,19.4,47.8,270,18,0,30.38,M,33,CLR,M,M,M,M,M,M,26.86
0CO,5/18/24,4:55:00 PM,37.4,19.4,47.8,280,26,0,30.39,M,35,SCT,SCT,SCT,M,5000,7000,8000,24.91
0CO,5/18/24,5:55:00 PM,37.4,19.4,47.8,280,26,0,30.41,M,35,SCT,BKN,BKN,M,6000,7000,9500,24.91
0CO,5/18/24,6:55:00 PM,39.2,21.2,48.1,250,29,0,30.41,M,39,SCT,SCT,M,M,6500,7500,M,26.78
0CO,5/18/24,7:55:00 PM,41,21.2,44.85,270,18,0,30.41,M,32,CLR,M,M,M,M,M,M,31.6
0CO,5/18/24,8:55:00 PM,41,23,48.39,260,14,0,30.41,M,21,SCT,BKN,M,M,5000,7000,M,32.76
0CO,5/18/24,9:55:00 PM,39.2,21.2,48.1,270,17,0,30.39,M,28,SCT,SCT,BKN,M,4900,6000,12000,29.51
0CO,5/18/24,10:55:00 PM,39.2,23,51.89,250,20,0,30.39,M,35,BKN,BKN,M,M,5000,7000,M,28.7
0CO,5/18/24,11:55:00 PM,32,28.4,86.39,320,11,0,30.38,M,19,SCT,BKN,OVC,M,1200,7000,8500,22.47
0CO,5/18/24,12:55:00 AM,35.6,26.6,69.46,270,12,0,30.38,M,22,SCT,BKN,BKN,M,4300,5000,6000,26.58
0CO,5/19/24,1:55:00 AM,32,28.4,86.39,240,20,0,30.39,M,38,SCT,SCT,BKN,M,2400,6500,9000,19.14
0CO,5/19/24,2:55:00 AM,32,24.8,74.44,260,15,0,30.37,M,24,CLR,M,M,M,M,M,M,20.78
0CO,5/19/24,3:55:00 AM,33.8,23,64.23,270,23,0,30.36,M,35,CLR,M,M,M,M,M,M,20.73
0CO,5/19/24,4:55:00 AM,33.8,23,64.23,280,25,0,30.35,M,35,CLR,M,M,M,M,M,M,20.25
0CO,5/19/24,5:55:00 AM,30.2,28.4,92.92,310,12,0,30.36,M,M,M,M,M,M,M,M,M,19.71
0CO,5/19/24,6:55:00 AM,32,28.4,86.39,270,25,0,30.34,M,39,SCT,BKN,OVC,M,1500,2800,5000,17.81
0CO,5/19/24,7:55:00 AM,32,26.6,80.22,270,24,0,30.31,M,43,CLR,M,M,M,M,M,M,18.06
0CO,5/19/24,8:55:00 AM,32,26.6,80.22,310,10,0,30.3,M,20,CLR,M,M,M,M,M,M,22.97
0CO,5/19/24,9:55:00 AM,32,23,69.04,270,18,0,30.28,M,24,SCT,M,M,M,12000,M,M,19.75
0CO,5/19/24,10:55:00 AM,33.8,19.4,55.14,270,14,0,30.28,M,29,CLR,M,M,M,M,M,M,23.48
0CO,5/19/24,11:55:00 AM,33.8,19.4,55.14,270,19,0,30.27,M,33,CLR,M,M,M,M,M,M,21.82
0CO,5/19/24,12:55:00 PM,33.8,19.4,55.14,270,19,0,30.27,M,28,CLR,M,M,M,M,M,M,21.82
0CO,5/19/24,1:55:00 PM,33.8,19.4,55.14,280,21,0,30.27,M,31,CLR,M,M,M,M,M,M,21.25
0CO,5/19/24,2:55:00 PM,33.8,21.2,59.53,280,23,0,30.26,M,35,CLR,M,M,M,M,M,M,20.73
0CO,5/19/24,3:55:00 PM,35.6,21.2,55.41,280,23,0,30.26,M,38,BKN,M,M,M,5000,M,M,23.15
0CO,5/19/24,4:55:00 PM,37.4,21.2,51.61,280,31,0,30.26,M,43,SCT,BKN,M,M,4400,6000,M,23.94
0CO,5/19/24,5:55:00 PM,37.4,21.2,51.61,280,19,0,30.27,M,40,SCT,SCT,SCT,M,4500,6000,7000,26.58
0CO,5/19/24,6:55:00 PM,37.4,23,55.68,250,13,0,30.28,M,31,SCT,BKN,OVC,M,3900,6000,7500,28.49
0CO,5/19/24,7:55:00 PM,32,28.4,86.39,290,11,0,30.28,M,31,M,M,M,M,M,M,M,22.47
0CO,5/19/24,8:55:00 PM,33.8,28.4,80.36,280,19,0,30.27,M,26,SCT,BKN,OVC,M,800,3400,6000,21.82
0CO,5/19/24,9:55:00 PM,37.4,26.6,64.7,270,15,0,30.26,M,22,SCT,SCT,BKN,M,3600,5500,7500,27.78
0CO,5/19/24,10:55:00 PM,37.4,24.8,60.04,270,22,0,30.26,M,29,CLR,M,M,M,M,M,M,25.81
0CO,5/19/24,11:55:00 PM,33.8,32,93.03,310,12,0,30.27,M,21,M,M,M,M,M,M,M,24.29
0CO,5/19/24,12:55:00 AM,32,30.2,92.97,300,12,0,30.28,M,21,M,M,M,M,M,M,M,22
0CO,5/20/24,1:55:00 AM,30.2,30.2,100,340,8,0,30.28,M,24,OVC,M,M,M,100,M,M,21.9
0CO,5/20/24,2:55:00 AM,32,26.6,80.22,270,18,0,30.29,M,22,CLR,M,M,M,M,M,M,19.75
0CO,5/20/24,3:55:00 AM,33.8,21.2,59.53,210,5,0,30.31,M,16,CLR,M,M,M,M,M,M,28.53
0CO,5/20/24,4:55:00 AM,33.8,21.2,59.53,220,8,0,30.3,M,M,CLR,M,M,M,M,M,M,26.33
0CO,5/20/24,5:55:00 AM,33.8,17.6,51.04,200,4,0,30.29,M,20,CLR,M,M,M,M,M,M,29.52
0CO,5/20/24,6:55:00 AM,33.8,17.6,51.04,190,12,0,30.29,M,23,CLR,M,M,M,M,M,M,24.29
0CO,5/20/24,7:55:00 AM,32,17.6,54.87,200,15,0,30.28,M,22,CLR,M,M,M,M,M,M,20.78
0CO,5/20/24,8:55:00 AM,32,14,46.92,170,15,0,30.26,M,19,CLR,M,M,M,M,M,M,20.78
0CO,5/20/24,9:55:00 AM,30.2,24.8,80.07,150,16,0,30.24,M,24,SCT,OVC,M,M,6500,7500,M,18.07
0CO,5/20/24,10:55:00 AM,30.2,26.6,86.28,150,21,0,30.23,M,30,M,M,M,M,M,M,M,16.45
0CO,5/20/24,11:55:00 AM,30.2,23,74.26,160,16,0,30.22,M,23,BKN,M,M,M,7000,M,M,18.07
0CO,5/20/24,12:55:00 PM,30.2,21.2,68.83,160,19,0,30.24,M,24,CLR,M,M,M,M,M,M,17.06
0CO,5/20/24,1:55:00 PM,32,21.2,63.99,180,17,0,30.24,M,24,CLR,M,M,M,M,M,M,20.08
0CO,5/20/24,2:55:00 PM,33.8,19.4,55.14,200,13,0,30.24,M,20,CLR,M,M,M,M,M,M,23.87
0CO,5/20/24,3:55:00 PM,35.6,17.6,47.51,200,11,0,30.22,M,26,CLR,M,M,M,M,M,M,27.02
0CO,5/20/24,4:55:00 PM,37.4,15.8,40.93,210,6,0,30.21,M,32,SCT,SCT,M,M,5500,6500,M,32.03
0CO,5/20/24,5:55:00 PM,39.2,12.2,32.58,210,12,0,30.2,M,35,CLR,M,M,M,M,M,M,31.17
0CO,5/20/24,6:55:00 PM,41,12.2,30.38,190,16,0,30.2,M,26,SCT,M,M,M,8000,M,M,32.15
0CO,5/20/24,7:55:00 PM,39.2,10.4,30.07,230,15,0,30.17,M,31,SCT,BKN,M,M,10000,12000,M,30.11
0CO,5/20/24,8:55:00 PM,41,14,32.88,210,13,0,30.15,M,35,OVC,M,M,M,9000,M,M,33.1
0CO,5/20/24,9:55:00 PM,35.6,28.4,74.8,190,12,0,30.14,M,21,SCT,SCT,OVC,M,5500,7000,8500,26.58
0CO,5/20/24,10:55:00 PM,39.2,21.2,48.1,210,5,0,30.12,M,17,SCT,BKN,OVC,M,6000,7000,9000,34.95
0CO,5/20/24,11:55:00 PM,37.4,23,55.68,200,7,0,30.12,M,M,SCT,BKN,M,M,7000,9000,M,31.36
0CO,5/20/24,12:55:00 AM,33.8,28.4,80.36,180,9,0,30.13,M,18,SCT,BKN,BKN,M,7000,8500,11000,25.75
0CO,5/21/24,1:55:00 AM,35.6,19.4,51.33,250,19,0,30.12,M,24,OVC,M,M,M,8500,M,M,24.2
0CO,5/21/24,2:55:00 AM,33.8,17.6,51.04,220,5,0,30.13,M,17,SCT,SCT,OVC,M,5000,6500,8000,28.53
0CO,5/21/24,3:55:00 AM,32,19.4,59.27,250,18,0,30.11,M,23,BKN,OVC,M,M,7000,8500,M,19.75
0CO,5/21/24,4:55:00 AM,30.2,17.6,59.01,260,16,0,30.09,M,22,SCT,SCT,OVC,M,3200,4100,6000,18.07
0CO,5/21/24,5:55:00 AM,28.4,19.4,68.61,230,9,0,30.07,M,M,BKN,OVC,M,M,4700,5000,M,19.04
0CO,5/21/24,6:55:00 AM,28.4,21.2,74.08,300,13,0,30.03,M,22,SCT,OVC,M,M,7000,9000,M,16.96
0CO,5/21/24,7:55:00 AM,24.8,23,92.74,320,17,0,30.01,M,24,M,M,M,M,M,M,M,10.64
0CO,5/21/24,8:55:00 AM,24.8,23,92.74,310,16,0,29.99,M,28,OVC,M,M,M,100,M,M,11.03
0CO,5/21/24,9:55:00 AM,21.2,19.4,92.63,320,24,0.01,29.97,M,40,OVC,M,M,M,100,M,M,3.49
0CO,5/21/24,10:55:00 AM,21.2,19.4,92.63,300,30,0,29.97,M,37,OVC,M,M,M,100,M,M,1.84
0CO,5/21/24,11:55:00 AM,19.4,17.6,92.57,320,27,0,29.96,M,37,OVC,M,M,M,200,M,M,0.17
0CO,5/21/24,12:55:00 PM,19.4,19.4,100,340,25,0,29.98,M,42,OVC,M,M,M,200,M,M,0.75
0CO,5/21/24,1:55:00 PM,19.4,19.4,100,320,24,0,29.98,M,35,OVC,M,M,M,200,M,M,1.06
0CO,5/21/24,2:55:00 PM,19.4,17.6,92.57,290,28,0,30,M,40,BKN,BKN,M,M,700,1500,M,-0.11
0CO,5/21/24,3:55:00 PM,21.2,19.4,92.63,310,28,0,30.01,M,34,M,M,M,M,M,M,M,2.35
0CO,5/21/24,4:55:00 PM,24.8,19.4,79.62,290,11,0,30.05,M,35,SCT,SCT,BKN,M,200,900,1900,13.37
0CO,5/21/24,5:55:00 PM,23,23,100,330,9,0,30.07,M,18,OVC,M,M,M,200,M,M,12.32
0CO,5/21/24,6:55:00 PM,23,21.2,92.69,310,7,0.01,30.07,M,19,BKN,OVC,M,M,200,600,M,13.81
0CO,5/21/24,7:55:00 PM,23,21.2,92.69,260,26,0,30.07,M,33,BKN,BKN,OVC,M,200,600,1200,5.35
0CO,5/21/24,8:55:00 PM,23,19.4,85.85,280,28,0.02,30.06,M,36,SCT,OVC,M,M,800,1300,M,4.82
0CO,5/21/24,9:55:00 PM,21.2,19.4,92.63,310,15,0,30.08,M,23,M,M,M,M,M,M,M,6.78
0CO,5/21/24,10:55:00 PM,21.2,14,73.32,270,20,0,30.09,M,35,SCT,BKN,OVC,M,600,1800,3800,4.79
0CO,5/21/24,11:55:00 PM,17.6,15.8,92.5,320,26,0,30.09,M,32,BKN,BKN,OVC,M,100,800,2100,-1.99
0CO,5/21/24,12:55:00 AM,17.6,15.8,92.5,320,21,0,30.11,M,30,BKN,OVC,M,M,200,600,M,-0.35
0CO,5/22/24,1:55:00 AM,14,12.2,92.38,310,24,0,30.14,M,35,M,M,M,M,M,M,M,-6.22
0CO,5/22/24,2:55:00 AM,14,12.2,92.38,310,21,0,30.17,M,32,M,M,M,M,M,M,M,-5.15
0CO,5/22/24,3:55:00 AM,14,12.2,92.38,310,23,0,30.17,M,40,OVC,M,M,M,200,M,M,-5.88
0CO,5/22/24,4:55:00 AM,14,12.2,92.38,M,M,0,30.18,M,M,M,M,M,M,M,M,M,M
0CO,5/22/24,5:55:00 AM,14,12.2,92.38,310,22,0,30.19,M,34,M,M,M,M,M,M,M,-5.52
0CO,5/22/24,6:55:00 AM,12.2,10.4,92.32,290,30,0,30.17,M,38,M,M,M,M,M,M,M,-10.54
0CO,5/22/24,7:55:00 AM,12.2,8.6,85.17,310,30,0,30.17,M,37,M,M,M,M,M,M,M,-10.54
0CO,5/22/24,8:55:00 AM,14,8.6,78.68,310,31,0,30.14,M,39,CLR,M,M,M,M,M,M,-8.34
0CO,5/22/24,9:55:00 AM,14,8.6,78.68,320,30,0,30.15,M,37,CLR,M,M,M,M,M,M,-8.07
0CO,5/22/24,10:55:00 AM,14,6.8,72.53,310,22,0,30.16,M,30,CLR,M,M,M,M,M,M,-5.52
0CO,5/22/24,11:55:00 AM,15.8,5,61.77,310,22,0,30.15,M,32,CLR,M,M,M,M,M,M,-3.11
0CO,5/22/24,12:55:00 PM,17.6,3.2,52.6,320,23,0,30.17,M,30,CLR,M,M,M,M,M,M,-1.04
0CO,5/22/24,1:55:00 PM,19.4,1.4,44.79,320,16,0,30.17,M,26,CLR,M,M,M,M,M,M,4
0CO,5/22/24,2:55:00 PM,21.2,3.2,45.1,310,4,0,30.19,M,18,CLR,M,M,M,M,M,M,14.81
0CO,5/22/24,3:55:00 PM,26.6,1.4,33.09,250,10,0,30.19,M,M,CLR,M,M,M,M,M,M,16.2
0CO,5/22/24,4:55:00 PM,28.4,-2.2,25.95,240,10,0,30.19,M,25,CLR,M,M,M,M,M,M,18.45
0CO,5/22/24,5:55:00 PM,30.2,-0.4,26.25,250,21,0,30.18,M,30,CLR,M,M,M,M,M,M,16.45
0CO,5/22/24,6:55:00 PM,32,1.4,26.55,250,18,0,30.18,M,29,CLR,M,M,M,M,M,M,19.75
0CO,5/22/24,7:55:00 PM,32,5,31.35,250,24,0,30.17,M,31,CLR,M,M,M,M,M,M,18.06
0CO,5/22/24,8:55:00 PM,32,5,31.35,280,15,0,30.18,M,27,CLR,M,M,M,M,M,M,20.78
0CO,5/22/24,9:55:00 PM,32,10.4,40.01,260,14,0,30.16,M,32,CLR,M,M,M,M,M,M,21.16
0CO,5/22/24,10:55:00 PM,32,10.4,40.01,250,21,0,30.14,M,30,SCT,SCT,SCT,M,6000,7500,9500,18.85
0CO,5/22/24,11:55:00 PM,32,12.2,43.34,260,28,0,30.14,M,38,SCT,M,M,M,6000,M,M,17.12
0CO,5/22/24,12:55:00 AM,32,12.2,43.34,250,23,0,30.15,M,36,BKN,BKN,M,M,6000,7000,M,18.31
0CO,5/23/24,1:55:00 AM,32,14,46.92,250,19,0,30.17,M,29,M,M,M,M,M,M,M,19.44
0CO,5/23/24,2:55:00 AM,32,12.2,43.34,280,18,0,30.17,M,26,BKN,M,M,M,6000,M,M,19.75
0CO,5/23/24,3:55:00 AM,30.2,14,50.47,290,9,0,30.18,M,23,CLR,M,M,M,M,M,M,21.28
0CO,5/23/24,4:55:00 AM,30.2,12.2,46.62,270,11,0,30.17,M,22,CLR,M,M,M,M,M,M,20.19
0CO,5/23/24,5:55:00 AM,30.2,12.2,46.62,250,15,0,30.15,M,31,CLR,M,M,M,M,M,M,18.45
0CO,5/23/24,6:55:00 AM,30.2,10.4,43.04,260,23,0,30.12,M,37,CLR,M,M,M,M,M,M,15.89
0CO,5/23/24,7:55:00 AM,30.2,10.4,43.04,260,28,0,30.08,M,39,CLR,M,M,M,M,M,M,14.66
0CO,5/23/24,8:55:00 AM,32,10.4,40.01,260,38,0,30.03,M,50,CLR,M,M,M,M,M,M,15.19
0CO,5/23/24,9:55:00 AM,32,8.6,36.91,270,33,0,30.03,M,49,CLR,M,M,M,M,M,M,16.1
0CO,5/23/24,10:55:00 AM,32,8.6,36.91,270,43,0,29.99,M,52,CLR,M,M,M,M,M,M,14.39
0CO,5/23/24,11:55:00 AM,30.2,8.6,39.7,270,44,0,29.98,M,55,CLR,M,M,M,M,M,M,11.67
0CO,5/23/24,12:55:00 PM,30.2,6.8,36.6,270,41,0,29.99,M,54,CLR,M,M,M,M,M,M,12.15
0CO,5/23/24,1:55:00 PM,32,10.4,40.01,280,27,0,30.03,M,44,CLR,M,M,M,M,M,M,17.34
0CO,5/23/24,2:55:00 PM,32,12.2,43.34,270,24,0,30.03,M,42,CLR,M,M,M,M,M,M,18.06
0CO,5/23/24,3:55:00 PM,32,12.2,43.34,250,23,0,30.04,M,44,CLR,M,M,M,M,M,M,18.31
0CO,5/23/24,4:55:00 PM,35.6,12.2,37.53,260,14,0,30.06,M,36,CLR,M,M,M,M,M,M,25.8
0CO,5/23/24,5:55:00 PM,35.6,12.2,37.53,260,17,0,30.06,M,30,SCT,SCT,M,M,7000,8000,M,24.79
0CO,5/23/24,6:55:00 PM,37.4,12.2,34.96,260,25,0,30.05,M,38,CLR,M,M,M,M,M,M,25.12
0CO,5/23/24,7:55:00 PM,37.4,12.2,34.96,260,19,0,30.05,M,36,CLR,M,M,M,M,M,M,26.58
0CO,5/23/24,8:55:00 PM,37.4,15.8,40.93,250,26,0,30.04,M,44,SCT,BKN,OVC,M,3600,5500,7500,24.91
0CO,5/23/24,9:55:00 PM,35.6,19.4,51.33,280,17,0,30.06,M,29,SCT,BKN,OVC,M,3800,8500,10000,24.79
0CO,5/23/24,10:55:00 PM,32,23,69.04,280,20,0,30.07,M,30,SCT,BKN,OVC,M,2100,3500,5000,19.14
0CO,5/23/24,11:55:00 PM,28.4,26.6,92.86,240,21,0,30.07,M,28,M,M,M,M,M,M,M,14.05
0CO,5/23/24,12:55:00 AM,28.4,24.8,86.18,260,25,0,30.06,M,32,M,M,M,M,M,M,M,12.94
0CO,5/24/24,1:55:00 AM,23,23,100,310,19,0,30.07,M,25,OVC,M,M,M,200,M,M,7.54
0CO,5/24/24,2:55:00 AM,23,21.2,92.69,310,24,0,30.09,M,29,BKN,BKN,OVC,M,200,1100,3100,5.92
0CO,5/24/24,3:55:00 AM,19.4,17.6,92.57,280,29,0,30.08,M,39,M,M,M,M,M,M,M,-0.38
0CO,5/24/24,4:55:00 AM,15.8,14,92.44,330,30,0,30.08,M,41,M,M,M,M,M,M,M,-5.59
0CO,5/24/24,5:55:00 AM,14,12.2,92.38,330,30,0,30.09,M,36,OVC,M,M,M,100,M,M,-8.07
0CO,5/24/24,6:55:00 AM,14,10.4,85.28,330,25,0,30.08,M,36,M,M,M,M,M,M,M,-6.56
0CO,5/24/24,7:55:00 AM,12.2,10.4,92.32,330,28,0,30.07,M,34,BKN,BKN,M,M,100,7500,M,-9.95
0CO,5/24/24,8:55:00 AM,12.2,10.4,92.32,330,27,0,30.06,M,35,M,M,M,M,M,M,M,-9.64
0CO,5/24/24,9:55:00 AM,14,10.4,85.28,M,M,0,30.06,M,M,M,M,M,M,M,M,M,M
0CO,5/24/24,10:55:00 AM,12.2,10.4,92.32,M,M,0,30.06,M,M,M,M,M,M,M,M,M,M
0CO,5/24/24,11:55:00 AM,14,8.6,78.68,320,21,0,30.07,M,26,CLR,M,M,M,M,M,M,-5.15
0CO,5/24/24,12:55:00 PM,17.6,5,57.14,310,24,0,30.08,M,31,CLR,M,M,M,M,M,M,-1.37
0CO,5/24/24,1:55:00 PM,19.4,5,52.89,300,26,0,30.1,M,33,CLR,M,M,M,M,M,M,0.46
0CO,5/24/24,2:55:00 PM,23,5,45.41,300,21,0,30.12,M,32,CLR,M,M,M,M,M,M,6.85
0CO,5/24/24,3:55:00 PM,26.6,6.8,42.42,280,17,0,30.14,M,32,CLR,M,M,M,M,M,M,13
0CO,5/24/24,4:55:00 PM,28.4,5,36.29,280,21,0,30.15,M,41,CLR,M,M,M,M,M,M,14.05
0CO,5/24/24,5:55:00 PM,30.2,8.6,39.7,290,14,0,30.18,M,32,CLR,M,M,M,M,M,M,18.84
0CO,5/24/24,6:55:00 PM,32,5,31.35,290,24,0,30.17,M,44,CLR,M,M,M,M,M,M,18.06
0CO,5/24/24,7:55:00 PM,32,8.6,36.91,280,22,0,30.19,M,48,CLR,M,M,M,M,M,M,18.58
0CO,5/24/24,8:55:00 PM,32,12.2,43.34,280,28,0,30.18,M,35,SCT,M,M,M,5000,M,M,17.12
0CO,5/24/24,9:55:00 PM,32,12.2,43.34,280,27,0,30.19,M,41,SCT,OVC,M,M,6500,7500,M,17.34
0CO,5/24/24,10:55:00 PM,32,15.8,50.75,260,27,0,30.19,M,33,SCT,SCT,OVC,M,3300,4000,5000,17.34
0CO,5/24/24,11:55:00 PM,30.2,17.6,59.01,270,22,0,30.19,M,31,CLR,M,M,M,M,M,M,16.17
0CO,5/24/24,12:55:00 AM,28.4,19.4,68.61,270,28,0,30.16,M,41,M,M,M,M,M,M,M,12.2
0CO,5/25/24,1:55:00 AM,30.2,19.4,63.75,260,27,0,30.17,M,42,OVC,M,M,M,9000,M,M,14.89
0CO,5/25/24,2:55:00 AM,30.2,17.6,59.01,270,28,0,30.17,M,43,SCT,BKN,OVC,M,7000,9000,10000,14.66
0CO,5/25/24,3:55:00 AM,30.2,19.4,63.75,240,12,0,30.21,M,21,SCT,BKN,OVC,M,8000,9000,12000,19.71
0CO,5/25/24,4:55:00 AM,30.2,17.6,59.01,230,15,0,30.19,M,23,SCT,SCT,SCT,M,5000,6000,7000,18.45
0CO,5/25/24,5:55:00 AM,32,17.6,54.87,200,4,0,30.17,M,15,BKN,BKN,OVC,M,6000,7500,10000,27.42
0CO,5/25/24,6:55:00 AM,32,17.6,54.87,200,7,0,30.14,M,M,SCT,SCT,M,M,7000,12000,M,24.78
0CO,5/25/24,7:55:00 AM,32,17.6,54.87,230,10,0,30.11,M,24,SCT,M,M,M,5500,M,M,22.97
0CO,5/25/24,8:55:00 AM,32,17.6,54.87,250,20,0,30.09,M,34,SCT,SCT,M,M,5500,12000,M,19.14
0CO,5/25/24,9:55:00 AM,30.2,19.4,63.75,250,28,0,30.07,M,38,CLR,M,M,M,M,M,M,14.66
0CO,5/25/24,10:55:00 AM,30.2,17.6,59.01,250,22,0,30.07,M,33,CLR,M,M,M,M,M,M,16.17
0CO,5/25/24,11:55:00 AM,30.2,17.6,59.01,250,18,0,30.08,M,31,CLR,M,M,M,M,M,M,17.38
0CO,5/25/24,12:55:00 PM,32,15.8,50.75,260,23,0,30.07,M,29,CLR,M,M,M,M,M,M,18.31
0CO,5/25/24,1:55:00 PM,32,15.8,50.75,250,17,0,30.07,M,33,CLR,M,M,M,M,M,M,20.08
0CO,5/25/24,2:55:00 PM,32,15.8,50.75,250,17,0,30.07,M,35,SCT,M,M,M,5000,M,M,20.08
0CO,5/25/24,3:55:00 PM,33.8,15.8,47.22,260,23,0,30.06,M,36,SCT,M,M,M,5500,M,M,20.73
0CO,5/25/24,4:55:00 PM,33.8,15.8,47.22,260,23,0,30.05,M,38,SCT,BKN,BKN,M,4900,6000,7500,20.73
0CO,5/25/24,5:55:00 PM,33.8,14,43.65,250,27,0,30.05,M,33,SCT,BKN,OVC,M,4300,5000,6500,19.8
0CO,5/25/24,6:55:00 PM,32,17.6,54.87,250,18,0,30.05,M,39,SCT,BKN,OVC,M,2200,4500,5000,19.75
0CO,5/25/24,7:55:00 PM,35.6,17.6,47.51,260,20,0,30.04,M,37,SCT,SCT,BKN,M,2900,4900,10000,23.92
0CO,5/25/24,8:55:00 PM,28.4,26.6,92.86,260,17,0,30.06,M,32,M,M,M,M,M,M,M,15.36
0CO,5/25/24,9:55:00 PM,32,19.4,59.27,270,26,0,30.03,M,32,SCT,SCT,M,M,9000,12000,M,17.58
0CO,5/25/24,10:55:00 PM,32,21.2,63.99,280,26,0,30.03,M,35,SCT,BKN,OVC,M,1300,3100,3600,17.58
0CO,5/25/24,11:55:00 PM,32,19.4,59.27,280,20,0,30.04,M,34,SCT,M,M,M,3700,M,M,19.14
0CO,5/25/24,12:55:00 AM,30.2,21.2,68.83,M,M,0,30.06,M,M,SCT,SCT,BKN,M,1500,2900,3900,M
0CO,5/26/24,1:55:00 AM,26.6,24.8,92.8,330,21,0,30.05,M,29,BKN,OVC,M,M,100,500,M,11.65
0CO,5/26/24,2:55:00 AM,26.6,24.8,92.8,310,9,0,30.08,M,M,OVC,M,M,M,100,M,M,16.8
0CO,5/26/24,3:55:00 AM,26.6,24.8,92.8,290,23,0,30.07,M,29,BKN,BKN,OVC,M,300,900,1500,11.06
0CO,5/26/24,4:55:00 AM,24.8,23,92.74,330,18,0,30.08,M,27,M,M,M,M,M,M,M,10.27
0CO,5/26/24,5:55:00 AM,23,21.2,92.69,300,26,0,30.03,M,33,BKN,BKN,OVC,M,300,600,1100,5.35
0CO,5/26/24,6:55:00 AM,23,21.2,92.69,320,23,0,30.03,M,31,M,M,M,M,M,M,M,6.22
0CO,5/26/24,7:55:00 AM,23,21.2,92.69,300,31,0,30.02,M,45,BKN,BKN,OVC,M,300,1100,1900,4.07
0CO,5/26/24,8:55:00 AM,21.2,21.2,100,300,35,0,30.04,M,40,OVC,M,M,M,200,M,M,0.66
0CO,5/26/24,9:55:00 AM,21.2,21.2,100,300,32,0,30.05,M,41,BKN,OVC,M,M,200,500,M,1.35
0CO,5/26/24,10:55:00 AM,21.2,21.2,100,320,31,0,30.06,M,40,OVC,M,M,M,200,M,M,1.59
0CO,5/26/24,11:55:00 AM,21.2,19.4,92.63,M,M,0,30.05,M,M,OVC,M,M,M,200,M,M,M
0CO,5/26/24,12:55:00 PM,19.4,19.4,100,M,M,0,30.06,M,M,BKN,OVC,M,M,200,700,M,M
0CO,5/26/24,1:55:00 PM,19.4,17.6,92.57,310,39,0,30.07,M,M,BKN,OVC,M,M,200,700,M,-2.71
0CO,5/26/24,2:55:00 PM,19.4,17.6,92.57,310,38,0,30.09,M,55,BKN,BKN,M,M,600,1300,M,-2.5
0CO,5/26/24,3:55:00 PM,21.2,19.4,92.63,310,40,0,30.09,M,48,M,M,M,M,M,M,M,-0.38
0CO,5/26/24,4:55:00 PM,23,19.4,85.85,320,36,0.01,30.13,M,47,BKN,OVC,M,M,1400,2000,M,2.96
0CO,5/26/24,5:55:00 PM,26.6,19.4,73.89,310,30,0,30.17,M,45,BKN,BKN,M,M,1400,2000,M,9.27
0CO,5/26/24,6:55:00 PM,26.6,21.2,79.77,310,28,0,30.2,M,44,OVC,M,M,M,1600,M,M,9.74
0CO,5/26/24,7:55:00 PM,28.4,23,79.92,290,35,0,30.21,M,49,OVC,M,M,M,1400,M,M,10.7
0CO,5/26/24,8:55:00 PM,30.2,21.2,68.83,290,34,0,30.24,M,45,BKN,BKN,M,M,1900,2700,M,13.4
0CO,5/26/24,9:55:00 PM,30.2,21.2,68.83,290,30,0,30.25,M,41,SCT,SCT,M,M,2000,2900,M,14.22
0CO,5/26/24,10:55:00 PM,32,21.2,63.99,310,29,0,30.27,M,47,SCT,BKN,BKN,M,2000,2900,3800,16.9
0CO,5/26/24,11:55:00 PM,32,21.2,63.99,310,29,0,30.27,M,42,SCT,SCT,SCT,M,2400,3000,3500,16.9
0CO,5/26/24,12:55:00 AM,30.2,23,74.26,310,31,0,30.29,M,40,SCT,BKN,BKN,M,2200,2900,3400,14.01
0CO,5/27/24,1:55:00 AM,30.2,23,74.26,310,22,0,30.32,M,36,SCT,SCT,M,M,2100,3200,M,16.17
0CO,5/27/24,2:55:00 AM,28.4,23,79.92,300,24,0,30.34,M,35,BKN,OVC,M,M,1700,2200,M,13.2
0CO,5/27/24,3:55:00 AM,28.4,23,79.92,320,26,0,30.36,M,37,BKN,BKN,M,M,1700,2400,M,12.68
0CO,5/27/24,4:55:00 AM,28.4,21.2,74.08,320,21,0,30.38,M,37,SCT,SCT,M,M,1900,2700,M,14.05
0CO,5/27/24,5:55:00 AM,28.4,21.2,74.08,300,20,0,30.38,M,30,BKN,BKN,OVC,M,2000,2700,3800,14.36
0CO,5/27/24,6:55:00 AM,28.4,21.2,74.08,310,18,0,30.38,M,27,SCT,BKN,M,M,2000,3900,M,15.01
0CO,5/27/24,7:55:00 AM,28.4,21.2,74.08,300,15,0,30.39,M,33,CLR,M,M,M,M,M,M,16.11
0CO,5/27/24,8:55:00 AM,28.4,21.2,74.08,310,16,0,30.39,M,23,BKN,OVC,M,M,2100,2800,M,15.73
0CO,5/27/24,9:55:00 AM,26.6,21.2,79.77,320,17,0,30.39,M,22,BKN,BKN,M,M,1800,2400,M,13
0CO,5/27/24,11:55:00 AM,26.6,23,86.07,270,14,0,30.43,M,27,BKN,OVC,M,M,1500,2100,M,14.2
0CO,5/27/24,1:55:00 PM,28.4,23,79.92,280,12,0,30.46,M,17,OVC,M,M,M,1900,M,M,17.42
0CO,5/27/24,2:55:00 PM,30.2,23,74.26,270,14,0,30.49,M,20,BKN,M,M,M,1900,M,M,18.84
0CO,5/27/24,3:55:00 PM,32,21.2,63.99,300,10,0,30.51,M,26,CLR,M,M,M,M,M,M,22.97
0CO,5/27/24,4:55:00 PM,33.8,17.6,51.04,270,14,0,30.52,M,26,CLR,M,M,M,M,M,M,23.48
0CO,5/27/24,5:55:00 PM,35.6,15.8,43.95,270,19,0,30.53,M,27,CLR,M,M,M,M,M,M,24.2
0CO,5/27/24,6:55:00 PM,37.4,17.6,44.25,270,16,0,30.54,M,27,CLR,M,M,M,M,M,M,27.46
0CO,5/27/24,7:55:00 PM,37.4,19.4,47.8,270,19,0,30.53,M,29,CLR,M,M,M,M,M,M,26.58
0CO,5/27/24,8:55:00 PM,41,19.4,41.54,280,20,0,30.54,M,27,SCT,BKN,M,M,5500,6500,M,31.09
0CO,5/27/24,9:55:00 PM,41,19.4,41.54,290,24,0,30.54,M,27,SCT,SCT,M,M,5500,6500,M,30.2
0CO,5/27/24,10:55:00 PM,41,19.4,41.54,290,25,0,30.55,M,29,SCT,OVC,M,M,6500,7500,M,30
0CO,5/27/24,11:55:00 PM,42.8,19.4,38.75,280,14,0,30.56,M,19,SCT,BKN,M,M,5500,7500,M,35.08
0CO,5/27/24,12:55:00 AM,37.4,19.4,47.8,270,15,0,30.57,M,23,BKN,OVC,M,M,7000,9000,M,27.78
0CO,5/27/24,1:55:00 AM,37.4,21.2,51.61,310,12,0,30.59,M,16,BKN,BKN,BKN,M,5500,6500,8000,28.87
0CO,5/27/24,2:55:00 AM,33.8,19.4,55.14,330,10,0,30.6,M,16,CLR,M,M,M,M,M,M,25.23
0CO,5/28/24,3:55:00 AM,33.8,19.4,55.14,280,7,0,30.63,M,M,CLR,M,M,M,M,M,M,26.97
0CO,5/28/24,4:55:00 AM,33.8,19.4,55.14,330,4,0,30.63,M,M,CLR,M,M,M,M,M,M,29.52
0CO,5/28/24,5:55:00 AM,33.8,19.4,55.14,290,5,0,30.63,M,M,CLR,M,M,M,M,M,M,28.53
0CO,5/28/24,6:55:00 AM,33.8,17.6,51.04,260,9,0,30.62,M,M,CLR,M,M,M,M,M,M,25.75
0CO,5/28/24,7:55:00 AM,33.8,17.6,51.04,270,5,0,30.61,M,M,CLR,M,M,M,M,M,M,28.53
0CO,5/28/24,8:55:00 AM,33.8,17.6,51.04,270,7,0,30.6,M,M,CLR,M,M,M,M,M,M,26.97
0CO,5/28/24,9:55:00 AM,33.8,17.6,51.04,250,7,0,30.58,M,M,CLR,M,M,M,M,M,M,26.97
0CO,5/28/24,10:55:00 AM,33.8,19.4,55.14,260,5,0,30.58,M,M,CLR,M,M,M,M,M,M,28.53
0CO,5/28/24,11:55:00 AM,32,17.6,54.87,270,15,0,30.58,M,22,CLR,M,M,M,M,M,M,20.78
0CO,5/28/24,12:55:00 PM,33.8,17.6,51.04,280,12,0,30.58,M,M,CLR,M,M,M,M,M,M,24.29
0CO,5/28/24,1:55:00 PM,35.6,17.6,47.51,280,10,0,30.6,M,15,CLR,M,M,M,M,M,M,27.48
0CO,5/28/24,2:55:00 PM,37.4,17.6,44.25,260,9,0,30.61,M,17,CLR,M,M,M,M,M,M,30.23
0CO,5/28/24,3:55:00 PM,39.2,19.4,44.55,280,8,0,30.62,M,15,CLR,M,M,M,M,M,M,32.98
0CO,5/28/24,4:55:00 PM,41,17.6,38.45,230,3,0,30.63,M,16,CLR,M,M,M,M,M,M,38.98
0CO,5/28/24,5:55:00 PM,42.8,17.6,35.87,210,6,0,30.63,M,17,SCT,M,M,M,5500,M,M,38.54
0CO,5/28/24,6:55:00 PM,42.8,15.8,33.18,250,5,0,30.62,M,17,SCT,SCT,M,M,6000,7000,M,39.22
0CO,5/28/24,7:55:00 PM,41,24.8,52.17,220,6,0,30.6,M,M,SCT,BKN,OVC,M,5500,7000,8000,36.37
0CO,5/28/24,8:55:00 PM,39.2,23,51.89,360,4,0,30.6,M,M,SCT,SCT,M,M,7500,9000,M,35.83
0CO,5/28/24,9:55:00 PM,37.4,23,55.68,170,16,0,30.6,M,26,BKN,BKN,M,M,5500,7500,M,27.46
0CO,5/28/24,10:55:00 PM,37.4,24.8,60.04,260,5,0,30.6,M,16,SCT,SCT,BKN,M,3500,4600,7000,32.81
0CO,5/28/24,11:55:00 PM,39.2,23,51.89,280,3,0,30.58,M,M,CLR,M,M,M,M,M,M,36.92
0CO,5/28/24,12:55:00 AM,39.2,23,51.89,260,9,0,30.56,M,M,CLR,M,M,M,M,M,M,32.47
0CO,5/28/24,1:55:00 AM,39.2,23,51.89,270,6,0,30.55,M,17,CLR,M,M,M,M,M,M,34.2
0CO,5/28/24,2:55:00 AM,33.8,28.4,80.36,300,5,0,30.57,M,M,SCT,M,M,M,5500,M,M,28.53
0CO,5/29/24,3:55:00 AM,33.8,28.4,80.36,230,7,0,30.57,M,M,CLR,M,M,M,M,M,M,26.97
0CO,5/29/24,4:55:00 AM,33.8,28.4,80.36,160,12,0,30.58,M,M,SCT,M,M,M,8000,M,M,24.29
0CO,5/29/24,5:55:00 AM,33.8,28.4,80.36,170,15,0,30.58,M,M,CLR,M,M,M,M,M,M,23.11
0CO,5/29/24,6:55:00 AM,33.8,26.6,74.63,160,17,0,30.56,M,M,CLR,M,M,M,M,M,M,22.43
0CO,5/29/24,7:55:00 AM,33.8,28.4,80.36,150,15,0,30.55,M,20,OVC,M,M,M,9500,M,M,23.11
0CO,5/29/24,8:55:00 AM,33.8,26.6,74.63,220,6,0,30.54,M,M,CLR,M,M,M,M,M,M,27.7
0CO,5/29/24,9:55:00 AM,33.8,24.8,69.25,220,8,0,30.52,M,18,CLR,M,M,M,M,M,M,26.33
0CO,5/29/24,10:55:00 AM,35.6,19.4,51.33,270,13,0,30.52,M,21,SCT,M,M,M,7500,M,M,26.18
0CO,5/29/24,11:55:00 AM,35.6,21.2,55.41,220,7,0,30.53,M,M,SCT,M,M,M,9000,M,M,29.17
0CO,5/29/24,12:55:00 PM,35.6,21.2,55.41,230,8,0,30.53,M,M,CLR,M,M,M,M,M,M,28.55
0CO,5/29/24,1:55:00 PM,37.4,19.4,47.8,190,6,0,30.53,M,17,CLR,M,M,M,M,M,M,32.03
0CO,5/29/24,2:55:00 PM,41,19.4,41.54,200,7,0,30.52,M,M,CLR,M,M,M,M,M,M,35.75
0CO,5/29/24,3:55:00 PM,42.8,17.6,35.87,220,7,0,30.52,M,19,CLR,M,M,M,M,M,M,37.94
0CO,5/29/24,4:55:00 PM,44.6,15.8,30.98,290,9,0,30.51,M,25,SCT,OVC,M,M,7000,9000,M,39.18
0CO,5/29/24,5:55:00 PM,44.6,17.6,33.49,300,13,0,30.5,M,32,SCT,BKN,OVC,M,1600,4200,7000,37.71
0CO,5/29/24,6:55:00 PM,39.2,19.4,44.55,230,6,0,30.5,M,M,SCT,SCT,BKN,M,4100,5500,11000,34.2
0CO,5/29/24,7:55:00 PM,44.6,21.2,39.06,260,16,0,30.48,M,24,CLR,M,M,M,M,M,M,36.84
0CO,5/29/24,8:55:00 PM,44.6,24.8,45.44,240,14,0,30.48,M,39,SCT,BKN,OVC,M,2500,6000,7000,37.4
0CO,5/29/24,9:55:00 PM,41,23,48.39,270,27,0,30.46,M,47,SCT,SCT,BKN,M,5000,6500,7500,29.61
0CO,5/29/24,10:55:00 PM,44.6,21.2,39.06,300,18,0,30.44,M,23,CLR,M,M,M,M,M,M,36.34
0CO,5/29/24,11:55:00 PM,41,28.4,60.54,330,7,0,30.44,M,M,SCT,SCT,M,M,6500,7500,M,35.75
0CO,5/29/24,12:55:00 AM,32,30.2,92.97,290,9,0,30.44,M,19,M,M,M,M,M,M,M,23.51
0CO,5/29/24,1:55:00 AM,35.6,23,59.79,280,22,0,30.41,M,31,CLR,M,M,M,M,M,M,23.4
0CO,5/29/24,2:55:00 AM,37.4,21.2,51.61,290,20,0,30.39,M,25,CLR,M,M,M,M,M,M,26.31
0CO,5/30/24,3:55:00 AM,37.4,19.4,47.8,270,15,0,30.41,M,26,CLR,M,M,M,M,M,M,27.78
0CO,5/30/24,4:55:00 AM,37.4,17.6,44.25,270,23,0,30.4,M,33,CLR,M,M,M,M,M,M,25.57
0CO,5/30/24,5:55:00 AM,37.4,17.6,44.25,270,19,0,30.41,M,25,CLR,M,M,M,M,M,M,26.58
0CO,5/30/24,6:55:00 AM,35.6,17.6,47.51,330,20,0,30.4,M,33,CLR,M,M,M,M,M,M,23.92
0CO,5/30/24,7:55:00 AM,33.8,21.2,59.53,310,13,0,30.4,M,21,CLR,M,M,M,M,M,M,23.87
0CO,5/30/24,8:55:00 AM,32,23,69.04,320,12,0,30.39,M,18,CLR,M,M,M,M,M,M,22
0CO,5/30/24,9:55:00 AM,32,26.6,80.22,310,12,0,30.4,M,16,CLR,M,M,M,M,M,M,22
0CO,5/30/24,10:55:00 AM,30.2,26.6,86.28,320,13,0,30.41,M,16,M,M,M,M,M,M,M,19.26
0CO,5/30/24,11:55:00 AM,30.2,28.4,92.92,310,9,0,30.41,M,15,M,M,M,M,M,M,M,21.28
0CO,5/30/24,12:55:00 PM,30.2,28.4,92.92,270,14,0,30.43,M,M,M,M,M,M,M,M,M,18.84
0CO,5/30/24,1:55:00 PM,32,28.4,86.39,270,11,0,30.44,M,15,CLR,M,M,M,M,M,M,22.47
0CO,5/30/24,2:55:00 PM,33.8,28.4,80.36,270,7,0,30.44,M,M,CLR,M,M,M,M,M,M,26.97
0CO,5/30/24,3:55:00 PM,37.4,21.2,51.61,250,17,0,30.44,M,20,CLR,M,M,M,M,M,M,27.15
0CO,5/30/24,4:55:00 PM,41,19.4,41.54,250,17,0,30.45,M,21,CLR,M,M,M,M,M,M,31.87
0CO,5/30/24,5:55:00 PM,42.8,17.6,35.87,260,20,0,30.44,M,26,CLR,M,M,M,M,M,M,33.48
0CO,5/30/24,6:55:00 PM,42.8,17.6,35.87,260,13,0,30.46,M,24,CLR,M,M,M,M,M,M,35.4
0CO,5/30/24,7:55:00 PM,44.6,17.6,33.49,270,8,0,30.46,M,25,SCT,M,M,M,6500,M,M,39.63
0CO,5/30/24,8:55:00 PM,46.4,21.2,36.48,280,16,0,30.45,M,22,SCT,M,M,M,6500,M,M,39.19
0CO,5/30/24,9:55:00 PM,44.6,17.6,33.49,260,12,0,30.44,M,24,SCT,SCT,SCT,M,6500,8500,12000,38.04
0CO,5/30/24,10:55:00 PM,37.4,28.4,69.67,240,6,0,30.44,M,M,BKN,OVC,M,M,6000,9000,M,32.03
0CO,5/30/24,11:55:00 PM,42.8,17.6,35.87,M,M,0,30.42,M,M,SCT,M,M,M,6000,M,M,M
0CO,5/30/24,12:55:00 AM,42.8,12.2,28.34,M,M,0,30.42,M,M,CLR,M,M,M,M,M,M,M
0CO,5/30/24,1:55:00 AM,37.4,23,55.68,310,11,0,30.45,M,21,CLR,M,M,M,M,M,M,29.29
0CO,5/30/24,2:55:00 AM,35.6,23,59.79,340,12,0,30.44,M,18,CLR,M,M,M,M,M,M,26.58
0CO,5/31/24,3:55:00 AM,33.8,30.2,86.49,210,5,0,30.47,M,M,BKN,BKN,M,M,4700,6000,M,28.53
0CO,5/31/24,4:55:00 AM,33.8,23,64.23,320,11,0,30.44,M,16,CLR,M,M,M,M,M,M,24.74
0CO,5/31/24,5:55:00 AM,32,23,69.04,310,10,0,30.44,M,20,CLR,M,M,M,M,M,M,22.97
0CO,5/31/24,6:55:00 AM,32,19.4,59.27,320,10,0,30.44,M,M,CLR,M,M,M,M,M,M,22.97
0CO,5/31/24,7:55:00 AM,32,15.8,50.75,280,13,0,30.42,M,M,CLR,M,M,M,M,M,M,21.57
0CO,5/31/24,8:55:00 AM,32,15.8,50.75,300,10,0,30.41,M,M,CLR,M,M,M,M,M,M,22.97
0CO,5/31/24,9:55:00 AM,32,17.6,54.87,280,13,0,30.4,M,17,CLR,M,M,M,M,M,M,21.57
0CO,5/31/24,10:55:00 AM,32,17.6,54.87,270,9,0,30.41,M,M,CLR,M,M,M,M,M,M,23.51
0CO,5/31/24,11:55:00 AM,32,17.6,54.87,210,3,0,30.43,M,M,CLR,M,M,M,M,M,M,28.69
0CO,5/31/24,12:55:00 PM,32,17.6,54.87,250,11,0,30.44,M,M,CLR,M,M,M,M,M,M,22.47
0CO,5/31/24,1:55:00 PM,33.8,15.8,47.22,250,8,0,30.45,M,M,CLR,M,M,M,M,M,M,26.33
0CO,5/31/24,2:55:00 PM,35.6,15.8,43.95,230,9,0,30.44,M,17,CLR,M,M,M,M,M,M,27.99
0CO,5/31/24,3:55:00 PM,37.4,14,37.84,230,11,0,30.44,M,27,CLR,M,M,M,M,M,M,29.29
0CO,5/31/24,4:55:00 PM,39.2,12.2,32.58,260,13,0,30.44,M,27,CLR,M,M,M,M,M,M,30.79
0CO,5/31/24,5:55:00 PM,41,14,32.88,290,23,0,30.44,M,31,SCT,M,M,M,12000,M,M,30.41
0CO,5/31/24,6:55:00 PM,42.8,14,30.68,280,21,0,30.44,M,34,CLR,M,M,M,M,M,M,33.26
0CO,5/31/24,7:55:00 PM,41,15.8,35.57,280,24,0,30.45,M,33,SCT,BKN,M,M,7000,8000,M,30.2
0CO,5/31/24,8:55:00 PM,42.8,19.4,38.75,300,18,0,30.44,M,30,SCT,SCT,BKN,M,3700,4300,5500,33.97
0CO,5/31/24,9:55:00 PM,41,19.4,41.54,300,25,0,30.44,M,40,SCT,BKN,OVC,M,3400,4600,7500,30
0CO,5/31/24,10:55:00 PM,37.4,21.2,51.61,280,27,0,30.44,M,38,SCT,BKN,OVC,M,2200,4200,8000,24.7
0CO,5/31/24,11:55:00 PM,35.6,24.8,64.46,270,15,0,30.47,M,20,SCT,BKN,OVC,M,1300,4500,6500,25.45
0CO,5/31/24,12:55:00 AM,37.4,23,55.68,270,19,0,30.46,M,24,SCT,BKN,OVC,M,6000,7000,8500,26.58
0CO,5/31/24,1:55:00 AM,33.8,26.6,74.63,320,16,0,30.45,M,30,SCT,BKN,OVC,M,1700,3600,6000,22.76
0CO,5/31/24,2:55:00 AM,32,24.8,74.44,290,21,0,30.43,M,M,CLR,M,M,M,M,M,M,18.85
0CO,6/1/24,3:55:00 AM,33.8,23,64.23,310,23,0,30.43,M,M,CLR,M,M,M,M,M,M,20.73
0CO,6/1/24,4:55:00 AM,33.8,21.2,59.53,290,23,0,30.43,M,32,CLR,M,M,M,M,M,M,20.73
0CO,6/1/24,5:55:00 AM,33.8,21.2,59.53,290,22,0,30.43,M,33,CLR,M,M,M,M,M,M,20.99
0CO,6/1/24,6:55:00 AM,33.8,21.2,59.53,290,24,0,30.42,M,31,CLR,M,M,M,M,M,M,20.49
0CO,6/1/24,7:55:00 AM,32,21.2,63.99,280,22,0,30.41,M,27,CLR,M,M,M,M,M,M,18.58
0CO,6/1/24,8:55:00 AM,32,19.4,59.27,280,19,0,30.41,M,26,CLR,M,M,M,M,M,M,19.44
0CO,6/1/24,9:55:00 AM,33.8,19.4,55.14,280,11,0,30.42,M,25,CLR,M,M,M,M,M,M,24.74
0CO,6/1/24,10:55:00 AM,33.8,19.4,55.14,270,14,0,30.42,M,25,CLR,M,M,M,M,M,M,23.48
0CO,6/1/24,11:55:00 AM,33.8,19.4,55.14,290,19,0,30.42,M,25,CLR,M,M,M,M,M,M,21.82
0CO,6/1/24,12:55:00 PM,33.8,17.6,51.04,290,19,0,30.43,M,24,CLR,M,M,M,M,M,M,21.82
0CO,6/1/24,1:55:00 PM,35.6,19.4,51.33,290,21,0,30.44,M,25,CLR,M,M,M,M,M,M,23.65
0CO,6/1/24,2:55:00 PM,37.4,19.4,47.8,280,21,0,30.45,M,35,CLR,M,M,M,M,M,M,26.06
0CO,6/1/24,3:55:00 PM,41,17.6,38.45,280,22,0,30.45,M,29,CLR,M,M,M,M,M,M,30.63
0CO,6/1/24,4:55:00 PM,42.8,19.4,38.75,280,24,0,30.45,M,32,SCT,SCT,M,M,6000,7000,M,32.63
0CO,6/1/24,5:55:00 PM,44.6,19.4,36.18,290,18,0,30.46,M,33,SCT,SCT,SCT,M,6000,7000,9000,36.34
0CO,6/1/24,6:55:00 PM,42.8,17.6,35.87,280,23,0,30.45,M,37,SCT,SCT,BKN,M,4200,5000,6000,32.83
0CO,6/1/24,7:55:00 PM,42.8,21.2,41.84,260,15,0,30.44,M,23,SCT,SCT,BKN,M,4100,5000,6500,34.78
0CO,6/1/24,8:55:00 PM,42.8,23,45.14,300,16,0,30.43,M,19,SCT,SCT,BKN,M,5000,6000,7000,34.5
0CO,6/1/24,9:55:00 PM,42.8,26.6,52.45,340,9,0,30.43,M,18,CLR,M,M,M,M,M,M,36.94
0CO,6/1/24,10:55:00 PM,42.8,26.6,52.45,300,12,0,30.41,M,17,CLR,M,M,M,M,M,M,35.75
0CO,6/1/24,11:55:00 PM,44.6,26.6,48.96,280,11,0,30.4,M,23,CLR,M,M,M,M,M,M,38.39
0CO,6/1/24,12:55:00 AM,42.8,21.2,41.84,240,10,0,30.41,M,24,CLR,M,M,M,M,M,M,36.51
0CO,6/1/24,1:55:00 AM,37.4,26.6,64.7,260,14,0,30.41,M,18,SCT,BKN,OVC,M,3300,6500,8000,28.12
0CO,6/1/24,2:55:00 AM,37.4,23,55.68,260,7,0,30.4,M,16,SCT,BKN,M,M,6500,12000,M,31.36
0CO,6/2/24,3:55:00 AM,39.2,23,51.89,140,9,0,30.41,M,M,SCT,M,M,M,7000,M,M,32.47
0CO,6/2/24,4:55:00 AM,37.4,23,55.68,160,12,0,30.4,M,20,CLR,M,M,M,M,M,M,28.87
0CO,6/2/24,5:55:00 AM,33.8,23,64.23,30,4,0,30.39,M,18,CLR,M,M,M,M,M,M,29.52
0CO,6/2/24,6:55:00 AM,33.8,28.4,80.36,270,8,0,30.38,M,M,CLR,M,M,M,M,M,M,26.33
0CO,6/2/24,7:55:00 AM,35.6,24.8,64.46,260,6,0,30.36,M,M,CLR,M,M,M,M,M,M,29.87
0CO,6/2/24,8:55:00 AM,37.4,21.2,51.61,240,13,0,30.36,M,21,SCT,SCT,M,M,7000,8000,M,28.49
0CO,6/2/24,9:55:00 AM,37.4,19.4,47.8,250,11,0,30.33,M,19,CLR,M,M,M,M,M,M,29.29
0CO,6/2/24,10:55:00 AM,39.2,17.6,41.24,260,15,0,30.32,M,26,CLR,M,M,M,M,M,M,30.11
0CO,6/2/24,11:55:00 AM,39.2,14,35.26,270,20,0,30.31,M,35,CLR,M,M,M,M,M,M,28.7
0CO,6/2/24,12:55:00 PM,39.2,12.2,32.58,270,23,0,30.31,M,36,CLR,M,M,M,M,M,M,27.99
0CO,6/2/24,1:55:00 PM,41,14,32.88,280,26,0,30.32,M,36,CLR,M,M,M,M,M,M,29.8
0CO,6/2/24,2:55:00 PM,41,15.8,35.57,290,23,0,30.34,M,37,CLR,M,M,M,M,M,M,30.41
0CO,6/2/24,3:55:00 PM,42.8,14,30.68,280,23,0,30.34,M,35,CLR,M,M,M,M,M,M,32.83
0CO,6/2/24,4:55:00 PM,44.6,17.6,33.49,280,23,0,30.34,M,32,CLR,M,M,M,M,M,M,35.25
0CO,6/2/24,5:55:00 PM,46.4,14,26.75,270,29,0,30.33,M,39,CLR,M,M,M,M,M,M,36.65
0CO,6/2/24,6:55:00 PM,48.2,14,24.99,260,23,0,30.34,M,30,CLR,M,M,M,M,M,M,40.09
0CO,6/2/24,7:55:00 PM,48.2,14,24.99,250,16,0,30.34,M,28,SCT,M,M,M,9000,M,M,41.53
0CO,6/2/24,8:55:00 PM,46.4,12.2,24.71,280,11,0,30.33,M,27,BKN,M,M,M,9000,M,M,40.66
0CO,6/2/24,9:55:00 PM,46.4,17.6,31.28,290,24,0,30.33,M,30,SCT,BKN,M,M,9500,12000,M,37.49
0CO,6/2/24,10:55:00 PM,44.6,19.4,36.18,280,14,0,30.34,M,24,SCT,M,M,M,8000,M,M,37.4
0CO,6/2/24,11:55:00 PM,42.8,21.2,41.84,280,22,0,30.34,M,31,SCT,M,M,M,11000,M,M,33.04
0CO,6/2/24,12:55:00 AM,41,19.4,41.54,270,22,0,30.32,M,36,SCT,M,M,M,12000,M,M,30.63
0CO,6/2/24,1:55:00 AM,37.4,24.8,60.04,330,11,0,30.34,M,20,CLR,M,M,M,M,M,M,29.29
0CO,6/2/24,2:55:00 AM,35.6,26.6,69.46,300,20,0,30.36,M,33,CLR,M,M,M,M,M,M,23.92
0CO,6/3/24,3:55:00 AM,35.6,26.6,69.46,320,19,0,30.35,M,30,SCT,BKN,OVC,M,2300,4000,5500,24.2
0CO,6/3/24,4:55:00 AM,33.8,26.6,74.63,300,22,0,30.34,M,M,CLR,M,M,M,M,M,M,20.99
0CO,6/3/24,5:55:00 AM,35.6,24.8,64.46,300,21,0,30.36,M,M,CLR,M,M,M,M,M,M,23.65
0CO,6/3/24,6:55:00 AM,35.6,23,59.79,290,22,0,30.36,M,27,CLR,M,M,M,M,M,M,23.4
0CO,6/3/24,7:55:00 AM,35.6,23,59.79,290,19,0,30.36,M,26,BKN,M,M,M,7000,M,M,24.2
0CO,6/3/24,8:55:00 AM,35.6,23,59.79,290,24,0,30.32,M,28,CLR,M,M,M,M,M,M,22.92
0CO,6/3/24,9:55:00 AM,35.6,23,59.79,280,20,0,30.32,M,28,CLR,M,M,M,M,M,M,23.92
0CO,6/3/24,10:55:00 AM,35.6,23,59.79,290,28,0,30.29,M,34,CLR,M,M,M,M,M,M,22.04
0CO,6/3/24,11:55:00 AM,35.6,23,59.79,290,22,0,30.3,M,31,SCT,M,M,M,7000,M,M,23.4
0CO,6/3/24,12:55:00 PM,37.4,23,55.68,290,26,0,30.3,M,33,M,M,M,M,M,M,M,24.91
0CO,6/3/24,1:55:00 PM,39.2,23,51.89,300,22,0,30.3,M,31,CLR,M,M,M,M,M,M,28.22
0CO,6/3/24,2:55:00 PM,41,23,48.39,280,32,0,30.3,M,39,CLR,M,M,M,M,M,M,28.74
0CO,6/3/24,3:55:00 PM,42.8,23,45.14,290,23,0,30.31,M,34,SCT,BKN,BKN,M,4800,6500,7500,32.83
0CO,6/3/24,4:55:00 PM,42.8,23,45.14,290,19,0,30.33,M,32,BKN,OVC,M,M,5000,7000,M,33.72
0CO,6/3/24,5:55:00 PM,44.6,23,42.14,M,M,0,30.31,M,M,BKN,BKN,BKN,M,6000,8000,9500,M
0CO,6/3/24,6:55:00 PM,42.8,23,45.14,290,20,0,30.31,M,35,BKN,OVC,M,M,5000,6000,M,33.48
0CO,6/3/24,7:55:00 PM,42.8,23,45.14,M,M,0,30.29,M,M,OVC,M,M,M,6000,M,M,M
0CO,6/3/24,8:55:00 PM,44.6,24.8,45.44,290,29,0,30.27,M,M,BKN,OVC,M,M,6500,7000,M,34.19
0CO,6/3/24,9:55:00 PM,44.6,26.6,48.96,290,23,0,30.27,M,35,BKN,OVC,M,M,5000,6500,M,35.25
0CO,6/3/24,10:55:00 PM,44.6,26.6,48.96,270,24,0,30.27,M,36,SCT,M,M,M,6500,M,M,35.06
0CO,6/3/24,11:55:00 PM,44.6,26.6,48.96,280,18,0,30.27,M,29,SCT,M,M,M,6500,M,M,36.34
0CO,6/3/24,12:55:00 AM,42.8,26.6,52.45,280,20,0,30.27,M,37,SCT,SCT,OVC,M,4400,5000,6500,33.48
0CO,6/3/24,1:55:00 AM,41,26.6,56.22,270,16,0,30.26,M,33,SCT,SCT,OVC,M,4300,5500,7000,32.15
0CO,6/3/24,2:55:00 AM,35.6,32,86.59,320,12,0,30.27,M,24,SCT,BKN,OVC,M,2800,5500,8000,26.58
0CO,6/4/24,3:55:00 AM,32,32,100,310,10,0,30.28,M,M,M,M,M,M,M,M,M,22.97
0CO,6/4/24,4:55:00 AM,32,32,100,290,19,0,30.27,M,23,M,M,M,M,M,M,M,19.44
0CO,6/4/24,5:55:00 AM,32,32,100,300,13,0,30.25,M,22,BKN,OVC,M,M,100,1100,M,21.57
0CO,6/4/24,6:55:00 AM,32,32,100,310,25,0,30.21,M,30,OVC,M,M,M,100,M,M,17.81
0CO,6/4/24,7:55:00 AM,32,32,100,280,33,0,30.17,M,42,BKN,BKN,OVC,M,500,1000,1600,16.1
0CO,6/4/24,8:55:00 AM,32,32,100,310,31,0,30.15,M,43,BKN,OVC,M,M,400,900,M,16.49
0CO,6/4/24,9:55:00 AM,32,32,100,300,31,0,30.17,M,36,OVC,M,M,M,400,M,M,16.49
0CO,6/4/24,10:55:00 AM,32,32,100,310,27,0,30.17,M,39,OVC,M,M,M,200,M,M,17.34
0CO,6/4/24,11:55:00 AM,32,32,100,310,32,0,30.18,M,38,OVC,M,M,M,200,M,M,16.29
0CO,6/4/24,12:55:00 PM,30.2,30.2,100,320,24,0,30.21,M,37,OVC,M,M,M,200,M,M,15.63
0CO,6/4/24,1:55:00 PM,30.2,30.2,100,320,34,0,30.21,M,40,M,M,M,M,M,M,M,13.4
0CO,6/4/24,2:55:00 PM,32,30.2,92.97,330,34,0,30.2,M,47,OVC,M,M,M,200,M,M,15.91
0CO,6/4/24,3:55:00 PM,32,30.2,92.97,330,38,0,30.21,M,50,OVC,M,M,M,200,M,M,15.19
0CO,6/4/24,4:55:00 PM,32,32,100,330,34,0,30.25,M,47,OVC,M,M,M,200,M,M,15.91
0CO,6/4/24,5:55:00 PM,33.8,32,93.03,300,40,0.03,30.23,M,53,OVC,M,M,M,200,M,M,17.4
0CO,6/4/24,6:55:00 PM,35.6,30.2,80.51,300,24,0,30.31,M,42,SCT,BKN,OVC,M,800,1400,2800,22.92
0CO,6/4/24,7:55:00 PM,37.4,30.2,74.98,300,28,0,30.31,M,43,BKN,BKN,OVC,M,1900,2500,3000,24.5
0CO,6/4/24,8:55:00 PM,39.2,28.4,64.93,300,23,0,30.36,M,31,SCT,SCT,BKN,M,2100,2700,3300,27.99
0CO,6/4/24,9:55:00 PM,41,28.4,60.54,310,25,0,30.38,M,36,SCT,SCT,SCT,M,3200,3700,12000,30
0CO,6/4/24,10:55:00 PM,42.8,28.4,56.48,300,27,0,30.39,M,35,SCT,BKN,M,M,3100,3700,M,32.06
0CO,6/4/24,11:55:00 PM,42.8,30.2,60.79,300,27,0,30.4,M,43,BKN,OVC,M,M,3200,3800,M,32.06
0CO,6/4/24,12:55:00 AM,41,30.2,65.16,300,25,0,30.41,M,33,SCT,M,M,M,2600,M,M,30
0CO,6/4/24,1:55:00 AM,37.4,30.2,74.98,320,23,0,30.41,M,31,SCT,M,M,M,3800,M,M,25.57
0CO,6/4/24,2:55:00 AM,35.6,32,86.59,310,19,0,30.44,M,27,BKN,BKN,M,M,2400,3100,M,24.2
0CO,6/5/24,3:55:00 AM,35.6,30.2,80.51,330,19,0,30.47,M,30,CLR,M,M,M,M,M,M,24.2
0CO,6/5/24,4:55:00 AM,33.8,30.2,86.49,310,17,0,30.47,M,22,CLR,M,M,M,M,M,M,22.43
0CO,6/5/24,5:55:00 AM,33.8,28.4,80.36,300,18,0,30.47,M,25,CLR,M,M,M,M,M,M,22.12
0CO,6/5/24,6:55:00 AM,32,28.4,86.39,320,18,0,30.45,M,26,CLR,M,M,M,M,M,M,19.75
0CO,6/5/24,7:55:00 AM,32,28.4,86.39,320,23,0,30.44,M,27,CLR,M,M,M,M,M,M,18.31
0CO,6/5/24,8:55:00 AM,32,28.4,86.39,320,25,0,30.44,M,29,M,M,M,M,M,M,M,17.81
0CO,6/5/24,9:55:00 AM,32,26.6,80.22,330,26,0,30.42,M,32,CLR,M,M,M,M,M,M,17.58
0CO,6/5/24,10:55:00 AM,32,26.6,80.22,320,31,0,30.41,M,36,CLR,M,M,M,M,M,M,16.49
0CO,6/5/24,12:55:00 PM,32,26.6,80.22,310,36,0,30.4,M,43,CLR,M,M,M,M,M,M,15.54
0CO,6/5/24,1:55:00 PM,33.8,26.6,74.63,320,34,0,30.43,M,46,CLR,M,M,M,M,M,M,18.41
0CO,6/5/24,2:55:00 PM,35.6,28.4,74.8,310,33,0,30.43,M,44,CLR,M,M,M,M,M,M,21.09
0CO,6/5/24,3:55:00 PM,37.4,28.4,69.67,310,32,0,30.47,M,43,CLR,M,M,M,M,M,M,23.76
0CO,6/5/24,4:55:00 PM,41,30.2,65.16,300,29,0,30.5,M,39,CLR,M,M,M,M,M,M,29.25
0CO,6/5/24,5:55:00 PM,42.8,32,65.38,300,21,0,30.53,M,37,CLR,M,M,M,M,M,M,33.26
0CO,6/5/24,6:55:00 PM,46.4,32,57,M,M,0,30.53,M,M,CLR,M,M,M,M,M,M,M
0CO,6/5/24,7:55:00 PM,46.4,30.2,53,290,31,0,30.55,M,39,CLR,M,M,M,M,M,M,36.35
0CO,6/5/24,8:55:00 PM,48.2,30.2,49.53,300,27,0,30.56,M,34,CLR,M,M,M,M,M,M,39.42
0CO,6/5/24,9:55:00 PM,50,30.2,46.31,300,32,0,30.56,M,38,CLR,M,M,M,M,M,M,50
0CO,6/5/24,10:55:00 PM,50,30.2,46.31,300,27,0,30.56,M,34,CLR,M,M,M,M,M,M,50
0CO,6/5/24,11:55:00 PM,50,32,49.81,310,24,0,30.58,M,35,CLR,M,M,M,M,M,M,50
0CO,6/5/24,12:55:00 AM,48.2,32,53.27,320,19,0,30.58,M,30,SCT,M,M,M,4100,M,M,40.86
0CO,6/5/24,1:55:00 AM,44.6,32,61.03,300,22,0,30.59,M,29,CLR,M,M,M,M,M,M,35.45
0CO,6/5/24,2:55:00 AM,42.8,30.2,60.79,300,17,0,30.61,M,25,CLR,M,M,M,M,M,M,34.22
0CO,6/5/24,3:55:00 AM,41,30.2,65.16,290,14,0,30.63,M,M,CLR,M,M,M,M,M,M,32.76
0CO,6/6/24,4:55:00 AM,42.8,28.4,56.48,290,16,0,30.62,M,26,CLR,M,M,M,M,M,M,34.5
0CO,6/6/24,6:55:00 AM,41,28.4,60.54,300,23,0,30.58,M,M,CLR,M,M,M,M,M,M,30.41
0CO,6/6/24,7:55:00 AM,41,28.4,60.54,300,22,0,30.59,M,27,CLR,M,M,M,M,M,M,30.63
0CO,6/6/24,8:55:00 AM,39.2,28.4,64.93,310,21,0,30.6,M,25,CLR,M,M,M,M,M,M,28.46
0CO,6/6/24,9:55:00 AM,37.4,26.6,64.7,310,23,0,30.59,M,26,CLR,M,M,M,M,M,M,25.57
0CO,6/6/24,10:55:00 AM,37.4,26.6,64.7,300,22,0,30.6,M,27,CLR,M,M,M,M,M,M,25.81
0CO,6/6/24,11:55:00 AM,37.4,24.8,60.04,310,24,0,30.6,M,M,CLR,M,M,M,M,M,M,25.34
0CO,6/6/24,12:55:00 PM,37.4,26.6,64.7,310,14,0,30.63,M,22,CLR,M,M,M,M,M,M,28.12
0CO,6/6/24,1:55:00 PM,41,26.6,56.22,320,11,0,30.63,M,23,CLR,M,M,M,M,M,M,33.84
0CO,6/6/24,2:55:00 PM,42.8,28.4,56.48,300,9,0,30.65,M,17,CLR,M,M,M,M,M,M,36.94
0CO,6/6/24,3:55:00 PM,44.6,30.2,56.74,300,13,0,30.66,M,19,CLR,M,M,M,M,M,M,37.71
0CO,6/6/24,4:55:00 PM,46.4,30.2,53,300,13,0,30.68,M,20,CLR,M,M,M,M,M,M,40.02
0CO,6/6/24,5:55:00 PM,50,32,49.81,320,10,0,30.69,M,16,CLR,M,M,M,M,M,M,50
0CO,6/6/24,6:55:00 PM,51.8,30.2,43.32,310,9,0,30.69,M,M,CLR,M,M,M,M,M,M,51.8
0CO,6/6/24,7:55:00 PM,51.8,26.6,37.38,0,0,0,30.68,M,M,CLR,M,M,M,M,M,M,51.8
0CO,6/6/24,8:55:00 PM,55.4,17.6,22.41,290,13,0,30.67,M,20,CLR,M,M,M,M,M,M,55.4
0CO,6/6/24,9:55:00 PM,55.4,23,28.2,300,7,0,30.67,M,19,CLR,M,M,M,M,M,M,55.4
0CO,6/6/24,10:55:00 PM,55.4,23,28.2,300,10,0,30.66,M,20,CLR,M,M,M,M,M,M,55.4
0CO,6/6/24,11:55:00 PM,50,33.8,53.54,20,3,0,30.65,M,M,BKN,M,M,M,8500,M,M,50
0CO,6/6/24,12:55:00 AM,48.2,33.8,57.26,90,7,0,30.64,M,M,SCT,M,M,M,9500,M,M,44.53
0CO,6/6/24,1:55:00 AM,46.4,33.8,61.28,260,3,0,30.63,M,M,CLR,M,M,M,M,M,M,45.15
0CO,6/6/24,2:55:00 AM,44.6,33.8,65.61,220,6,0,30.63,M,M,CLR,M,M,M,M,M,M,40.71
0CO,6/6/24,3:55:00 AM,46.4,35.6,65.83,160,9,0,30.64,M,M,BKN,M,M,M,8000,M,M,41.42
0CO,6/6/24,4:55:00 AM,44.6,35.6,70.48,270,7,0,30.63,M,M,CLR,M,M,M,M,M,M,40.14
0CO,6/7/24,5:55:00 AM,46.4,23,39.36,280,17,0,30.62,M,M,CLR,M,M,M,M,M,M,38.94
0CO,6/7/24,6:55:00 AM,44.6,32,61.03,280,16,0,30.6,M,M,SCT,M,M,M,9000,M,M,36.84
0CO,6/7/24,7:55:00 AM,44.6,26.6,48.96,280,15,0,30.6,M,M,CLR,M,M,M,M,M,M,37.11
0CO,6/7/24,8:55:00 AM,44.6,28.4,52.72,280,16,0,30.58,M,M,CLR,M,M,M,M,M,M,36.84
0CO,6/7/24,9:55:00 AM,46.4,26.6,45.73,290,18,0,30.55,M,M,CLR,M,M,M,M,M,M,38.7
0CO,6/7/24,10:55:00 AM,46.4,24.8,42.44,280,21,0,30.55,M,24,CLR,M,M,M,M,M,M,38.06
0CO,6/7/24,11:55:00 AM,46.4,24.8,42.44,280,18,0,30.55,M,27,CLR,M,M,M,M,M,M,38.7
0CO,6/7/24,12:55:00 PM,46.4,23,39.36,290,20,0,30.55,M,29,CLR,M,M,M,M,M,M,38.26
0CO,6/7/24,1:55:00 PM,46.4,26.6,45.73,300,16,0,30.55,M,25,CLR,M,M,M,M,M,M,39.19
0CO,6/7/24,2:55:00 PM,50,26.6,39.95,280,25,0,30.56,M,29,CLR,M,M,M,M,M,M,50
0CO,6/7/24,3:55:00 PM,50,26.6,39.95,290,30,0,30.55,M,36,CLR,M,M,M,M,M,M,50
0CO,6/7/24,4:55:00 PM,50,28.4,43.03,310,22,0,30.56,M,31,CLR,M,M,M,M,M,M,50
0CO,6/7/24,5:55:00 PM,51.8,30.2,43.32,300,25,0,30.56,M,33,SCT,M,M,M,7500,M,M,51.8
0CO,6/7/24,6:55:00 PM,50,30.2,46.31,280,33,0,30.56,M,49,SCT,BKN,BKN,M,5000,7000,8000,50
0CO,6/7/24,7:55:00 PM,42.8,35.6,75.5,320,21,0,30.58,M,28,SCT,BKN,OVC,M,3100,6000,7500,33.26
0CO,6/7/24,8:55:00 PM,48.2,32,53.27,290,25,0,30.55,M,50,SCT,SCT,SCT,M,1500,2400,3000,39.75
0CO,6/7/24,9:55:00 PM,51.8,28.4,40.25,290,33,0,30.51,M,48,CLR,M,M,M,M,M,M,51.8
0CO,6/7/24,10:55:00 PM,53.6,30.2,40.54,300,26,0,30.51,M,38,CLR,M,M,M,M,M,M,53.6
0CO,6/7/24,11:55:00 PM,53.6,28.4,37.67,300,29,0,30.5,M,43,CLR,M,M,M,M,M,M,53.6
0CO,6/7/24,12:55:00 AM,50,28.4,43.03,300,23,0,30.51,M,34,BKN,BKN,BKN,M,6000,7000,8500,50
0CO,6/7/24,1:55:00 AM,39.2,33.8,80.79,330,18,0,30.55,M,25,SCT,SCT,BKN,M,5000,7000,9000,29.23
0CO,6/7/24,2:55:00 AM,35.6,33.8,93.08,260,13,0,30.55,M,19,M,M,M,M,M,M,M,26.18
0CO,6/7/24,3:55:00 AM,41,32,70.08,290,19,0,30.52,M,23,CLR,M,M,M,M,M,M,31.34
0CO,6/7/24,4:55:00 AM,42.8,32,65.38,280,23,0,30.54,M,27,CLR,M,M,M,M,M,M,32.83
0CO,6/8/24,5:55:00 AM,41,32,70.08,M,M,0,30.53,M,M,CLR,M,M,M,M,M,M,M
0CO,6/8/24,6:55:00 AM,42.8,30.2,60.79,280,22,0,30.51,M,M,CLR,M,M,M,M,M,M,33.04
0CO,6/8/24,7:55:00 AM,37.4,32,80.65,320,9,0,30.51,M,19,CLR,M,M,M,M,M,M,30.23
0CO,6/8/24,8:55:00 AM,41,30.2,65.16,290,18,0,30.51,M,27,SCT,M,M,M,10000,M,M,31.6
0CO,6/8/24,9:55:00 AM,39.2,32,75.16,290,17,0,30.51,M,22,CLR,M,M,M,M,M,M,29.51
0CO,6/8/24,10:55:00 AM,39.2,32,75.16,290,17,0,30.51,M,21,SCT,M,M,M,8000,M,M,29.51
0CO,6/8/24,11:55:00 AM,41,32,70.08,240,6,0,30.52,M,M,SCT,M,M,M,12000,M,M,36.37
0CO,6/8/24,12:55:00 PM,41,32,70.08,220,8,0,30.52,M,M,CLR,M,M,M,M,M,M,35.2
0CO,6/8/24,1:55:00 PM,44.6,30.2,56.74,260,11,0,30.51,M,23,CLR,M,M,M,M,M,M,38.39
0CO,6/8/24,2:55:00 PM,46.4,30.2,53,260,17,0,30.52,M,24,CLR,M,M,M,M,M,M,38.94
0CO,6/8/24,3:55:00 PM,50,30.2,46.31,260,22,0,30.52,M,29,CLR,M,M,M,M,M,M,50
0CO,6/8/24,4:55:00 PM,50,30.2,46.31,260,16,0,30.52,M,30,SCT,BKN,M,M,5000,6000,M,50
0CO,6/8/24,5:55:00 PM,51.8,30.2,43.32,290,17,0,30.52,M,29,SCT,BKN,BKN,M,5000,7000,8000,51.8
0CO,6/8/24,6:55:00 PM,51.8,23,32.17,260,26,0,30.5,M,35,SCT,SCT,BKN,M,7000,8000,11000,51.8
0CO,6/8/24,7:55:00 PM,51.8,28.4,40.25,270,17,0,30.51,M,M,SCT,BKN,BKN,M,6500,7500,11000,51.8
0CO,6/8/24,8:55:00 PM,44.6,33.8,65.61,330,5,0,30.51,M,15,BKN,BKN,OVC,M,5500,7000,8500,41.36
0CO,6/8/24,9:55:00 PM,42.8,32,65.38,310,24,0.01,30.51,M,34,SCT,BKN,OVC,M,3200,4500,6000,32.63
0CO,6/8/24,10:55:00 PM,42.8,32,65.38,240,15,0,30.51,M,26,CLR,M,M,M,M,M,M,34.78
0CO,6/8/24,11:55:00 PM,37.4,33.8,86.69,260,14,0.01,30.53,M,26,SCT,BKN,BKN,M,2400,3800,6000,28.12
0CO,6/8/24,12:55:00 AM,44.6,32,61.03,290,31,0,30.47,M,40,CLR,M,M,M,M,M,M,33.87
0CO,6/8/24,1:55:00 AM,42.8,32,65.38,300,30,0,30.47,M,37,CLR,M,M,M,M,M,M,31.55
0CO,6/8/24,2:55:00 AM,41,32,70.08,300,11,0,30.55,M,16,CLR,M,M,M,M,M,M,33.84
0CO,6/8/24,3:55:00 AM,41,32,70.08,290,11,0,30.56,M,M,SCT,SCT,SCT,M,3400,6500,7500,33.84
0CO,6/8/24,4:55:00 AM,41,32,70.08,290,12,0,30.56,M,M,CLR,M,M,M,M,M,M,33.46
0CO,6/9/24,5:55:00 AM,39.2,32,75.16,290,10,0,30.55,M,M,CLR,M,M,M,M,M,M,32
0CO,6/9/24,6:55:00 AM,41,32,70.08,290,17,0,30.55,M,M,CLR,M,M,M,M,M,M,31.87
0CO,6/9/24,7:55:00 AM,41,30.2,65.16,290,10,0,30.54,M,M,CLR,M,M,M,M,M,M,34.25
0CO,6/9/24,8:55:00 AM,39.2,28.4,64.93,290,11,0,30.54,M,M,CLR,M,M,M,M,M,M,31.57
0CO,6/9/24,9:55:00 AM,41,28.4,60.54,280,11,0,30.55,M,M,CLR,M,M,M,M,M,M,33.84
0CO,6/9/24,10:55:00 AM,39.2,28.4,64.93,300,10,0,30.55,M,M,CLR,M,M,M,M,M,M,32
0CO,6/9/24,11:55:00 AM,41,28.4,60.54,240,6,0,30.56,M,M,CLR,M,M,M,M,M,M,36.37
0CO,6/9/24,12:55:00 PM,41,28.4,60.54,220,7,0,30.57,M,M,CLR,M,M,M,M,M,M,35.75
0CO,6/9/24,1:55:00 PM,41,28.4,60.54,130,5,0,30.58,M,M,CLR,M,M,M,M,M,M,37.08
0CO,6/9/24,2:55:00 PM,42.8,30.2,60.79,190,8,0,30.6,M,M,CLR,M,M,M,M,M,M,37.42
0CO,6/9/24,3:55:00 PM,44.6,30.2,56.74,190,8,0,30.6,M,M,CLR,M,M,M,M,M,M,39.63
0CO,6/9/24,4:55:00 PM,50,26.6,39.95,260,8,0,30.61,M,M,SCT,M,M,M,5000,M,M,50
0CO,6/9/24,5:55:00 PM,50,26.6,39.95,170,7,0,30.61,M,15,BKN,M,M,M,6000,M,M,50
0CO,6/9/24,6:55:00 PM,50,28.4,43.03,170,9,0,30.6,M,15,BKN,BKN,M,M,6000,8000,M,50
0CO,6/9/24,7:55:00 PM,48.2,37.4,66.05,160,8,0,30.6,M,14,SCT,BKN,BKN,M,6500,7500,9000,44.07
0CO,6/9/24,8:55:00 PM,48.2,41,76.01,30,5,0,30.6,M,M,SCT,SCT,BKN,M,1400,5000,8500,45.63
0CO,6/9/24,9:55:00 PM,42.8,41,93.3,M,M,0,30.58,M,M,BKN,BKN,OVC,M,200,1200,10000,M
0CO,6/9/24,10:55:00 PM,41,41,100,250,8,0.01,30.56,M,16,BKN,BKN,OVC,M,300,2400,8000,35.2
0CO,6/9/24,11:55:00 PM,42.8,35.6,75.5,150,7,0,30.56,M,20,SCT,SCT,SCT,M,100,3800,6000,37.94
0CO,6/9/24,12:55:00 AM,39.2,33.8,80.79,270,15,0.01,30.58,M,25,SCT,BKN,OVC,M,600,4800,6000,30.11
0CO,6/9/24,1:55:00 AM,37.4,35.6,93.14,140,9,0,30.58,M,17,M,M,M,M,M,M,M,30.23
0CO,6/9/24,2:55:00 AM,41,32,70.08,160,15,0,30.6,M,22,SCT,BKN,OVC,M,7000,9000,12000,32.45
0CO,6/9/24,3:55:00 AM,37.4,32,80.65,260,17,0,30.6,M,26,CLR,M,M,M,M,M,M,27.15
0CO,6/9/24,4:55:00 AM,41,32,70.08,240,7,0,30.59,M,15,OVC,M,M,M,8500,M,M,35.75
0CO,6/10/24,5:55:00 AM,44.6,28.4,52.72,300,11,0,30.58,M,M,OVC,M,M,M,11000,M,M,38.39
0CO,6/10/24,6:55:00 AM,42.8,28.4,56.48,290,6,0,30.56,M,M,BKN,M,M,M,12000,M,M,38.54
0CO,6/10/24,7:55:00 AM,41,28.4,60.54,310,8,0,30.55,M,M,CLR,M,M,M,M,M,M,35.2
0CO,6/10/24,8:55:00 AM,41,30.2,65.16,270,12,0,30.54,M,17,OVC,M,M,M,11000,M,M,33.46
0CO,6/10/24,9:55:00 AM,41,30.2,65.16,300,7,0,30.53,M,M,BKN,M,M,M,12000,M,M,35.75
0CO,6/10/24,10:55:00 AM,41,30.2,65.16,300,6,0,30.53,M,17,CLR,M,M,M,M,M,M,36.37
0CO,6/10/24,11:55:00 AM,41,30.2,65.16,290,14,0,30.52,M,M,SCT,M,M,M,11000,M,M,32.76
0CO,6/10/24,12:55:00 PM,41,30.2,65.16,300,12,0,30.52,M,17,BKN,M,M,M,9000,M,M,33.46
0CO,6/10/24,1:55:00 PM,41,32,70.08,290,13,0,30.53,M,M,OVC,M,M,M,9000,M,M,33.1
0CO,6/10/24,2:55:00 PM,42.8,32,65.38,300,8,0,30.55,M,17,BKN,BKN,OVC,M,6500,8000,10000,37.42
0CO,6/10/24,3:55:00 PM,44.6,32,61.03,300,8,0,30.55,M,19,OVC,M,M,M,11000,M,M,39.63
0CO,6/10/24,4:55:00 PM,46.4,33.8,61.28,340,8,0,30.55,M,25,SCT,BKN,M,M,8500,11000,M,41.85
0CO,6/10/24,5:55:00 PM,48.2,33.8,57.26,330,8,0,30.55,M,21,SCT,SCT,SCT,M,3100,3800,4600,44.07
0CO,6/10/24,6:55:00 PM,50,32,49.81,310,17,0,30.53,M,24,SCT,SCT,SCT,M,3500,4100,11000,50
0CO,6/10/24,7:55:00 PM,46.4,32,57,300,21,0,30.52,M,27,BKN,BKN,BKN,M,4200,5000,12000,38.06
0CO,6/10/24,8:55:00 PM,50,28.4,43.03,310,14,0,30.51,M,26,SCT,BKN,M,M,4800,11000,M,50
0CO,6/10/24,9:55:00 PM,46.4,32,57,310,23,0,30.51,M,30,SCT,BKN,M,M,5000,7500,M,37.67
0CO,6/10/24,10:55:00 PM,42.8,32,65.38,270,20,0,30.49,M,M,SCT,BKN,OVC,M,2100,3700,5500,33.48
0CO,6/10/24,11:55:00 PM,46.4,32,57,300,22,0,30.49,M,30,SCT,M,M,M,4500,M,M,37.86
0CO,6/10/24,12:55:00 AM,46.4,32,57,300,24,0,30.49,M,30,CLR,M,M,M,M,M,M,37.49
0CO,6/10/24,1:55:00 AM,44.6,32,61.03,290,15,0,30.51,M,22,BKN,M,M,M,8000,M,M,37.11
0CO,6/10/24,2:55:00 AM,35.6,35.6,100,320,6,0.01,30.55,M,M,BKN,BKN,OVC,M,100,500,1600,29.87
0CO,6/10/24,3:55:00 AM,37.4,33.8,86.69,280,13,0,30.55,M,18,M,M,M,M,M,M,M,28.49
0CO,6/10/24,4:55:00 AM,37.4,33.8,86.69,300,16,0,30.55,M,24,CLR,M,M,M,M,M,M,27.46
0CO,6/11/24,5:55:00 AM,37.4,32,80.65,300,15,0,30.55,M,25,CLR,M,M,M,M,M,M,27.78
0CO,6/11/24,6:55:00 AM,37.4,32,80.65,310,21,0,30.54,M,25,CLR,M,M,M,M,M,M,26.06
0CO,6/11/24,7:55:00 AM,37.4,32,80.65,300,22,0,30.54,M,27,CLR,M,M,M,M,M,M,25.81
0CO,6/11/24,8:55:00 AM,37.4,32,80.65,290,19,0,30.54,M,23,CLR,M,M,M,M,M,M,26.58
0CO,6/11/24,9:55:00 AM,37.4,32,80.65,290,18,0,30.55,M,22,CLR,M,M,M,M,M,M,26.86
0CO,6/11/24,10:55:00 AM,37.4,32,80.65,290,18,0,30.55,M,27,CLR,M,M,M,M,M,M,26.86
0CO,6/11/24,11:55:00 AM,37.4,32,80.65,290,19,0,30.55,M,26,CLR,M,M,M,M,M,M,26.58
0CO,6/11/24,12:55:00 PM,37.4,32,80.65,290,23,0,30.55,M,29,CLR,M,M,M,M,M,M,25.57
0CO,6/11/24,1:55:00 PM,39.2,30.2,69.88,290,15,0,30.58,M,25,CLR,M,M,M,M,M,M,30.11
0CO,6/11/24,2:55:00 PM,42.8,30.2,60.79,310,16,0,30.58,M,26,CLR,M,M,M,M,M,M,34.5
0CO,6/11/24,3:55:00 PM,44.6,32,61.03,310,15,0,30.59,M,26,CLR,M,M,M,M,M,M,37.11
0CO,6/11/24,5:55:00 PM,48.2,30.2,49.53,M,M,0,30.6,M,M,CLR,M,M,M,M,M,M,M
0CO,6/11/24,6:55:00 PM,50,28.4,43.03,280,20,0,30.6,M,26,SCT,SCT,M,M,4800,5500,M,50
0CO,6/11/24,8:55:00 PM,51.8,30.2,43.32,310,17,0,30.6,M,M,CLR,M,M,M,M,M,M,51.8
0CO,6/11/24,9:55:00 PM,53.6,28.4,37.67,M,M,0,30.59,M,M,CLR,M,M,M,M,M,M,53.6
0CO,6/11/24,10:55:00 PM,53.6,30.2,40.54,320,17,0,30.58,M,22,SCT,SCT,M,M,6000,9000,M,53.6
0CO,6/11/24,11:55:00 PM,50,32,49.81,300,12,0,30.58,M,18,SCT,BKN,M,M,7000,9500,M,50
0CO,6/11/24,12:55:00 AM,51.8,30.2,43.32,310,14,0,30.58,M,20,SCT,BKN,M,M,6000,9500,M,51.8
0CO,6/11/24,1:55:00 AM,50,30.2,46.31,300,14,0,30.57,M,23,CLR,M,M,M,M,M,M,50
0CO,6/11/24,2:55:00 AM,46.4,28.4,49.24,290,16,0,30.58,M,23,CLR,M,M,M,M,M,M,39.19
0CO,6/11/24,3:55:00 AM,44.6,28.4,52.72,M,M,0,30.58,M,M,CLR,M,M,M,M,M,M,M
0CO,6/11/24,4:55:00 AM,44.6,26.6,48.96,290,24,0,30.58,M,M,CLR,M,M,M,M,M,M,35.06
0CO,6/11/24,5:55:00 AM,44.6,21.2,39.06,M,M,0,30.56,M,M,CLR,M,M,M,M,M,M,M
0CO,6/11/24,6:55:00 AM,42.8,23,45.14,300,28,0,30.54,M,38,CLR,M,M,M,M,M,M,31.89
0CO,6/12/24,7:55:00 AM,44.6,24.8,45.44,300,32,0,30.53,M,39,CLR,M,M,M,M,M,M,33.72
0CO,6/12/24,8:55:00 AM,42.8,23,45.14,290,30,0,30.53,M,40,CLR,M,M,M,M,M,M,31.55
0CO,6/12/24,9:55:00 AM,42.8,24.8,48.67,300,29,0,30.53,M,37,CLR,M,M,M,M,M,M,31.72
0CO,6/12/24,10:55:00 AM,41,26.6,56.22,300,32,0,30.53,M,39,CLR,M,M,M,M,M,M,28.74
0CO,6/12/24,11:55:00 AM,41,26.6,56.22,310,28,0,30.53,M,41,CLR,M,M,M,M,M,M,29.43
0CO,6/12/24,12:55:00 PM,41,26.6,56.22,320,29,0,30.55,M,38,CLR,M,M,M,M,M,M,29.25
0CO,6/12/24,1:55:00 PM,44.6,26.6,48.96,310,28,0,30.57,M,40,CLR,M,M,M,M,M,M,34.35
0CO,6/12/24,2:55:00 PM,46.4,28.4,49.24,310,26,0,30.6,M,38,CLR,M,M,M,M,M,M,37.14
0CO,6/12/24,3:55:00 PM,50,26.6,39.95,310,25,0,30.63,M,35,CLR,M,M,M,M,M,M,50
0CO,6/12/24,4:55:00 PM,51.8,28.4,40.25,290,31,0,30.64,M,40,SCT,M,M,M,5500,M,M,51.8
0CO,6/12/24,5:55:00 PM,51.8,30.2,43.32,310,24,0,30.66,M,40,SCT,M,M,M,5500,M,M,51.8
0CO,6/12/24,6:55:00 PM,53.6,28.4,37.67,300,25,0,30.67,M,35,CLR,M,M,M,M,M,M,53.6
0CO,6/12/24,7:55:00 PM,53.6,32,43.61,280,24,0,30.66,M,M,SCT,SCT,BKN,M,5000,7000,9500,53.6
0CO,6/12/24,8:55:00 PM,46.4,33.8,61.28,300,10,0,30.68,M,25,SCT,SCT,BKN,M,3000,4800,7000,41.03
0CO,6/12/24,9:55:00 PM,50,33.8,53.54,320,24,0,30.66,M,33,SCT,SCT,M,M,8000,9000,M,50
0CO,6/12/24,10:55:00 PM,51.8,32,46.59,310,21,0,30.65,M,26,SCT,M,M,M,9000,M,M,51.8
0CO,6/12/24,11:55:00 PM,53.6,30.2,40.54,M,M,0,30.65,M,M,SCT,M,M,M,6000,M,M,53.6
0CO,6/12/24,12:55:00 AM,51.8,32,46.59,M,M,0,30.65,M,M,SCT,SCT,M,M,9000,11000,M,51.8
0CO,6/12/24,1:55:00 AM,50,28.4,43.03,300,19,0,30.66,M,25,SCT,M,M,M,9000,M,M,50
0CO,6/12/24,2:55:00 AM,46.4,30.2,53,300,17,0,30.67,M,24,CLR,M,M,M,M,M,M,38.94
0CO,6/12/24,3:55:00 AM,44.6,32,61.03,280,9,0,30.68,M,M,CLR,M,M,M,M,M,M,39.18
0CO,6/12/24,4:55:00 AM,46.4,28.4,49.24,280,7,0,30.68,M,15,CLR,M,M,M,M,M,M,42.33
0CO,6/12/24,5:55:00 AM,46.4,28.4,49.24,250,11,0,30.68,M,M,CLR,M,M,M,M,M,M,40.66
0CO,6/12/24,6:55:00 AM,46.4,28.4,49.24,290,11,0,30.67,M,M,CLR,M,M,M,M,M,M,40.66
0CO,6/13/24,7:55:00 AM,46.4,26.6,45.73,260,12,0,30.66,M,M,CLR,M,M,M,M,M,M,40.33
0CO,6/13/24,8:55:00 AM,46.4,21.2,36.48,280,13,0,30.65,M,16,CLR,M,M,M,M,M,M,40.02
0CO,6/13/24,9:55:00 AM,46.4,19.4,33.79,280,15,0,30.64,M,M,CLR,M,M,M,M,M,M,39.45
0CO,6/13/24,10:55:00 AM,46.4,17.6,31.28,280,19,0,30.64,M,23,CLR,M,M,M,M,M,M,38.48
0CO,6/13/24,11:55:00 AM,46.4,19.4,33.79,280,19,0,30.65,M,M,CLR,M,M,M,M,M,M,38.48
0CO,6/13/24,12:55:00 PM,48.2,19.4,31.57,290,17,0,30.66,M,M,CLR,M,M,M,M,M,M,41.3
0CO,6/13/24,1:55:00 PM,50,21.2,31.87,290,16,0,30.68,M,M,CLR,M,M,M,M,M,M,50
0CO,6/13/24,2:55:00 PM,51.8,21.2,29.82,290,15,0,30.7,M,20,CLR,M,M,M,M,M,M,51.8
0CO,6/13/24,3:55:00 PM,51.8,21.2,29.82,280,17,0,30.71,M,29,CLR,M,M,M,M,M,M,51.8
0CO,6/13/24,4:55:00 PM,53.6,21.2,27.91,290,18,0,30.72,M,34,CLR,M,M,M,M,M,M,53.6
0CO,6/13/24,5:55:00 PM,55.4,21.2,26.13,280,19,0,30.74,M,34,CLR,M,M,M,M,M,M,55.4
0CO,6/13/24,6:55:00 PM,55.4,19.4,24.21,290,17,0,30.74,M,M,CLR,M,M,M,M,M,M,55.4
0CO,6/13/24,7:55:00 PM,55.4,19.4,24.21,280,21,0,30.74,M,M,CLR,M,M,M,M,M,M,55.4
0CO,6/13/24,8:55:00 PM,59,17.6,19.68,270,19,0,30.74,M,32,CLR,M,M,M,M,M,M,59
0CO,6/13/24,9:55:00 PM,59,17.6,19.68,M,M,0,30.73,M,M,CLR,M,M,M,M,M,M,59
0CO,6/13/24,10:55:00 PM,59,19.4,21.26,280,16,0,30.72,M,M,CLR,M,M,M,M,M,M,59
0CO,6/13/24,11:55:00 PM,57.2,21.2,24.49,300,9,0,30.71,M,15,CLR,M,M,M,M,M,M,57.2
0CO,6/13/24,12:55:00 AM,53.6,28.4,37.67,170,9,0,30.71,M,17,BKN,M,M,M,9000,M,M,53.6
0CO,6/13/24,1:55:00 AM,46.4,37.4,70.68,280,9,0,30.69,M,21,SCT,M,M,M,10000,M,M,41.42
0CO,6/13/24,2:55:00 AM,46.4,41,81.34,M,M,0,30.72,M,M,SCT,OVC,M,M,6500,8500,M,M
0CO,6/13/24,3:55:00 AM,44.6,41,87.09,150,11,0,30.73,M,M,M,M,M,M,M,M,M,38.39
0CO,6/13/24,4:55:00 AM,44.6,41,87.09,150,9,0,30.72,M,15,M,M,M,M,M,M,M,39.18
0CO,6/13/24,5:55:00 AM,42.8,39.2,86.99,M,M,0,30.72,M,M,M,M,M,M,M,M,M,M
0CO,6/13/24,6:55:00 AM,42.8,37.4,81.07,M,M,0,30.69,M,M,M,M,M,M,M,M,M,M
0CO,6/14/24,7:55:00 AM,42.8,35.6,75.5,M,M,0,30.68,M,M,CLR,M,M,M,M,M,M,M
0CO,6/14/24,8:55:00 AM,39.2,37.4,93.19,150,20,0,30.66,M,27,BKN,M,M,M,100,M,M,28.7
0CO,6/14/24,9:55:00 AM,42.8,33.8,70.28,190,11,0,30.66,M,22,CLR,M,M,M,M,M,M,36.11
0CO,6/14/24,10:55:00 AM,42.8,32,65.38,250,8,0,30.65,M,M,CLR,M,M,M,M,M,M,37.42
0CO,6/14/24,11:55:00 AM,42.8,32,65.38,260,11,0,30.65,M,24,CLR,M,M,M,M,M,M,36.11
0CO,6/14/24,12:55:00 PM,42.8,30.2,60.79,300,10,0,30.65,M,18,CLR,M,M,M,M,M,M,36.51
0CO,6/14/24,1:55:00 PM,42.8,32,65.38,320,7,0,30.64,M,M,SCT,SCT,OVC,M,6500,7500,9500,37.94
0CO,6/14/24,2:55:00 PM,44.6,32,61.03,310,8,0,30.64,M,M,SCT,OVC,M,M,8500,10000,M,39.63
0CO,6/14/24,3:55:00 PM,44.6,33.8,65.61,340,8,0,30.63,M,M,BKN,BKN,BKN,M,6500,7500,11000,39.63
0CO,6/14/24,4:55:00 PM,42.8,33.8,70.28,320,9,0,30.63,M,22,SCT,BKN,BKN,M,7000,8000,11000,36.94
0CO,6/14/24,5:55:00 PM,44.6,33.8,65.61,320,8,0,30.62,M,14,SCT,SCT,BKN,M,2600,4200,6000,39.63
0CO,6/14/24,6:55:00 PM,39.2,35.6,86.79,280,18,0,30.61,M,23,M,M,M,M,M,M,M,29.23
0CO,6/14/24,7:55:00 PM,37.4,35.6,93.14,270,15,0,30.6,M,23,M,M,M,M,M,M,M,27.78
0CO,6/14/24,8:55:00 PM,41,30.2,65.16,250,7,0,30.58,M,24,OVC,M,M,M,5500,M,M,35.75
0CO,6/14/24,9:55:00 PM,44.6,30.2,56.74,300,13,0,30.53,M,16,CLR,M,M,M,M,M,M,37.71
0CO,6/14/24,10:55:00 PM,44.6,30.2,56.74,280,24,0,30.52,M,28,BKN,BKN,M,M,4100,4900,M,35.06
0CO,6/14/24,11:55:00 PM,42.8,32,65.38,290,13,0,30.53,M,17,SCT,BKN,OVC,M,2900,3700,4300,35.4
0CO,6/14/24,12:55:00 AM,41,32,70.08,310,8,0,30.53,M,15,OVC,M,M,M,6000,M,M,35.2
0CO,6/14/24,1:55:00 AM,39.2,32,75.16,320,9,0,30.51,M,23,SCT,M,M,M,8500,M,M,32.47
0CO,6/14/24,2:55:00 AM,37.4,32,80.65,320,11,0,30.49,M,18,CLR,M,M,M,M,M,M,29.29
0CO,6/14/24,3:55:00 AM,37.4,32,80.65,290,13,0,30.5,M,22,BKN,OVC,M,M,2600,3200,M,28.49
0CO,6/14/24,4:55:00 AM,37.4,33.8,86.69,330,25,0,30.49,M,31,M,M,M,M,M,M,M,25.12
0CO,6/14/24,5:55:00 AM,35.6,33.8,93.08,340,22,0,30.49,M,29,M,M,M,M,M,M,M,23.4
0CO,6/14/24,6:55:00 AM,35.6,32,86.59,320,14,0,30.5,M,22,M,M,M,M,M,M,M,25.8
0CO,6/15/24,7:55:00 AM,35.6,32,86.59,330,12,0,30.49,M,21,M,M,M,M,M,M,M,26.58
0CO,6/15/24,8:55:00 AM,35.6,32,86.59,320,12,0,30.48,M,19,SCT,M,M,M,11000,M,M,26.58
0CO,6/15/24,9:55:00 AM,33.8,32,93.03,300,7,0,30.48,M,18,M,M,M,M,M,M,M,26.97
0CO,6/15/24,10:55:00 AM,33.8,32,93.03,340,17,0,30.46,M,22,M,M,M,M,M,M,M,22.43
0CO,6/15/24,11:55:00 AM,35.6,30.2,80.51,310,16,0,30.48,M,28,CLR,M,M,M,M,M,M,25.11
0CO,6/15/24,12:55:00 PM,37.4,30.2,74.98,310,11,0,30.49,M,M,CLR,M,M,M,M,M,M,29.29
0CO,6/15/24,1:55:00 PM,41,30.2,65.16,300,13,0,30.49,M,20,CLR,M,M,M,M,M,M,33.1
0CO,6/15/24,2:55:00 PM,44.6,30.2,56.74,310,15,0,30.49,M,25,CLR,M,M,M,M,M,M,37.11
0CO,6/15/24,3:55:00 PM,44.6,32,61.03,300,13,0,30.49,M,20,CLR,M,M,M,M,M,M,37.71
0CO,6/15/24,4:55:00 PM,44.6,33.8,65.61,300,10,0,30.49,M,21,CLR,M,M,M,M,M,M,38.77
0CO,6/15/24,5:55:00 PM,50,28.4,43.03,290,23,0,30.49,M,31,CLR,M,M,M,M,M,M,50
0CO,6/15/24,6:55:00 PM,50,30.2,46.31,M,M,0,30.48,M,M,BKN,M,M,M,8500,M,M,50
0CO,6/15/24,7:55:00 PM,50,26.6,39.95,280,23,0,30.47,M,33,SCT,SCT,BKN,M,6000,7000,8500,50
0CO,6/15/24,8:55:00 PM,51.8,23,32.17,300,24,0,30.45,M,M,SCT,SCT,M,M,7000,9000,M,51.8
0CO,6/15/24,9:55:00 PM,53.6,26.6,34.98,280,20,0,30.46,M,30,CLR,M,M,M,M,M,M,53.6
0CO,6/15/24,10:55:00 PM,50,30.2,46.31,270,21,0,30.46,M,29,SCT,BKN,M,M,8000,10000,M,50
0CO,6/15/24,11:55:00 PM,50,28.4,43.03,260,13,0,30.45,M,26,CLR,M,M,M,M,M,M,50
0CO,6/15/24,12:55:00 AM,50,26.6,39.95,M,M,0,30.43,M,M,CLR,M,M,M,M,M,M,50
0CO,6/15/24,1:55:00 AM,46.4,28.4,49.24,250,11,0,30.44,M,28,SCT,M,M,M,6000,M,M,40.66
0CO,6/15/24,2:55:00 AM,44.6,28.4,52.72,270,20,0,30.45,M,26,CLR,M,M,M,M,M,M,35.87
0CO,6/15/24,3:55:00 AM,44.6,26.6,48.96,280,27,0,30.44,M,31,CLR,M,M,M,M,M,M,34.52
0CO,6/15/24,4:55:00 AM,44.6,26.6,48.96,280,35,0,30.41,M,44,CLR,M,M,M,M,M,M,33.29
0CO,6/15/24,5:55:00 AM,44.6,26.6,48.96,290,37,0,30.4,M,44,CLR,M,M,M,M,M,M,33.02
0CO,6/15/24,6:55:00 AM,44.6,26.6,48.96,280,34,0,30.39,M,40,CLR,M,M,M,M,M,M,33.43
0CO,6/16/24,7:55:00 AM,44.6,23,42.14,280,28,0,30.39,M,41,CLR,M,M,M,M,M,M,34.35
0CO,6/16/24,8:55:00 AM,44.6,19.4,36.18,280,23,0,30.4,M,33,CLR,M,M,M,M,M,M,35.25
0CO,6/16/24,9:55:00 AM,44.6,19.4,36.18,270,14,0,30.4,M,25,CLR,M,M,M,M,M,M,37.4
0CO,6/16/24,10:55:00 AM,44.6,17.6,33.49,260,13,0,30.39,M,29,CLR,M,M,M,M,M,M,37.71
0CO,6/16/24,11:55:00 AM,44.6,17.6,33.49,270,14,0,30.41,M,20,CLR,M,M,M,M,M,M,37.4
0CO,6/16/24,12:55:00 PM,44.6,17.6,33.49,260,13,0,30.41,M,25,CLR,M,M,M,M,M,M,37.71
0CO,6/16/24,1:55:00 PM,44.6,17.6,33.49,270,14,0,30.41,M,25,CLR,M,M,M,M,M,M,37.4
0CO,6/16/24,2:55:00 PM,46.4,17.6,31.28,240,10,0,30.42,M,24,CLR,M,M,M,M,M,M,41.03
0CO,6/16/24,3:55:00 PM,50,19.4,29.52,250,13,0,30.41,M,26,CLR,M,M,M,M,M,M,50
0CO,6/16/24,4:55:00 PM,50,19.4,29.52,210,8,0,30.42,M,27,CLR,M,M,M,M,M,M,50
0CO,6/16/24,5:55:00 PM,53.6,21.2,27.91,250,16,0,30.41,M,25,SCT,M,M,M,8000,M,M,53.6
0CO,6/16/24,6:55:00 PM,51.8,21.2,29.82,280,15,0,30.4,M,19,OVC,M,M,M,8000,M,M,51.8
0CO,6/16/24,7:55:00 PM,55.4,19.4,24.21,240,14,0,30.39,M,31,CLR,M,M,M,M,M,M,55.4
0CO,6/16/24,8:55:00 PM,57.2,19.4,22.68,250,14,0,30.38,M,29,SCT,M,M,M,9500,M,M,57.2
0CO,6/16/24,9:55:00 PM,57.2,17.6,20.99,240,13,0,30.38,M,27,SCT,M,M,M,10000,M,M,57.2
0CO,6/16/24,10:55:00 PM,59,19.4,21.26,240,11,0,30.36,M,24,SCT,M,M,M,11000,M,M,59
0CO,6/16/24,11:55:00 PM,51.8,37.4,57.77,280,5,0,30.36,M,M,SCT,M,M,M,10000,M,M,51.8
0CO,6/16/24,12:55:00 AM,55.4,30.2,37.97,30,5,0,30.36,M,17,CLR,M,M,M,M,M,M,55.4
0CO,6/16/24,1:55:00 AM,51.8,32,46.59,290,7,0,30.36,M,M,CLR,M,M,M,M,M,M,51.8
0CO,6/16/24,2:55:00 AM,50,26.6,39.95,0,0,0,30.36,M,M,CLR,M,M,M,M,M,M,50
0CO,6/16/24,3:55:00 AM,48.2,32,53.27,0,0,0,30.36,M,M,CLR,M,M,M,M,M,M,48.2
0CO,6/16/24,4:55:00 AM,46.4,26.6,45.73,260,9,0,30.36,M,15,CLR,M,M,M,M,M,M,41.42
0CO,6/16/24,5:55:00 AM,46.4,21.2,36.48,250,5,0,30.33,M,M,CLR,M,M,M,M,M,M,43.5
0CO,6/16/24,6:55:00 AM,46.4,15.8,28.93,240,13,0,30.3,M,25,CLR,M,M,M,M,M,M,40.02
0CO,6/17/24,8:55:00 AM,44.6,14,28.64,260,23,0,30.25,M,30,CLR,M,M,M,M,M,M,35.25
0CO,6/17/24,9:55:00 AM,44.6,12.2,26.45,260,15,0,30.24,M,38,CLR,M,M,M,M,M,M,37.11
0CO,6/17/24,10:55:00 AM,44.6,12.2,26.45,260,6,0,30.25,M,16,CLR,M,M,M,M,M,M,40.71
0CO,6/17/24,11:55:00 AM,44.6,10.4,24.42,280,19,0,30.25,M,26,CLR,M,M,M,M,M,M,36.1
0CO,6/17/24,12:55:00 PM,42.8,12.2,28.34,260,10,0,30.25,M,22,CLR,M,M,M,M,M,M,36.51
0CO,6/17/24,1:55:00 PM,44.6,12.2,26.45,250,10,0,30.25,M,25,CLR,M,M,M,M,M,M,38.77
0CO,6/17/24,2:55:00 PM,44.6,12.2,26.45,250,12,0,30.25,M,23,CLR,M,M,M,M,M,M,38.04
0CO,6/17/24,3:55:00 PM,50,14,23.37,240,12,0,30.23,M,31,CLR,M,M,M,M,M,M,50
0CO,6/17/24,4:55:00 PM,51.8,17.6,25.56,260,19,0,30.22,M,25,CLR,M,M,M,M,M,M,51.8
0CO,6/17/24,5:55:00 PM,51.8,15.8,23.65,240,13,0,30.22,M,27,CLR,M,M,M,M,M,M,51.8
0CO,6/17/24,6:55:00 PM,53.6,17.6,23.93,230,12,0,30.2,M,28,CLR,M,M,M,M,M,M,53.6
0CO,6/17/24,7:55:00 PM,55.4,17.6,22.41,250,15,0,30.19,M,27,CLR,M,M,M,M,M,M,55.4
0CO,6/17/24,8:55:00 PM,55.4,17.6,22.41,200,8,0,30.17,M,28,CLR,M,M,M,M,M,M,55.4
0CO,6/17/24,9:55:00 PM,57.2,15.8,19.42,220,15,0,30.16,M,46,SCT,M,M,M,10000,M,M,57.2
0CO,6/17/24,10:55:00 PM,53.6,17.6,23.93,250,11,0,30.15,M,30,CLR,M,M,M,M,M,M,53.6
0CO,6/17/24,11:55:00 PM,53.6,17.6,23.93,240,8,0,30.14,M,29,BKN,M,M,M,10000,M,M,53.6
0CO,6/17/24,12:55:00 AM,53.6,17.6,23.93,280,17,0,30.15,M,28,CLR,M,M,M,M,M,M,53.6
0CO,6/17/24,1:55:00 AM,51.8,17.6,25.56,270,16,0,30.15,M,28,CLR,M,M,M,M,M,M,51.8
0CO,6/17/24,2:55:00 AM,50,14,23.37,260,13,0,30.16,M,29,CLR,M,M,M,M,M,M,50
0CO,6/17/24,3:55:00 AM,46.4,17.6,31.28,260,17,0,30.17,M,27,CLR,M,M,M,M,M,M,38.94
0CO,6/17/24,4:55:00 AM,44.6,17.6,33.49,270,15,0,30.17,M,23,CLR,M,M,M,M,M,M,37.11
0CO,6/17/24,5:55:00 AM,44.6,17.6,33.49,250,18,0,30.14,M,30,CLR,M,M,M,M,M,M,36.34
0CO,6/17/24,6:55:00 AM,44.6,15.8,30.98,250,21,0,30.12,M,29,CLR,M,M,M,M,M,M,35.66
0CO,6/17/24,7:55:00 AM,35.6,23,59.79,280,7,0,30.12,M,21,CLR,M,M,M,M,M,M,29.17
0CO,6/18/24,8:55:00 AM,32,23,69.04,350,12,0,30.12,M,18,CLR,M,M,M,M,M,M,22
0CO,6/18/24,9:55:00 AM,30.2,21.2,68.83,330,13,0,30.13,M,23,CLR,M,M,M,M,M,M,19.26
0CO,6/18/24,10:55:00 AM,33.8,23,64.23,270,16,0,30.16,M,M,CLR,M,M,M,M,M,M,22.76
0CO,6/18/24,11:55:00 AM,33.8,23,64.23,200,5,0,30.18,M,M,CLR,M,M,M,M,M,M,28.53
0CO,6/18/24,12:55:00 PM,33.8,23,64.23,260,8,0,30.18,M,M,CLR,M,M,M,M,M,M,26.33
0CO,6/18/24,1:55:00 PM,37.4,23,55.68,260,15,0,30.19,M,21,CLR,M,M,M,M,M,M,27.78
0CO,6/18/24,2:55:00 PM,39.2,21.2,48.1,220,11,0,30.19,M,26,CLR,M,M,M,M,M,M,31.57
0CO,6/18/24,3:55:00 PM,37.4,23,55.68,270,14,0,30.22,M,29,BKN,OVC,M,M,4900,5500,M,28.12
0CO,6/18/24,4:55:00 PM,37.4,23,55.68,270,22,0,30.22,M,30,SCT,SCT,M,M,4900,5500,M,25.81
0CO,6/18/24,5:55:00 PM,41,23,48.39,280,10,0,30.25,M,24,SCT,SCT,SCT,M,4800,6500,7500,34.25
0CO,6/18/24,6:55:00 PM,44.6,23,42.14,240,16,0,30.27,M,34,SCT,SCT,M,M,5000,6500,M,36.84
0CO,6/18/24,7:55:00 PM,42.8,21.2,41.84,280,20,0,30.28,M,36,SCT,OVC,M,M,6000,7500,M,33.48
0CO,6/18/24,8:55:00 PM,42.8,23,45.14,270,21,0,30.3,M,29,BKN,BKN,BKN,M,6000,7000,8000,33.26
0CO,6/18/24,9:55:00 PM,42.8,28.4,56.48,230,5,0,30.33,M,M,SCT,BKN,OVC,M,6000,7500,8500,39.22
0CO,6/18/24,10:55:00 PM,42.8,24.8,48.67,230,4,0,30.32,M,15,SCT,M,M,M,7500,M,M,40.03
0CO,6/18/24,11:55:00 PM,37.4,26.6,64.7,180,7,0,30.33,M,17,SCT,OVC,M,M,7000,9000,M,31.36
0CO,6/18/24,12:55:00 AM,37.4,26.6,64.7,140,8,0,30.36,M,19,SCT,SCT,SCT,M,6500,7500,8500,30.76
0CO,6/18/24,1:55:00 AM,35.6,26.6,69.46,160,16,0,30.38,M,M,SCT,SCT,SCT,M,6000,7000,8500,25.11
0CO,6/18/24,2:55:00 AM,32,26.6,80.22,160,11,0,30.41,M,19,SCT,SCT,BKN,M,3200,4100,4800,22.47
0CO,6/18/24,3:55:00 AM,32,24.8,74.44,340,9,0,30.42,M,27,BKN,OVC,M,M,2900,3700,M,23.51
0CO,6/18/24,4:55:00 AM,30.2,24.8,80.07,170,13,0,30.44,M,34,OVC,M,M,M,2300,M,M,19.26
0CO,6/18/24,5:55:00 AM,30.2,23,74.26,230,9,0,30.45,M,19,OVC,M,M,M,2100,M,M,21.28
0CO,6/18/24,6:55:00 AM,32,24.8,74.44,90,12,0,30.43,M,26,BKN,BKN,BKN,M,3100,3600,6500,22
0CO,6/18/24,7:55:00 AM,30.2,23,74.26,140,28,0,30.43,M,35,CLR,M,M,M,M,M,M,14.66
0CO,6/19/24,8:55:00 AM,28.4,23,79.92,140,23,0,30.43,M,35,CLR,M,M,M,M,M,M,13.47
0CO,6/19/24,9:55:00 AM,28.4,23,79.92,150,19,0,30.44,M,23,CLR,M,M,M,M,M,M,14.68
0CO,6/19/24,10:55:00 AM,28.4,23,79.92,130,31,0,30.44,M,39,CLR,M,M,M,M,M,M,11.52
0CO,6/19/24,11:55:00 AM,28.4,21.2,74.08,130,35,0,30.47,M,41,CLR,M,M,M,M,M,M,10.7
0CO,6/19/24,12:55:00 PM,28.4,23,79.92,130,33,0,30.48,M,43,SCT,M,M,M,8500,M,M,11.1
0CO,6/19/24,1:55:00 PM,32,26.6,80.22,130,36,0,30.48,M,43,SCT,M,M,M,8500,M,M,15.54
0CO,6/19/24,2:55:00 PM,32,28.4,86.39,150,22,0,30.51,M,35,SCT,BKN,M,M,1000,9000,M,18.58
0CO,6/19/24,3:55:00 PM,33.8,30.2,86.49,140,25,0,30.51,M,32,OVC,M,M,M,800,M,M,20.25
0CO,6/19/24,4:55:00 PM,35.6,30.2,80.51,150,26,0,30.53,M,40,CLR,M,M,M,M,M,M,22.47
0CO,6/19/24,5:55:00 PM,37.4,32,80.65,150,27,0,30.52,M,40,SCT,M,M,M,2100,M,M,24.7
0CO,6/19/24,6:55:00 PM,39.2,32,75.16,140,25,0,30.52,M,35,SCT,SCT,M,M,2100,2800,M,27.56
0CO,6/19/24,7:55:00 PM,41,32,70.08,M,M,0,30.52,M,M,SCT,BKN,M,M,1800,7000,M,M
0CO,6/19/24,9:55:00 PM,42.8,32,65.38,150,17,0,30.52,M,26,SCT,BKN,OVC,M,3000,3700,6000,34.22
0CO,6/19/24,10:55:00 PM,41,33.8,75.33,140,14,0,30.52,M,18,SCT,BKN,OVC,M,2400,3000,6000,32.76
0CO,6/19/24,11:55:00 PM,41,35.6,80.93,130,11,0,30.51,M,M,SCT,BKN,OVC,M,1400,3600,4300,33.84
0CO,6/19/24,12:55:00 AM,37.4,37.4,100,150,17,0.06,30.53,M,21,M,M,M,M,M,M,M,27.15
0CO,6/19/24,1:55:00 AM,37.4,35.6,93.14,160,15,0,30.55,M,19,M,M,M,M,M,M,M,27.78
0CO,6/19/24,2:55:00 AM,37.4,35.6,93.14,160,17,0,30.56,M,20,M,M,M,M,M,M,M,27.15
0CO,6/19/24,3:55:00 AM,37.4,35.6,93.14,140,14,0,30.59,M,18,OVC,M,M,M,100,M,M,28.12
0CO,6/19/24,4:55:00 AM,37.4,35.6,93.14,170,11,0,30.6,M,19,OVC,M,M,M,100,M,M,29.29
0CO,6/19/24,5:55:00 AM,35.6,35.6,100,170,19,0,30.61,M,M,BKN,BKN,OVC,M,100,2100,8500,24.2
0CO,6/19/24,6:55:00 AM,37.4,33.8,86.69,150,15,0,30.58,M,20,M,M,M,M,M,M,M,27.78
0CO,6/19/24,7:55:00 AM,37.4,33.8,86.69,160,16,0,30.58,M,20,M,M,M,M,M,M,M,27.46
0CO,6/19/24,8:55:00 AM,37.4,33.8,86.69,150,17,0,30.57,M,24,M,M,M,M,M,M,M,27.15
0CO,6/20/24,9:55:00 AM,37.4,33.8,86.69,150,6,0,30.58,M,20,CLR,M,M,M,M,M,M,32.03
0CO,6/20/24,10:55:00 AM,39.2,32,75.16,230,11,0,30.58,M,19,CLR,M,M,M,M,M,M,31.57
0CO,6/20/24,11:55:00 AM,41,32,70.08,220,5,0,30.6,M,18,CLR,M,M,M,M,M,M,37.08
0CO,6/20/24,12:55:00 PM,41,32,70.08,170,12,0,30.62,M,19,CLR,M,M,M,M,M,M,33.46
0CO,6/20/24,1:55:00 PM,42.8,33.8,70.28,210,9,0,30.64,M,18,CLR,M,M,M,M,M,M,36.94
0CO,6/20/24,2:55:00 PM,44.6,33.8,65.61,200,11,0,30.66,M,15,CLR,M,M,M,M,M,M,38.39
0CO,6/20/24,3:55:00 PM,46.4,32,57,210,11,0,30.68,M,17,SCT,M,M,M,3000,M,M,40.66
0CO,6/20/24,4:55:00 PM,48.2,32,53.27,200,10,0,30.69,M,18,SCT,M,M,M,3900,M,M,43.28
0CO,6/20/24,5:55:00 PM,50,32,49.81,240,13,0,30.69,M,22,SCT,BKN,BKN,M,4400,5000,6500,50
0CO,6/20/24,6:55:00 PM,50,32,49.81,240,14,0,30.68,M,25,SCT,BKN,BKN,M,5000,5500,7000,50
0CO,6/20/24,7:55:00 PM,53.6,32,43.61,250,26,0,30.66,M,32,SCT,SCT,M,M,5000,7500,M,53.6
0CO,6/20/24,8:55:00 PM,50,28.4,43.03,270,8,0,30.67,M,20,SCT,BKN,M,M,10000,12000,M,50
0CO,6/20/24,9:55:00 PM,46.4,32,57,240,24,0,30.67,M,42,SCT,SCT,BKN,M,3000,4100,5000,37.49
0CO,6/20/24,10:55:00 PM,46.4,32,57,230,4,0,30.62,M,14,SCT,SCT,SCT,M,4700,6500,9000,44.24
0CO,6/20/24,11:55:00 PM,46.4,33.8,61.28,240,10,0,30.65,M,16,OVC,M,M,M,4800,M,M,41.03
0CO,6/20/24,12:55:00 AM,42.8,33.8,70.28,220,6,0,30.65,M,M,SCT,OVC,M,M,7000,11000,M,38.54
0CO,6/20/24,1:55:00 AM,44.6,33.8,65.61,260,10,0,30.64,M,M,CLR,M,M,M,M,M,M,38.77
0CO,6/20/24,2:55:00 AM,33.8,33.8,100,270,18,0.02,30.67,M,42,M,M,M,M,M,M,M,22.12
0CO,6/20/24,3:55:00 AM,35.6,33.8,93.08,320,13,0.03,30.66,M,21,M,M,M,M,M,M,M,26.18
0CO,6/20/24,4:55:00 AM,37.4,33.8,86.69,270,17,0,30.67,M,24,M,M,M,M,M,M,M,27.15
0CO,6/20/24,5:55:00 AM,35.6,33.8,93.08,260,7,0,30.66,M,22,M,M,M,M,M,M,M,29.17
0CO,6/20/24,6:55:00 AM,37.4,32,80.65,190,15,0,30.59,M,22,BKN,BKN,M,M,10000,12000,M,27.78
0CO,6/20/24,7:55:00 AM,37.4,32,80.65,250,14,0,30.58,M,20,SCT,SCT,OVC,M,5500,7000,9000,28.12
0CO,6/20/24,8:55:00 AM,41,32,70.08,280,11,0,30.58,M,17,SCT,OVC,M,M,10000,12000,M,33.84
0CO,6/21/24,9:55:00 AM,39.2,32,75.16,260,7,0,30.58,M,M,BKN,M,M,M,11000,M,M,33.56
0CO,6/21/24,10:55:00 AM,39.2,32,75.16,270,7,0,30.58,M,23,BKN,M,M,M,11000,M,M,33.56
0CO,6/21/24,11:55:00 AM,41,32,70.08,250,7,0,30.58,M,23,OVC,M,M,M,10000,M,M,35.75
0CO,6/21/24,12:55:00 PM,39.2,32,75.16,310,11,0,30.59,M,17,OVC,M,M,M,10000,M,M,31.57
0CO,6/21/24,1:55:00 PM,35.6,33.8,93.08,310,17,0,30.58,M,25,M,M,M,M,M,M,M,24.79
0CO,6/21/24,2:55:00 PM,39.2,35.6,86.79,320,12,0,30.6,M,19,M,M,M,M,M,M,M,31.17
0CO,6/21/24,3:55:00 PM,41,37.4,86.89,300,10,0,30.6,M,21,M,M,M,M,M,M,M,34.25
0CO,6/21/24,4:55:00 PM,42.8,37.4,81.07,300,10,0,30.62,M,16,CLR,M,M,M,M,M,M,36.51
0CO,6/21/24,5:55:00 PM,48.2,33.8,57.26,300,15,0,30.63,M,31,SCT,SCT,M,M,3300,12000,M,41.78
0CO,6/21/24,6:55:00 PM,46.4,39.2,75.84,340,8,0,30.63,M,21,SCT,SCT,BKN,M,1900,2900,3800,41.85
0CO,6/21/24,7:55:00 PM,46.4,37.4,70.68,300,10,0,30.64,M,23,SCT,SCT,OVC,M,1200,1700,7000,41.03
0CO,6/21/24,8:55:00 PM,44.6,37.4,75.68,310,16,0,30.62,M,20,SCT,BKN,M,M,4600,6000,M,36.84
0CO,6/21/24,9:55:00 PM,48.2,32,53.27,290,23,0,30.6,M,31,SCT,M,M,M,7500,M,M,40.09
0CO,6/21/24,10:55:00 PM,50,32,49.81,310,22,0,30.56,M,26,SCT,BKN,M,M,4300,5000,M,50
0CO,6/21/24,11:55:00 PM,48.2,32,53.27,290,27,0,30.55,M,35,CLR,M,M,M,M,M,M,39.42
0CO,6/21/24,12:55:00 AM,46.4,30.2,53,M,M,0,30.56,M,M,CLR,M,M,M,M,M,M,M
0CO,6/21/24,1:55:00 AM,44.6,32,61.03,280,21,0,30.58,M,31,SCT,M,M,M,11000,M,M,35.66
0CO,6/21/24,2:55:00 AM,42.8,33.8,70.28,310,19,0,30.58,M,30,SCT,SCT,OVC,M,2300,3200,9000,33.72
0CO,6/21/24,3:55:00 AM,35.6,33.8,93.08,340,14,0,30.64,M,26,BKN,BKN,OVC,M,300,1700,3400,25.8
0CO,6/21/24,4:55:00 AM,33.8,32,93.03,300,25,0.06,30.63,M,34,M,M,M,M,M,M,M,20.25
0CO,6/21/24,5:55:00 AM,39.2,30.2,69.88,280,23,0,30.59,M,32,SCT,M,M,M,10000,M,M,27.99
0CO,6/21/24,6:55:00 AM,39.2,30.2,69.88,290,22,0,30.58,M,32,CLR,M,M,M,M,M,M,28.22
0CO,6/21/24,7:55:00 AM,39.2,28.4,64.93,280,19,0,30.58,M,33,CLR,M,M,M,M,M,M,28.96
0CO,6/21/24,8:55:00 AM,37.4,26.6,64.7,300,22,0,30.56,M,30,CLR,M,M,M,M,M,M,25.81
0CO,6/22/24,9:55:00 AM,37.4,26.6,64.7,290,22,0,30.56,M,33,CLR,M,M,M,M,M,M,25.81
0CO,6/22/24,10:55:00 AM,37.4,24.8,60.04,300,24,0,30.57,M,32,CLR,M,M,M,M,M,M,25.34
0CO,6/22/24,11:55:00 AM,37.4,24.8,60.04,290,21,0,30.6,M,27,CLR,M,M,M,M,M,M,26.06
0CO,6/22/24,12:55:00 PM,39.2,24.8,55.95,300,17,0,30.62,M,30,CLR,M,M,M,M,M,M,29.51
0CO,6/22/24,1:55:00 PM,39.2,28.4,64.93,290,21,0,30.63,M,32,CLR,M,M,M,M,M,M,28.46
0CO,6/22/24,2:55:00 PM,42.8,28.4,56.48,300,19,0,30.65,M,37,CLR,M,M,M,M,M,M,33.72
0CO,6/22/24,3:55:00 PM,42.8,32,65.38,300,15,0,30.67,M,28,CLR,M,M,M,M,M,M,34.78
0CO,6/22/24,4:55:00 PM,46.4,30.2,53,300,24,0,30.68,M,30,CLR,M,M,M,M,M,M,37.49
0CO,6/22/24,5:55:00 PM,46.4,30.2,53,280,29,0,30.69,M,35,SCT,M,M,M,4300,M,M,36.65
0CO,6/22/24,6:55:00 PM,50,28.4,43.03,290,21,0,30.71,M,34,SCT,SCT,SCT,M,4800,5000,7500,50
0CO,6/22/24,7:55:00 PM,48.2,28.4,46.02,290,16,0,30.71,M,27,SCT,OVC,M,M,6000,7500,M,41.53
0CO,6/22/24,8:55:00 PM,50,28.4,43.03,290,18,0,30.7,M,M,SCT,SCT,BKN,M,5500,6500,8000,50
0CO,6/22/24,9:55:00 PM,46.4,32,57,340,8,0,30.71,M,16,SCT,SCT,BKN,M,6500,7500,10000,41.85
0CO,6/22/24,10:55:00 PM,41,32,70.08,330,25,0,30.71,M,35,SCT,SCT,BKN,M,4500,6000,10000,30
0CO,6/22/24,11:55:00 PM,37.4,33.8,86.69,330,23,0,30.73,M,28,SCT,BKN,OVC,M,1900,4000,5000,25.57
0CO,6/22/24,12:55:00 AM,37.4,33.8,86.69,290,18,0,30.71,M,27,SCT,BKN,OVC,M,2200,8500,12000,26.86
0CO,6/22/24,1:55:00 AM,44.6,30.2,56.74,280,21,0,30.71,M,31,CLR,M,M,M,M,M,M,35.66
0CO,6/22/24,2:55:00 AM,41,30.2,65.16,290,20,0,30.71,M,24,CLR,M,M,M,M,M,M,31.09
0CO,6/22/24,3:55:00 AM,42.8,28.4,56.48,290,18,0,30.72,M,23,CLR,M,M,M,M,M,M,33.97
0CO,6/22/24,4:55:00 AM,42.8,26.6,52.45,290,16,0,30.72,M,22,CLR,M,M,M,M,M,M,34.5
0CO,6/22/24,5:55:00 AM,42.8,26.6,52.45,290,17,0,30.72,M,21,CLR,M,M,M,M,M,M,34.22
0CO,6/22/24,6:55:00 AM,42.8,26.6,52.45,290,19,0,30.71,M,M,CLR,M,M,M,M,M,M,33.72
0CO,6/22/24,7:55:00 AM,42.8,28.4,56.48,M,M,0,30.69,M,M,CLR,M,M,M,M,M,M,M
0CO,6/22/24,8:55:00 AM,42.8,28.4,56.48,290,19,0,30.69,M,27,CLR,M,M,M,M,M,M,33.72
0CO,6/23/24,9:55:00 AM,42.8,28.4,56.48,290,16,0,30.69,M,24,CLR,M,M,M,M,M,M,34.5
0CO,6/23/24,10:55:00 AM,41,30.2,65.16,290,15,0,30.7,M,20,CLR,M,M,M,M,M,M,32.45
0CO,6/23/24,11:55:00 AM,41,32,70.08,290,18,0,30.71,M,M,CLR,M,M,M,M,M,M,31.6
0CO,6/23/24,12:55:00 PM,42.8,32,65.38,290,15,0,30.72,M,M,CLR,M,M,M,M,M,M,34.78
0CO,6/23/24,1:55:00 PM,44.6,32,61.03,290,16,0,30.73,M,24,CLR,M,M,M,M,M,M,36.84
0CO,6/23/24,2:55:00 PM,46.4,32,57,310,10,0,30.74,M,22,CLR,M,M,M,M,M,M,41.03
0CO,6/23/24,3:55:00 PM,50,33.8,53.54,340,10,0,30.74,M,21,CLR,M,M,M,M,M,M,50
0CO,6/23/24,4:55:00 PM,51.8,35.6,53.81,300,10,0,30.75,M,17,CLR,M,M,M,M,M,M,51.8
0CO,6/23/24,5:55:00 PM,51.8,35.6,53.81,330,6,0,30.76,M,18,SCT,M,M,M,4600,M,M,51.8
0CO,6/23/24,6:55:00 PM,53.6,33.8,46.88,350,8,0,30.74,M,18,SCT,SCT,SCT,M,4400,5500,7000,53.6
0CO,6/23/24,7:55:00 PM,53.6,32,43.61,350,6,0,30.74,M,20,SCT,SCT,M,M,5000,7500,M,53.6
0CO,6/23/24,8:55:00 PM,53.6,30.2,40.54,300,12,0,30.72,M,19,SCT,BKN,M,M,6500,7500,M,53.6
0CO,6/23/24,9:55:00 PM,55.4,32,40.84,340,11,0,30.71,M,18,BKN,BKN,M,M,6500,7500,M,55.4
0CO,6/23/24,10:55:00 PM,57.2,32,38.26,320,17,0,30.7,M,21,CLR,M,M,M,M,M,M,57.2
0CO,6/23/24,12:55:00 AM,51.8,30.2,43.32,320,12,0,30.69,M,19,CLR,M,M,M,M,M,M,51.8
0CO,6/23/24,1:55:00 AM,51.8,30.2,43.32,340,8,0,30.68,M,M,SCT,M,M,M,11000,M,M,51.8
0CO,6/23/24,2:55:00 AM,48.2,30.2,49.53,330,5,0,30.69,M,M,CLR,M,M,M,M,M,M,45.63
0CO,6/23/24,3:55:00 AM,48.2,28.4,46.02,300,7,0,30.71,M,M,M,M,M,M,M,M,M,44.53
0CO,6/23/24,4:55:00 AM,48.2,32,53.27,290,8,0,30.71,M,M,OVC,M,M,M,8500,M,M,44.07
0CO,6/23/24,5:55:00 AM,48.2,32,53.27,290,11,0,30.7,M,M,BKN,BKN,M,M,7500,9000,M,42.94
0CO,6/23/24,6:55:00 AM,48.2,32,53.27,280,13,0,30.68,M,M,SCT,SCT,BKN,M,6500,8000,9000,42.32
0CO,6/23/24,7:55:00 AM,46.4,32,57,260,9,0,30.67,M,14,SCT,M,M,M,6500,M,M,41.42
0CO,6/23/24,8:55:00 AM,46.4,30.2,53,290,16,0,30.66,M,20,CLR,M,M,M,M,M,M,39.19
0CO,6/23/24,9:55:00 AM,44.6,30.2,56.74,290,21,0,30.64,M,25,CLR,M,M,M,M,M,M,35.66
0CO,6/24/24,10:55:00 AM,44.6,32,61.03,290,22,0,30.64,M,M,CLR,M,M,M,M,M,M,35.45
0CO,6/24/24,11:55:00 AM,44.6,32,61.03,M,M,0,30.65,M,M,CLR,M,M,M,M,M,M,M
0CO,6/24/24,12:55:00 PM,44.6,32,61.03,300,25,0,30.65,M,34,CLR,M,M,M,M,M,M,34.87
0CO,6/24/24,1:55:00 PM,46.4,32,57,290,14,0,30.68,M,23,CLR,M,M,M,M,M,M,39.72
0CO,6/24/24,2:55:00 PM,48.2,33.8,57.26,330,7,0,30.69,M,20,CLR,M,M,M,M,M,M,44.53
0CO,6/24/24,3:55:00 PM,50,35.6,57.52,360,8,0,30.69,M,M,CLR,M,M,M,M,M,M,50
0CO,6/24/24,4:55:00 PM,51.8,35.6,53.81,360,6,0,30.7,M,17,SCT,M,M,M,11000,M,M,51.8
0CO,6/24/24,5:55:00 PM,53.6,37.4,54.07,10,5,0,30.7,M,18,SCT,M,M,M,4000,M,M,53.6
0CO,6/24/24,6:55:00 PM,53.6,35.6,50.36,340,12,0,30.69,M,21,BKN,BKN,M,M,10000,11000,M,53.6
0CO,6/24/24,7:55:00 PM,53.6,32,43.61,320,15,0,30.67,M,24,SCT,M,M,M,5000,M,M,53.6
0CO,6/24/24,8:55:00 PM,55.4,32,40.84,10,8,0,30.67,M,M,SCT,SCT,BKN,M,6000,7000,8500,55.4
0CO,6/24/24,9:55:00 PM,51.8,32,46.59,360,7,0,30.66,M,22,SCT,SCT,BKN,M,3600,6500,8000,51.8
0CO,6/24/24,10:55:00 PM,53.6,30.2,40.54,M,M,0,30.64,M,M,CLR,M,M,M,M,M,M,53.6
0CO,6/24/24,11:55:00 PM,51.8,32,46.59,300,21,0,30.64,M,26,SCT,BKN,M,M,9000,12000,M,51.8
0CO,6/24/24,12:55:00 AM,44.6,33.8,65.61,10,8,0,30.66,M,28,CLR,M,M,M,M,M,M,39.63
0CO,6/24/24,1:55:00 AM,42.8,33.8,70.28,300,5,0,30.67,M,M,CLR,M,M,M,M,M,M,39.22
0CO,6/24/24,2:55:00 AM,46.4,30.2,53,280,22,0,30.65,M,26,CLR,M,M,M,M,M,M,37.86
0CO,6/24/24,3:55:00 AM,46.4,26.6,45.73,280,18,0,30.66,M,25,CLR,M,M,M,M,M,M,38.7
0CO,6/24/24,4:55:00 AM,46.4,26.6,45.73,280,15,0,30.67,M,24,CLR,M,M,M,M,M,M,39.45
0CO,6/24/24,5:55:00 AM,44.6,28.4,52.72,290,9,0,30.66,M,M,SCT,M,M,M,12000,M,M,39.18
0CO,6/24/24,6:55:00 AM,44.6,30.2,56.74,300,13,0,30.66,M,21,CLR,M,M,M,M,M,M,37.71
0CO,6/24/24,7:55:00 AM,44.6,28.4,52.72,290,16,0,30.65,M,22,CLR,M,M,M,M,M,M,36.84
0CO,6/24/24,8:55:00 AM,44.6,28.4,52.72,290,18,0,30.64,M,25,CLR,M,M,M,M,M,M,36.34
0CO,6/24/24,9:55:00 AM,44.6,28.4,52.72,300,20,0,30.64,M,25,SCT,M,M,M,11000,M,M,35.87
0CO,6/25/24,10:55:00 AM,44.6,30.2,56.74,310,22,0,30.66,M,M,CLR,M,M,M,M,M,M,35.45
0CO,6/25/24,11:55:00 AM,44.6,28.4,52.72,310,23,0,30.66,M,M,CLR,M,M,M,M,M,M,35.25
0CO,6/25/24,12:55:00 PM,46.4,26.6,45.73,310,22,0,30.66,M,27,CLR,M,M,M,M,M,M,37.86
0CO,6/25/24,1:55:00 PM,50,24.8,37.08,320,15,0,30.69,M,26,CLR,M,M,M,M,M,M,50
0CO,6/25/24,2:55:00 PM,51.8,26.6,37.38,320,15,0,30.7,M,23,CLR,M,M,M,M,M,M,51.8
0CO,6/25/24,3:55:00 PM,51.8,23,32.17,290,16,0,30.71,M,34,CLR,M,M,M,M,M,M,51.8
0CO,6/25/24,4:55:00 PM,55.4,23,28.2,310,23,0,30.71,M,29,CLR,M,M,M,M,M,M,55.4
0CO,6/25/24,5:55:00 PM,55.4,24.8,30.4,10,5,0,30.74,M,28,SCT,M,M,M,8000,M,M,55.4
0CO,6/25/24,6:55:00 PM,55.4,21.2,26.13,290,15,0,30.74,M,34,SCT,M,M,M,8000,M,M,55.4
0CO,6/25/24,7:55:00 PM,57.2,19.4,22.68,280,15,0,30.73,M,26,SCT,M,M,M,9000,M,M,57.2
0CO,6/25/24,8:55:00 PM,55.4,26.6,32.76,20,6,0,30.73,M,M,OVC,M,M,M,9000,M,M,55.4
0CO,6/25/24,9:55:00 PM,42.8,37.4,81.07,80,9,0,30.75,M,20,SCT,SCT,OVC,M,4000,5000,7000,36.94
0CO,6/25/24,10:55:00 PM,44.6,35.6,70.48,320,6,0,30.75,M,M,SCT,BKN,M,M,10000,12000,M,40.71
0CO,6/25/24,11:55:00 PM,53.6,32,43.61,290,17,0,30.72,M,23,CLR,M,M,M,M,M,M,53.6
0CO,6/25/24,12:55:00 AM,51.8,28.4,40.25,300,20,0,30.72,M,26,OVC,M,M,M,10000,M,M,51.8
0CO,6/25/24,1:55:00 AM,51.8,32,46.59,310,18,0,30.74,M,23,SCT,BKN,OVC,M,5000,7500,9000,51.8
0CO,6/25/24,2:55:00 AM,46.4,35.6,65.83,360,7,0,30.74,M,22,SCT,BKN,M,M,9000,12000,M,42.33
0CO,6/25/24,3:55:00 AM,44.6,35.6,70.48,300,7,0,30.75,M,14,OVC,M,M,M,11000,M,M,40.14
0CO,6/25/24,4:55:00 AM,48.2,32,53.27,300,9,0,30.77,M,M,BKN,OVC,M,M,9000,12000,M,43.66
0CO,6/25/24,5:55:00 AM,50,32,49.81,290,9,0,30.77,M,15,OVC,M,M,M,10000,M,M,50
0CO,6/25/24,6:55:00 AM,48.2,32,53.27,280,8,0,30.77,M,M,OVC,M,M,M,10000,M,M,44.07
0CO,6/25/24,7:55:00 AM,46.4,30.2,53,270,10,0,30.75,M,14,CLR,M,M,M,M,M,M,41.03
0CO,6/25/24,8:55:00 AM,48.2,30.2,49.53,240,4,0,30.75,M,M,CLR,M,M,M,M,M,M,46.34
0CO,6/25/24,9:55:00 AM,48.2,30.2,49.53,310,7,0,30.74,M,M,CLR,M,M,M,M,M,M,44.53
0CO,6/26/24,10:55:00 AM,48.2,32,53.27,300,5,0,30.74,M,M,CLR,M,M,M,M,M,M,45.63
0CO,6/26/24,11:55:00 AM,48.2,30.2,49.53,260,11,0,30.74,M,M,CLR,M,M,M,M,M,M,42.94
0CO,6/26/24,12:55:00 PM,50,30.2,46.31,150,8,0,30.74,M,M,CLR,M,M,M,M,M,M,50
0CO,6/26/24,1:55:00 PM,50,32,49.81,160,7,0,30.75,M,M,CLR,M,M,M,M,M,M,50
0CO,6/26/24,2:55:00 PM,51.8,32,46.59,170,7,0,30.75,M,M,CLR,M,M,M,M,M,M,51.8
0CO,6/26/24,3:55:00 PM,53.6,32,43.61,150,13,0,30.75,M,18,CLR,M,M,M,M,M,M,53.6
0CO,6/26/24,4:55:00 PM,55.4,33.8,43.9,140,13,0,30.74,M,M,SCT,M,M,M,8000,M,M,55.4
0CO,6/26/24,5:55:00 PM,55.4,35.6,47.16,M,M,0,30.73,M,M,SCT,SCT,M,M,7500,8500,M,55.4
0CO,6/26/24,6:55:00 PM,50,39.2,66.27,M,M,0,30.72,M,M,BKN,OVC,M,M,7000,8000,M,50
0CO,6/26/24,7:55:00 PM,51.8,41,66.48,120,9,0,30.71,M,19,SCT,BKN,OVC,M,6000,7000,10000,51.8
0CO,6/26/24,8:55:00 PM,50,37.4,61.76,190,13,0,30.7,M,26,SCT,BKN,OVC,M,3200,4400,10000,50
0CO,6/26/24,9:55:00 PM,53.6,33.8,46.88,160,26,0,30.69,M,34,SCT,BKN,OVC,M,6000,7000,8000,53.6
0CO,6/26/24,10:55:00 PM,51.8,35.6,53.81,300,8,0,30.7,M,18,SCT,BKN,OVC,M,4700,5500,7000,51.8
0CO,6/26/24,11:55:00 PM,48.2,37.4,66.05,270,13,0,30.66,M,26,SCT,SCT,OVC,M,3100,4000,8500,42.32
0CO,6/26/24,12:55:00 AM,42.8,42.8,100,320,8,0,30.67,M,M,BKN,BKN,OVC,M,100,5500,7500,37.42
0CO,6/26/24,1:55:00 AM,41,41,100,310,8,0,30.66,M,15,OVC,M,M,M,100,M,M,35.2
0CO,6/26/24,2:55:00 AM,41,39.2,93.24,290,16,0,30.65,M,19,M,M,M,M,M,M,M,32.15
0CO,6/26/24,3:55:00 AM,44.6,37.4,75.68,200,6,0,30.65,M,M,SCT,SCT,M,M,9500,12000,M,40.71
0CO,6/26/24,4:55:00 AM,44.6,37.4,75.68,180,9,0,30.64,M,17,BKN,M,M,M,8000,M,M,39.18
0CO,6/26/24,5:55:00 AM,42.8,35.6,75.5,240,4,0,30.62,M,M,SCT,M,M,M,7000,M,M,40.03
0CO,6/26/24,6:55:00 AM,44.6,35.6,70.48,280,17,0,30.6,M,21,CLR,M,M,M,M,M,M,36.58
0CO,6/26/24,7:55:00 AM,44.6,35.6,70.48,280,19,0,30.58,M,24,SCT,M,M,M,8500,M,M,36.1
0CO,6/26/24,8:55:00 AM,41,35.6,80.93,330,7,0,30.56,M,23,CLR,M,M,M,M,M,M,35.75
0CO,6/26/24,9:55:00 AM,41,39.2,93.24,300,7,0,30.55,M,22,OVC,M,M,M,100,M,M,35.75
0CO,6/27/24,10:55:00 AM,39.2,39.2,100,280,10,0,30.54,M,15,OVC,M,M,M,100,M,M,32
0CO,6/27/24,11:55:00 AM,42.8,37.4,81.07,290,27,0,30.51,M,34,SCT,SCT,BKN,M,4200,6000,7000,32.06
0CO,6/27/24,12:55:00 PM,42.8,37.4,81.07,290,26,0,30.51,M,33,M,M,M,M,M,M,M,32.25
0CO,6/27/24,1:55:00 PM,42.8,37.4,81.07,290,29,0.02,30.5,M,46,SCT,BKN,OVC,M,2800,7500,9500,31.72
0CO,6/27/24,2:55:00 PM,42.8,37.4,81.07,310,24,0,30.49,M,42,BKN,BKN,BKN,M,1400,2000,2800,32.63
0CO,6/27/24,3:55:00 PM,44.6,39.2,81.2,290,26,0,30.48,M,37,BKN,OVC,M,M,1000,1700,M,34.69
0CO,6/27/24,4:55:00 PM,46.4,37.4,70.68,300,25,0,30.47,M,35,SCT,BKN,M,M,1900,2500,M,37.31
0CO,6/27/24,5:55:00 PM,44.6,37.4,75.68,320,19,0,30.48,M,42,BKN,BKN,M,M,1900,2700,M,36.1
0CO,6/27/24,6:55:00 PM,48.2,35.6,61.52,310,26,0,30.46,M,38,SCT,SCT,M,M,2800,3700,M,39.58
0CO,6/27/24,7:55:00 PM,50,35.6,57.52,290,32,0,30.46,M,51,SCT,SCT,SCT,M,3000,3500,4500,50
0CO,6/27/24,8:55:00 PM,51.8,35.6,53.81,300,26,0,30.46,M,38,SCT,SCT,SCT,M,3200,3800,4500,51.8
0CO,6/27/24,9:55:00 PM,51.8,35.6,53.81,M,M,0,30.44,M,M,SCT,SCT,M,M,4700,5500,M,51.8
0CO,6/27/24,10:55:00 PM,50,37.4,61.76,320,16,0,30.45,M,21,SCT,BKN,BKN,M,4300,5000,7000,50
0CO,6/27/24,11:55:00 PM,48.2,35.6,61.52,340,15,0,30.43,M,30,SCT,SCT,BKN,M,2500,3500,4600,41.78
0CO,6/27/24,12:55:00 AM,37.4,33.8,86.69,340,28,0.03,30.43,M,34,M,M,M,M,M,M,M,24.5
0CO,6/27/24,1:55:00 AM,35.6,35.6,100,310,19,0.08,30.5,M,29,M,M,M,M,M,M,M,24.2
0CO,6/27/24,2:55:00 AM,35.6,33.8,93.08,280,21,0.04,30.43,M,28,M,M,M,M,M,M,M,23.65
0CO,6/27/24,3:55:00 AM,41,32,70.08,280,27,0,30.41,M,33,SCT,M,M,M,12000,M,M,29.61
0CO,6/27/24,4:55:00 AM,39.2,33.8,80.79,310,20,0,30.41,M,27,OVC,M,M,M,10000,M,M,28.7
0CO,6/27/24,5:55:00 AM,35.6,33.8,93.08,320,8,0,30.41,M,24,M,M,M,M,M,M,M,28.55
0CO,6/27/24,6:55:00 AM,35.6,35.6,100,310,8,0,30.4,M,20,OVC,M,M,M,100,M,M,28.55
0CO,6/27/24,7:55:00 AM,35.6,33.8,93.08,330,18,0,30.38,M,26,OVC,M,M,M,100,M,M,24.49
0CO,6/27/24,8:55:00 AM,35.6,35.6,100,300,24,0,30.36,M,28,M,M,M,M,M,M,M,22.92
0CO,6/27/24,9:55:00 AM,37.4,33.8,86.69,300,25,0,30.38,M,34,CLR,M,M,M,M,M,M,25.12
0CO,6/28/24,10:55:00 AM,35.6,33.8,93.08,300,21,0,30.41,M,27,M,M,M,M,M,M,M,23.65
0CO,6/28/24,11:55:00 AM,35.6,33.8,93.08,310,22,0,30.41,M,32,OVC,M,M,M,700,M,M,23.4
0CO,6/28/24,12:55:00 PM,35.6,33.8,93.08,310,23,0.03,30.41,M,M,OVC,M,M,M,100,M,M,23.15
0CO,6/28/24,1:55:00 PM,39.2,32,75.16,290,26,0,30.38,M,38,CLR,M,M,M,M,M,M,27.36
0CO,6/28/24,2:55:00 PM,41,32,70.08,280,32,0,30.39,M,41,CLR,M,M,M,M,M,M,28.74
0CO,6/28/24,3:55:00 PM,42.8,35.6,75.5,280,24,0,30.41,M,34,SCT,M,M,M,2300,M,M,32.63
0CO,6/28/24,4:55:00 PM,44.6,35.6,70.48,300,27,0,30.41,M,40,SCT,BKN,M,M,2300,3000,M,34.52
0CO,6/28/24,5:55:00 PM,46.4,35.6,65.83,310,24,0,30.43,M,31,BKN,OVC,M,M,2800,3600,M,37.49
0CO,6/28/24,6:55:00 PM,46.4,33.8,61.28,280,28,0,30.43,M,43,BKN,OVC,M,M,3300,3900,M,36.81
0CO,6/28/24,7:55:00 PM,50,33.8,53.54,300,35,0,30.44,M,47,CLR,M,M,M,M,M,M,50
0CO,6/28/24,8:55:00 PM,50,33.8,53.54,300,27,0,30.45,M,38,SCT,BKN,M,M,4100,5000,M,50
0CO,6/28/24,9:55:00 PM,51.8,33.8,50.08,300,27,0,30.44,M,43,SCT,BKN,BKN,M,4200,5000,6000,51.8
0CO,6/28/24,10:55:00 PM,51.8,32,46.59,280,23,0,30.48,M,44,SCT,SCT,SCT,M,4500,5000,7500,51.8
0CO,6/28/24,11:55:00 PM,51.8,32,46.59,280,30,0,30.48,M,45,SCT,SCT,SCT,M,4900,6000,7000,51.8
0CO,6/28/24,12:55:00 AM,48.2,32,53.27,290,28,0,30.52,M,38,SCT,SCT,BKN,M,4100,5000,7000,39.27
0CO,6/28/24,1:55:00 AM,46.4,32,57,280,25,0,30.53,M,38,SCT,SCT,M,M,8000,11000,M,37.31
0CO,6/28/24,2:55:00 AM,41,35.6,80.93,290,18,0.04,30.53,M,25,M,M,M,M,M,M,M,31.6
0CO,6/28/24,3:55:00 AM,42.8,32,65.38,280,28,0,30.55,M,44,CLR,M,M,M,M,M,M,31.89
0CO,6/28/24,4:55:00 AM,42.8,32,65.38,290,17,0,30.58,M,25,CLR,M,M,M,M,M,M,34.22
0CO,6/28/24,5:55:00 AM,41,32,70.08,250,9,0,30.59,M,22,CLR,M,M,M,M,M,M,34.7
0CO,6/28/24,6:55:00 AM,42.8,32,65.38,250,8,0,30.61,M,M,OVC,M,M,M,10000,M,M,37.42
0CO,6/28/24,7:55:00 AM,41,32,70.08,250,4,0,30.6,M,16,SCT,M,M,M,11000,M,M,37.93
0CO,6/28/24,8:55:00 AM,42.8,30.2,60.79,260,22,0,30.6,M,25,BKN,M,M,M,12000,M,M,33.04
0CO,6/28/24,9:55:00 AM,41,30.2,65.16,250,7,0,30.62,M,M,SCT,M,M,M,11000,M,M,35.75
0CO,6/29/24,10:55:00 AM,41,32,70.08,240,14,0,30.63,M,19,SCT,M,M,M,11000,M,M,32.76
0CO,6/29/24,11:55:00 AM,39.2,32,75.16,260,8,0,30.65,M,16,SCT,M,M,M,11000,M,M,32.98
0CO,6/29/24,12:55:00 PM,41,32,70.08,270,7,0,30.66,M,14,SCT,M,M,M,10000,M,M,35.75
0CO,6/29/24,1:55:00 PM,42.8,30.2,60.79,270,7,0,30.68,M,M,SCT,M,M,M,12000,M,M,37.94
0CO,6/29/24,2:55:00 PM,44.6,32,61.03,250,8,0,30.7,M,M,BKN,OVC,M,M,8500,11000,M,39.63
0CO,6/29/24,3:55:00 PM,46.4,32,57,250,6,0,30.71,M,M,OVC,M,M,M,11000,M,M,42.87
0CO,6/29/24,4:55:00 PM,50,32,49.81,250,7,0,30.73,M,24,SCT,M,M,M,9000,M,M,50
0CO,6/29/24,5:55:00 PM,51.8,30.2,43.32,230,8,0,30.74,M,21,SCT,BKN,BKN,M,5500,7000,9000,51.8
0CO,6/29/24,6:55:00 PM,53.6,28.4,37.67,240,9,0,30.75,M,22,SCT,BKN,M,M,5500,7000,M,53.6
0CO,6/29/24,7:55:00 PM,53.6,32,43.61,330,6,0,30.75,M,M,BKN,OVC,M,M,6000,8000,M,53.6
0CO,6/29/24,8:55:00 PM,57.2,32,38.26,310,9,0,30.75,M,21,SCT,SCT,BKN,M,6000,6500,9000,57.2
0CO,6/29/24,9:55:00 PM,55.4,33.8,43.9,0,0,0,30.75,M,M,SCT,BKN,BKN,M,6000,10000,12000,55.4
0CO,6/29/24,10:55:00 PM,51.8,35.6,53.81,150,14,0,30.74,M,20,SCT,BKN,M,M,8000,10000,M,51.8
0CO,6/29/24,11:55:00 PM,46.4,37.4,70.68,M,M,0,30.73,M,M,SCT,BKN,BKN,M,7000,9000,12000,M
0CO,6/29/24,12:55:00 AM,44.6,41,87.09,M,M,0,30.73,M,M,M,M,M,M,M,M,M,M
0CO,6/29/24,1:55:00 AM,41,41,100,M,M,0.1,30.75,M,M,M,M,M,M,M,M,M,M
0CO,6/29/24,2:55:00 AM,42.8,35.6,75.5,180,10,0.01,30.77,M,15,SCT,BKN,OVC,M,2900,4500,5500,36.51
0CO,6/29/24,3:55:00 AM,42.8,37.4,81.07,M,M,0,30.78,M,M,M,M,M,M,M,M,M,M
0CO,6/29/24,4:55:00 AM,41,39.2,93.24,170,6,0,30.77,M,23,M,M,M,M,M,M,M,36.37
0CO,6/29/24,5:55:00 AM,42.8,37.4,81.07,150,6,0,30.77,M,M,BKN,M,M,M,12000,M,M,38.54
0CO,6/29/24,6:55:00 AM,42.8,35.6,75.5,250,12,0,30.76,M,M,OVC,M,M,M,10000,M,M,35.75
0CO,6/29/24,7:55:00 AM,44.6,35.6,70.48,240,10,0,30.75,M,M,OVC,M,M,M,10000,M,M,38.77
0CO,6/29/24,8:55:00 AM,46.4,33.8,61.28,290,13,0,30.74,M,M,OVC,M,M,M,10000,M,M,40.02
0CO,6/29/24,9:55:00 AM,44.6,33.8,65.61,290,9,0,30.74,M,15,OVC,M,M,M,9000,M,M,39.18
0CO,6/30/24,10:55:00 AM,44.6,33.8,65.61,290,16,0,30.74,M,M,CLR,M,M,M,M,M,M,36.84
0CO,6/30/24,11:55:00 AM,44.6,33.8,65.61,280,14,0,30.74,M,20,SCT,M,M,M,10000,M,M,37.4
0CO,6/30/24,12:55:00 PM,46.4,33.8,61.28,290,14,0,30.74,M,M,OVC,M,M,M,10000,M,M,39.72
0CO,6/30/24,1:55:00 PM,46.4,33.8,61.28,290,10,0,30.76,M,16,SCT,BKN,M,M,7500,10000,M,41.03
0CO,6/30/24,2:55:00 PM,50,37.4,61.76,300,9,0,30.77,M,M,BKN,BKN,M,M,7500,9000,M,50
0CO,6/30/24,3:55:00 PM,50,39.2,66.27,320,6,0,30.77,M,M,SCT,BKN,M,M,7000,8500,M,50
0CO,6/30/24,4:55:00 PM,51.8,41,66.48,330,5,0,30.78,M,M,BKN,BKN,M,M,6000,7000,M,51.8
0CO,6/30/24,5:55:00 PM,53.6,42.8,66.7,10,4,0,30.79,M,M,SCT,BKN,M,M,7500,9000,M,53.6
0CO,6/30/24,6:55:00 PM,51.8,42.8,71.26,340,5,0,30.78,M,M,SCT,BKN,OVC,M,2300,4600,6000,51.8
0CO,6/30/24,7:55:00 PM,53.6,41,62.23,90,6,0,30.76,M,M,SCT,BKN,BKN,M,5000,7000,8000,53.6
0CO,6/30/24,8:55:00 PM,50,42.8,76.18,130,10,0,30.74,M,17,SCT,BKN,OVC,M,2900,4900,9500,50
0CO,6/30/24,9:55:00 PM,51.8,39.2,61.99,260,4,0,30.74,M,M,SCT,BKN,OVC,M,3500,5000,8000,51.8
0CO,6/30/24,10:55:00 PM,51.8,41,66.48,140,4,0.01,30.71,M,M,SCT,BKN,SCT,M,3800,4500,5500,51.8
0CO,6/30/24,11:55:00 PM,50,41,71.07,170,10,0,30.7,M,19,SCT,OVC,M,M,4600,6000,M,50
0CO,6/30/24,12:55:00 AM,46.4,41,81.34,280,20,0,30.72,M,27,SCT,BKN,OVC,M,3000,3900,5500,38.26
0CO,6/30/24,1:55:00 AM,42.8,41,93.3,340,17,0.03,30.71,M,33,OVC,M,M,M,100,M,M,34.22
0CO,6/30/24,2:55:00 AM,44.6,35.6,70.48,280,21,0,30.69,M,M,SCT,BKN,BKN,M,5500,6500,9000,35.66
0CO,6/30/24,3:55:00 AM,42.8,39.2,86.99,250,26,0.01,30.72,M,37,OVC,M,M,M,3600,M,M,32.25
0CO,6/30/24,4:55:00 AM,42.8,37.4,81.07,240,6,0,30.7,M,M,SCT,BKN,OVC,M,4200,7500,10000,38.54
0CO,6/30/24,5:55:00 AM,44.6,37.4,75.68,280,21,0,30.68,M,29,CLR,M,M,M,M,M,M,35.66
0CO,6/30/24,6:55:00 AM,44.6,37.4,75.68,260,13,0,30.67,M,23,BKN,M,M,M,10000,M,M,37.71
0CO,6/30/24,7:55:00 AM,44.6,37.4,75.68,280,24,0,30.62,M,34,BKN,M,M,M,11000,M,M,35.06
0CO,6/30/24,8:55:00 AM,44.6,37.4,75.68,280,30,0,30.6,M,38,CLR,M,M,M,M,M,M,34.03
0CO,6/30/24,9:55:00 AM,42.8,37.4,81.07,260,21,0,30.61,M,26,SCT,M,M,M,10000,M,M,33.26
0CO,7/1/24,10:55:00 AM,44.6,35.6,70.48,270,25,0,30.6,M,33,BKN,M,M,M,11000,M,M,34.87
0CO,7/1/24,11:55:00 AM,44.6,33.8,65.61,260,23,0,30.61,M,26,SCT,SCT,M,M,7500,9500,M,35.25
0CO,7/1/24,12:55:00 PM,41,37.4,86.89,260,18,0.01,30.64,M,25,M,M,M,M,M,M,M,31.6
0CO,7/1/24,1:55:00 PM,41,37.4,86.89,250,8,0.02,30.6,M,M,M,M,M,M,M,M,M,35.2
0CO,7/1/24,2:55:00 PM,42.8,37.4,81.07,280,25,0,30.6,M,33,SCT,SCT,BKN,M,6000,7000,9000,32.43
0CO,7/1/24,3:55:00 PM,37.4,37.4,100,300,26,0.01,30.6,M,33,M,M,M,M,M,M,M,24.91
0CO,7/1/24,4:55:00 PM,39.2,35.6,86.79,280,24,0.03,30.58,M,27,OVC,M,M,M,2100,M,M,27.77
0CO,7/1/24,5:55:00 PM,44.6,39.2,81.2,290,21,0,30.56,M,37,SCT,SCT,BKN,M,1900,3900,8000,35.66
0CO,7/1/24,6:55:00 PM,46.4,37.4,70.68,290,20,0,30.55,M,30,SCT,BKN,BKN,M,2200,3300,10000,38.26
0CO,7/1/24,7:55:00 PM,50,37.4,61.76,M,M,0,30.55,M,M,SCT,BKN,BKN,M,2300,2800,3600,50
0CO,7/1/24,8:55:00 PM,44.6,39.2,81.2,280,18,0,30.55,M,27,SCT,BKN,OVC,M,2000,2600,4000,36.34
0CO,7/1/24,9:55:00 PM,50,33.8,53.54,270,24,0,30.52,M,37,SCT,SCT,M,M,3500,4300,M,50
0CO,7/1/24,10:55:00 PM,44.6,37.4,75.68,330,10,0,30.52,M,32,SCT,BKN,OVC,M,1000,3100,5000,38.77
0CO,7/1/24,11:55:00 PM,41,37.4,86.89,310,9,0,30.52,M,14,BKN,BKN,OVC,M,200,700,4500,34.7
0CO,7/1/24,12:55:00 AM,41,37.4,86.89,310,12,0,30.5,M,19,M,M,M,M,M,M,M,33.46
0CO,7/1/24,1:55:00 AM,41,37.4,86.89,250,6,0,30.52,M,M,M,M,M,M,M,M,M,36.37
0CO,7/1/24,2:55:00 AM,37.4,37.4,100,40,3,0,30.52,M,19,M,M,M,M,M,M,M,34.86
0CO,7/1/24,3:55:00 AM,41,35.6,80.93,230,9,0.02,30.53,M,15,M,M,M,M,M,M,M,34.7
0CO,7/1/24,4:55:00 AM,41,35.6,80.93,320,15,0,30.52,M,22,SCT,BKN,M,M,2500,3700,M,32.45
0CO,7/1/24,5:55:00 AM,37.4,35.6,93.14,350,15,0.01,30.52,M,24,OVC,M,M,M,100,M,M,27.78
0CO,7/1/24,6:55:00 AM,33.8,33.8,100,260,18,0.1,30.52,M,29,M,M,M,M,M,M,M,22.12
0CO,7/1/24,7:55:00 AM,35.6,33.8,93.08,260,16,0,30.48,M,M,M,M,M,M,M,M,M,25.11
0CO,7/1/24,8:55:00 AM,35.6,33.8,93.08,270,13,0,30.46,M,M,M,M,M,M,M,M,M,26.18
0CO,7/1/24,9:55:00 AM,35.6,33.8,93.08,290,7,0,30.46,M,M,OVC,M,M,M,100,M,M,29.17
0CO,7/2/24,10:55:00 AM,33.8,33.8,100,340,15,0,30.46,M,20,BKN,OVC,M,M,100,800,M,23.11
0CO,7/2/24,11:55:00 AM,35.6,33.8,93.08,320,9,0,30.46,M,23,BKN,OVC,M,M,100,700,M,27.99
0CO,7/2/24,12:55:00 PM,33.8,33.8,100,320,19,0.01,30.47,M,26,OVC,M,M,M,100,M,M,21.82
0CO,7/2/24,1:55:00 PM,32,32,100,320,19,0,30.48,M,M,OVC,M,M,M,100,M,M,19.44
0CO,7/2/24,2:55:00 PM,32,32,100,320,15,0.01,30.48,M,27,OVC,M,M,M,100,M,M,20.78
0CO,7/2/24,3:55:00 PM,35.6,30.2,80.51,280,27,0,30.47,M,41,SCT,SCT,SCT,M,800,1400,1900,22.25
0CO,7/2/24,4:55:00 PM,39.2,30.2,69.88,300,25,0,30.48,M,37,CLR,M,M,M,M,M,M,27.56
0CO,7/2/24,5:55:00 PM,41,30.2,65.16,300,27,0,30.5,M,36,SCT,SCT,M,M,2900,3500,M,29.61
0CO,7/2/24,6:55:00 PM,41,32,70.08,320,23,0,30.51,M,40,SCT,BKN,BKN,M,2600,3400,4300,30.41
0CO,7/2/24,7:55:00 PM,42.8,26.6,52.45,310,30,0,30.53,M,38,SCT,BKN,M,M,3900,4800,M,31.55
0CO,7/2/24,8:55:00 PM,44.6,24.8,45.44,M,M,0,30.55,M,M,SCT,SCT,M,M,4600,5000,M,M
0CO,7/2/24,9:55:00 PM,46.4,26.6,45.73,290,28,0,30.55,M,34,CLR,M,M,M,M,M,M,36.81
0CO,7/2/24,10:55:00 PM,46.4,28.4,49.24,280,27,0,30.56,M,31,SCT,M,M,M,5000,M,M,36.97
0CO,7/2/24,11:55:00 PM,46.4,26.6,45.73,280,22,0,30.56,M,32,CLR,M,M,M,M,M,M,37.86
0CO,7/2/24,12:55:00 AM,46.4,26.6,45.73,290,20,0,30.58,M,M,CLR,M,M,M,M,M,M,38.26
0CO,7/2/24,1:55:00 AM,44.6,21.2,39.06,280,14,0,30.6,M,21,CLR,M,M,M,M,M,M,37.4
0CO,7/2/24,2:55:00 AM,42.8,23,45.14,250,8,0,30.61,M,M,SCT,M,M,M,4700,M,M,37.42
0CO,7/2/24,3:55:00 AM,41,26.6,56.22,250,8,0,30.62,M,M,SCT,M,M,M,5000,M,M,35.2
0CO,7/2/24,4:55:00 AM,42.8,24.8,48.67,140,5,0,30.62,M,M,OVC,M,M,M,6000,M,M,39.22
0CO,7/2/24,5:55:00 AM,39.2,26.6,60.29,130,5,0,30.6,M,M,SCT,M,M,M,6000,M,M,34.95
0CO,7/2/24,6:55:00 AM,41,28.4,60.54,210,7,0,30.59,M,M,CLR,M,M,M,M,M,M,35.75
0CO,7/2/24,7:55:00 AM,39.2,28.4,64.93,260,6,0,30.58,M,M,CLR,M,M,M,M,M,M,34.2
0CO,7/2/24,8:55:00 AM,39.2,30.2,69.88,280,15,0,30.56,M,21,CLR,M,M,M,M,M,M,30.11
0CO,7/2/24,9:55:00 AM,39.2,28.4,64.93,270,13,0,30.55,M,24,CLR,M,M,M,M,M,M,30.79
0CO,7/3/24,10:55:00 AM,39.2,23,51.89,280,20,0,30.53,M,25,CLR,M,M,M,M,M,M,28.7
0CO,7/3/24,11:55:00 AM,39.2,21.2,48.1,290,20,0,30.52,M,30,CLR,M,M,M,M,M,M,28.7
0CO,7/3/24,12:55:00 PM,41,17.6,38.45,290,22,0,30.53,M,36,CLR,M,M,M,M,M,M,30.63
0CO,7/3/24,1:55:00 PM,42.8,17.6,35.87,290,24,0,30.52,M,35,CLR,M,M,M,M,M,M,32.63
0CO,7/3/24,2:55:00 PM,42.8,17.6,35.87,M,M,0,30.54,M,M,CLR,M,M,M,M,M,M,M
0CO,7/3/24,3:55:00 PM,44.6,17.6,33.49,M,M,0,30.55,M,M,CLR,M,M,M,M,M,M,M
0CO,7/3/24,4:55:00 PM,46.4,19.4,33.79,290,29,0,30.55,M,36,CLR,M,M,M,M,M,M,36.65
0CO,7/3/24,5:55:00 PM,48.2,19.4,31.57,280,32,0,30.55,M,41,CLR,M,M,M,M,M,M,38.7
0CO,7/3/24,6:55:00 PM,48.2,14,24.99,290,22,0,30.56,M,33,CLR,M,M,M,M,M,M,40.27
0CO,7/3/24,7:55:00 PM,50,17.6,27.33,300,32,0,30.55,M,40,CLR,M,M,M,M,M,M,50
0CO,7/3/24,8:55:00 PM,50,19.4,29.52,280,27,0,30.55,M,38,CLR,M,M,M,M,M,M,50
0CO,7/3/24,9:55:00 PM,50,19.4,29.52,300,32,0,30.52,M,49,CLR,M,M,M,M,M,M,50
0CO,7/3/24,10:55:00 PM,51.8,23,32.17,300,31,0,30.52,M,43,SCT,SCT,M,M,7000,8000,M,51.8
0CO,7/3/24,11:55:00 PM,50,23,34.39,310,32,0,30.51,M,46,CLR,M,M,M,M,M,M,50
0CO,7/3/24,12:55:00 AM,48.2,23,36.78,300,40,0,30.48,M,55,CLR,M,M,M,M,M,M,37.72
0CO,7/3/24,1:55:00 AM,46.4,23,39.36,290,35,0,30.51,M,44,CLR,M,M,M,M,M,M,35.8
0CO,7/3/24,2:55:00 AM,44.6,24.8,45.44,300,23,0,30.55,M,31,SCT,M,M,M,7000,M,M,35.25
0CO,7/3/24,3:55:00 AM,44.6,23,42.14,310,18,0,30.58,M,28,SCT,SCT,M,M,8000,9000,M,36.34
0CO,7/3/24,4:55:00 AM,42.8,21.2,41.84,300,20,0,30.6,M,26,CLR,M,M,M,M,M,M,33.48
0CO,7/3/24,5:55:00 AM,39.2,19.4,44.55,300,18,0,30.6,M,25,CLR,M,M,M,M,M,M,29.23
0CO,7/3/24,6:55:00 AM,37.4,19.4,47.8,290,13,0,30.6,M,23,CLR,M,M,M,M,M,M,28.49
0CO,7/3/24,7:55:00 AM,35.6,17.6,47.51,310,9,0,30.6,M,15,CLR,M,M,M,M,M,M,27.99
0CO,7/3/24,8:55:00 AM,33.8,17.6,51.04,310,13,0,30.58,M,M,CLR,M,M,M,M,M,M,23.87
0CO,7/3/24,9:55:00 AM,33.8,17.6,51.04,320,13,0,30.58,M,20,CLR,M,M,M,M,M,M,23.87
0CO,7/4/24,10:55:00 AM,33.8,17.6,51.04,280,17,0,30.58,M,22,CLR,M,M,M,M,M,M,22.43
0CO,7/4/24,12:55:00 PM,33.8,15.8,47.22,270,18,0,30.6,M,24,CLR,M,M,M,M,M,M,22.12
0CO,7/4/24,1:55:00 PM,35.6,14,40.63,290,20,0,30.6,M,25,CLR,M,M,M,M,M,M,23.92
0CO,7/4/24,2:55:00 PM,37.4,17.6,44.25,290,25,0,30.6,M,33,CLR,M,M,M,M,M,M,25.12
0CO,7/4/24,3:55:00 PM,41,8.6,25.87,290,27,0,30.61,M,35,CLR,M,M,M,M,M,M,29.61
0CO,7/4/24,4:55:00 PM,42.8,12.2,28.34,310,23,0,30.62,M,32,CLR,M,M,M,M,M,M,32.83
0CO,7/4/24,5:55:00 PM,44.6,15.8,30.98,280,21,0,30.65,M,34,CLR,M,M,M,M,M,M,35.66
0CO,7/4/24,6:55:00 PM,46.4,15.8,28.93,300,26,0,30.63,M,31,CLR,M,M,M,M,M,M,37.14
0CO,7/4/24,7:55:00 PM,46.4,19.4,33.79,280,30,0,30.64,M,37,CLR,M,M,M,M,M,M,36.5
0CO,7/4/24,8:55:00 PM,48.2,21.2,34.09,280,22,0,30.65,M,29,SCT,M,M,M,7500,M,M,40.27
0CO,7/4/24,9:55:00 PM,48.2,19.4,31.57,290,29,0,30.64,M,38,SCT,M,M,M,7500,M,M,39.12
0CO,7/4/24,10:55:00 PM,50,19.4,29.52,320,19,0,30.65,M,37,SCT,M,M,M,7500,M,M,50
0CO,7/4/24,11:55:00 PM,48.2,19.4,31.57,320,21,0,30.65,M,32,CLR,M,M,M,M,M,M,40.46
0CO,7/4/24,12:55:00 AM,46.4,23,39.36,300,24,0,30.66,M,29,CLR,M,M,M,M,M,M,37.49
0CO,7/4/24,1:55:00 AM,44.6,19.4,36.18,310,11,0,30.68,M,25,CLR,M,M,M,M,M,M,38.39
0CO,7/4/24,2:55:00 AM,41,17.6,38.45,310,15,0,30.68,M,20,CLR,M,M,M,M,M,M,32.45
0CO,7/4/24,3:55:00 AM,39.2,17.6,41.24,310,10,0,30.7,M,17,CLR,M,M,M,M,M,M,32
0CO,7/4/24,4:55:00 AM,37.4,12.2,34.96,300,9,0,30.7,M,M,CLR,M,M,M,M,M,M,30.23
0CO,7/4/24,5:55:00 AM,37.4,12.2,34.96,280,12,0,30.69,M,M,CLR,M,M,M,M,M,M,28.87
0CO,7/4/24,6:55:00 AM,37.4,12.2,34.96,300,11,0,30.67,M,16,CLR,M,M,M,M,M,M,29.29
0CO,7/4/24,7:55:00 AM,37.4,14,37.84,290,15,0,30.65,M,22,CLR,M,M,M,M,M,M,27.78
0CO,7/4/24,8:55:00 AM,35.6,14,40.63,290,14,0,30.64,M,20,CLR,M,M,M,M,M,M,25.8
0CO,7/4/24,9:55:00 AM,33.8,15.8,47.22,300,15,0,30.64,M,23,CLR,M,M,M,M,M,M,23.11
0CO,7/5/24,10:55:00 AM,33.8,17.6,51.04,310,12,0,30.64,M,21,CLR,M,M,M,M,M,M,24.29
0CO,7/5/24,11:55:00 AM,32,17.6,54.87,320,9,0,30.64,M,18,CLR,M,M,M,M,M,M,23.51
0CO,7/5/24,12:55:00 PM,33.8,19.4,55.14,290,12,0,30.64,M,M,CLR,M,M,M,M,M,M,24.29
0CO,7/5/24,1:55:00 PM,35.6,14,40.63,290,17,0,30.64,M,23,CLR,M,M,M,M,M,M,24.79
0CO,7/5/24,2:55:00 PM,35.6,17.6,47.51,310,12,0,30.65,M,20,CLR,M,M,M,M,M,M,26.58
0CO,7/5/24,3:55:00 PM,41,17.6,38.45,330,11,0,30.65,M,20,CLR,M,M,M,M,M,M,33.84
0CO,7/5/24,4:55:00 PM,41,17.6,38.45,320,10,0,30.66,M,27,CLR,M,M,M,M,M,M,34.25
0CO,7/5/24,5:55:00 PM,41,14,32.88,300,22,0,30.66,M,30,CLR,M,M,M,M,M,M,30.63
0CO,7/5/24,6:55:00 PM,44.6,17.6,33.49,300,20,0,30.65,M,30,CLR,M,M,M,M,M,M,35.87
0CO,7/5/24,7:55:00 PM,44.6,17.6,33.49,290,27,0,30.64,M,37,SCT,M,M,M,6000,M,M,34.52
0CO,7/5/24,8:55:00 PM,44.6,19.4,36.18,320,25,0,30.64,M,35,CLR,M,M,M,M,M,M,34.87
0CO,7/5/24,9:55:00 PM,44.6,14,28.64,290,30,0,30.63,M,41,SCT,M,M,M,7000,M,M,34.03
0CO,7/5/24,10:55:00 PM,44.6,14,28.64,310,19,0,30.64,M,32,SCT,M,M,M,7000,M,M,36.1
0CO,7/5/24,11:55:00 PM,44.6,21.2,39.06,320,20,0,30.64,M,26,CLR,M,M,M,M,M,M,35.87
0CO,7/5/24,12:55:00 AM,44.6,17.6,33.49,310,20,0,30.65,M,28,CLR,M,M,M,M,M,M,35.87
0CO,7/5/24,1:55:00 AM,42.8,19.4,38.75,300,16,0,30.66,M,28,CLR,M,M,M,M,M,M,34.5
0CO,7/5/24,2:55:00 AM,39.2,17.6,41.24,290,13,0,30.66,M,19,CLR,M,M,M,M,M,M,30.79
0CO,7/5/24,3:55:00 AM,39.2,17.6,41.24,290,13,0,30.66,M,M,CLR,M,M,M,M,M,M,30.79
0CO,7/5/24,4:55:00 AM,39.2,19.4,44.55,290,15,0,30.64,M,25,CLR,M,M,M,M,M,M,30.11
0CO,7/5/24,5:55:00 AM,41,17.6,38.45,270,21,0,30.62,M,30,CLR,M,M,M,M,M,M,30.86
0CO,7/5/24,6:55:00 AM,41,17.6,38.45,290,19,0,30.6,M,30,CLR,M,M,M,M,M,M,31.34
0CO,7/5/24,7:55:00 AM,41,15.8,35.57,300,22,0,30.56,M,28,CLR,M,M,M,M,M,M,30.63
0CO,7/5/24,8:55:00 AM,39.2,17.6,41.24,300,22,0,30.55,M,37,CLR,M,M,M,M,M,M,28.22
0CO,7/5/24,9:55:00 AM,37.4,19.4,47.8,310,22,0,30.53,M,36,CLR,M,M,M,M,M,M,25.81
0CO,7/6/24,10:55:00 AM,35.6,21.2,55.41,310,19,0,30.54,M,29,CLR,M,M,M,M,M,M,24.2
0CO,7/6/24,11:55:00 AM,35.6,21.2,55.41,320,23,0,30.54,M,27,CLR,M,M,M,M,M,M,23.15
0CO,7/6/24,12:55:00 PM,37.4,17.6,44.25,310,16,0,30.56,M,29,CLR,M,M,M,M,M,M,27.46
0CO,7/6/24,1:55:00 PM,39.2,19.4,44.55,300,15,0,30.58,M,22,CLR,M,M,M,M,M,M,30.11
0CO,7/6/24,2:55:00 PM,41,19.4,41.54,310,10,0,30.58,M,18,CLR,M,M,M,M,M,M,34.25
0CO,7/6/24,3:55:00 PM,42.8,23,45.14,100,7,0,30.58,M,M,CLR,M,M,M,M,M,M,37.94
0CO,7/6/24,4:55:00 PM,44.6,21.2,39.06,300,17,0,30.58,M,26,CLR,M,M,M,M,M,M,36.58
0CO,7/6/24,5:55:00 PM,46.4,21.2,36.48,300,16,0,30.58,M,31,CLR,M,M,M,M,M,M,39.19
0CO,7/6/24,6:55:00 PM,46.4,21.2,36.48,280,23,0,30.58,M,32,SCT,M,M,M,6500,M,M,37.67
0CO,7/6/24,7:55:00 PM,50,23,34.39,300,19,0,30.58,M,34,SCT,SCT,M,M,6500,7500,M,50
0CO,7/6/24,8:55:00 PM,50,23,34.39,300,30,0,30.55,M,37,SCT,SCT,M,M,6500,7500,M,50
0CO,7/6/24,9:55:00 PM,51.8,24.8,34.69,290,19,0,30.57,M,33,SCT,SCT,M,M,6500,8500,M,51.8
0CO,7/6/24,10:55:00 PM,48.2,24.8,39.66,300,16,0,30.55,M,29,SCT,BKN,M,M,7500,9500,M,41.53
0CO,7/6/24,11:55:00 PM,50,21.2,31.87,320,20,0,30.55,M,29,BKN,BKN,M,M,7500,9000,M,50
0CO,7/6/24,12:55:00 AM,46.4,17.6,31.28,300,19,0,30.55,M,33,SCT,M,M,M,10000,M,M,38.48
0CO,7/6/24,1:55:00 AM,44.6,19.4,36.18,290,15,0,30.56,M,27,SCT,OVC,M,M,8000,10000,M,37.11
0CO,7/6/24,2:55:00 AM,44.6,17.6,33.49,300,19,0,30.55,M,26,OVC,M,M,M,10000,M,M,36.1
0CO,7/6/24,3:55:00 AM,42.8,19.4,38.75,300,18,0,30.58,M,26,SCT,OVC,M,M,7000,11000,M,33.97
0CO,7/6/24,4:55:00 AM,42.8,21.2,41.84,300,15,0,30.58,M,24,BKN,M,M,M,9500,M,M,34.78
0CO,7/6/24,5:55:00 AM,42.8,19.4,38.75,300,17,0,30.58,M,28,BKN,OVC,M,M,6000,7500,M,34.22
0CO,7/6/24,6:55:00 AM,41,19.4,41.54,300,15,0,30.55,M,19,SCT,M,M,M,6000,M,M,32.45
0CO,7/6/24,7:55:00 AM,39.2,19.4,44.55,270,10,0,30.55,M,M,M,M,M,M,M,M,M,32
0CO,7/6/24,8:55:00 AM,37.4,19.4,47.8,280,12,0,30.52,M,M,SCT,M,M,M,8500,M,M,28.87
0CO,7/6/24,9:55:00 AM,37.4,19.4,47.8,300,14,0,30.51,M,21,CLR,M,M,M,M,M,M,28.12
0CO,7/7/24,10:55:00 AM,37.4,19.4,47.8,280,21,0,30.5,M,29,CLR,M,M,M,M,M,M,26.06
0CO,7/7/24,11:55:00 AM,37.4,19.4,47.8,280,15,0,30.52,M,23,CLR,M,M,M,M,M,M,27.78
0CO,7/7/24,12:55:00 PM,37.4,21.2,51.61,260,14,0,30.52,M,23,CLR,M,M,M,M,M,M,28.12
0CO,7/7/24,1:55:00 PM,37.4,21.2,51.61,280,21,0,30.52,M,29,CLR,M,M,M,M,M,M,26.06
0CO,7/7/24,2:55:00 PM,41,15.8,35.57,300,20,0,30.51,M,31,CLR,M,M,M,M,M,M,31.09
0CO,7/7/24,3:55:00 PM,44.6,15.8,30.98,320,20,0,30.51,M,30,CLR,M,M,M,M,M,M,35.87
0CO,7/7/24,4:55:00 PM,46.4,17.6,31.28,310,23,0,30.52,M,37,CLR,M,M,M,M,M,M,37.67
0CO,7/7/24,5:55:00 PM,46.4,19.4,33.79,310,25,0,30.52,M,32,SCT,M,M,M,7000,M,M,37.31
0CO,7/7/24,6:55:00 PM,46.4,21.2,36.48,280,18,0,30.55,M,25,BKN,OVC,M,M,7000,8000,M,38.7
0CO,7/7/24,7:55:00 PM,42.8,32,65.38,130,4,0,30.55,M,17,BKN,BKN,OVC,M,6000,7000,9000,40.03
0CO,7/7/24,8:55:00 PM,42.8,32,65.38,260,9,0,30.55,M,14,BKN,BKN,BKN,M,6000,8000,9000,36.94
0CO,7/7/24,9:55:00 PM,39.2,35.6,86.79,140,9,0,30.55,M,15,M,M,M,M,M,M,M,32.47
0CO,7/7/24,10:55:00 PM,37.4,35.6,93.14,180,4,0,30.55,M,18,BKN,BKN,OVC,M,200,500,6000,33.73
0CO,7/7/24,11:55:00 PM,39.2,33.8,80.79,310,12,0,30.55,M,20,SCT,OVC,M,M,4400,5000,M,31.17
0CO,7/7/24,12:55:00 AM,39.2,32,75.16,70,5,0,30.57,M,M,SCT,SCT,BKN,M,2500,4400,5500,34.95
0CO,7/7/24,1:55:00 AM,37.4,32,80.65,310,12,0,30.58,M,22,SCT,SCT,BKN,M,2600,3000,7000,28.87
0CO,7/7/24,2:55:00 AM,35.6,32,86.59,330,12,0,30.59,M,17,CLR,M,M,M,M,M,M,26.58
0CO,7/7/24,3:55:00 AM,35.6,32,86.59,330,14,0,30.6,M,25,SCT,SCT,SCT,M,2500,3000,7000,25.8
0CO,7/7/24,4:55:00 AM,33.8,30.2,86.49,330,11,0,30.6,M,M,M,M,M,M,M,M,M,24.74
0CO,7/7/24,5:55:00 AM,33.8,30.2,86.49,310,4,0,30.6,M,M,M,M,M,M,M,M,M,29.52
0CO,7/7/24,6:55:00 AM,32,30.2,92.97,360,4,0,30.62,M,M,M,M,M,M,M,M,M,27.42
0CO,7/7/24,7:55:00 AM,32,32,100,160,15,0,30.6,M,M,OVC,M,M,M,100,M,M,20.78
0CO,7/7/24,8:55:00 AM,32,32,100,170,14,0,30.6,M,M,BKN,M,M,M,100,M,M,21.16
0CO,7/7/24,9:55:00 AM,32,32,100,240,6,0,30.58,M,M,M,M,M,M,M,M,M,25.53
0CO,7/8/24,10:55:00 AM,32,23,69.04,310,10,0,30.57,M,M,CLR,M,M,M,M,M,M,22.97
0CO,7/8/24,11:55:00 AM,32,21.2,63.99,310,13,0,30.58,M,16,CLR,M,M,M,M,M,M,21.57
0CO,7/8/24,1:55:00 PM,35.6,23,59.79,280,7,0,30.58,M,M,CLR,M,M,M,M,M,M,29.17
0CO,7/8/24,2:55:00 PM,37.4,26.6,64.7,20,3,0,30.59,M,14,CLR,M,M,M,M,M,M,34.86
0CO,7/8/24,3:55:00 PM,41,21.2,44.85,10,5,0,30.6,M,M,CLR,M,M,M,M,M,M,37.08
0CO,7/8/24,4:55:00 PM,41,26.6,56.22,350,6,0,30.6,M,17,CLR,M,M,M,M,M,M,36.37
0CO,7/8/24,5:55:00 PM,44.6,28.4,52.72,30,5,0,30.62,M,17,CLR,M,M,M,M,M,M,41.36
0CO,7/8/24,6:55:00 PM,46.4,26.6,45.73,320,8,0,30.63,M,14,CLR,M,M,M,M,M,M,41.85
0CO,7/8/24,7:55:00 PM,46.4,21.2,36.48,80,7,0,30.63,M,17,CLR,M,M,M,M,M,M,42.33
0CO,7/8/24,8:55:00 PM,48.2,23,36.78,50,5,0,30.63,M,M,CLR,M,M,M,M,M,M,45.63
0CO,7/8/24,9:55:00 PM,50,23,34.39,30,6,0,30.63,M,M,CLR,M,M,M,M,M,M,50
0CO,7/8/24,10:55:00 PM,48.2,23,36.78,330,11,0,30.63,M,18,CLR,M,M,M,M,M,M,42.94
0CO,7/8/24,11:55:00 PM,48.2,23,36.78,10,8,0,30.63,M,M,CLR,M,M,M,M,M,M,44.07
0CO,7/8/24,12:55:00 AM,48.2,21.2,34.09,330,5,0,30.64,M,17,CLR,M,M,M,M,M,M,45.63
0CO,7/8/24,1:55:00 AM,44.6,30.2,56.74,230,5,0,30.64,M,15,CLR,M,M,M,M,M,M,41.36
0CO,7/8/24,2:55:00 AM,41,26.6,56.22,270,6,0,30.65,M,M,CLR,M,M,M,M,M,M,36.37
0CO,7/8/24,3:55:00 AM,41,26.6,56.22,260,7,0,30.67,M,M,CLR,M,M,M,M,M,M,35.75
0CO,7/8/24,4:55:00 AM,41,19.4,41.54,300,10,0,30.66,M,M,CLR,M,M,M,M,M,M,34.25
0CO,7/8/24,5:55:00 AM,41,19.4,41.54,300,10,0,30.66,M,M,CLR,M,M,M,M,M,M,34.25
0CO,7/8/24,6:55:00 AM,41,19.4,41.54,300,7,0,30.65,M,15,CLR,M,M,M,M,M,M,35.75
0CO,7/8/24,7:55:00 AM,41,21.2,44.85,310,7,0,30.65,M,16,CLR,M,M,M,M,M,M,35.75
0CO,7/8/24,8:55:00 AM,39.2,23,51.89,300,6,0,30.64,M,M,CLR,M,M,M,M,M,M,34.2
0CO,7/8/24,9:55:00 AM,39.2,24.8,55.95,310,8,0,30.65,M,M,CLR,M,M,M,M,M,M,32.98
0CO,7/8/24,10:55:00 AM,39.2,23,51.89,300,8,0,30.65,M,M,CLR,M,M,M,M,M,M,32.98
0CO,7/9/24,11:55:00 AM,41,21.2,44.85,300,10,0,30.66,M,M,CLR,M,M,M,M,M,M,34.25
0CO,7/9/24,12:55:00 PM,42.8,21.2,41.84,320,6,0,30.67,M,M,CLR,M,M,M,M,M,M,38.54
0CO,7/9/24,1:55:00 PM,44.6,24.8,45.44,20,4,0,30.68,M,M,CLR,M,M,M,M,M,M,42.13
0CO,7/9/24,2:55:00 PM,46.4,26.6,45.73,340,4,0,30.68,M,M,CLR,M,M,M,M,M,M,44.24
0CO,7/9/24,3:55:00 PM,46.4,26.6,45.73,30,4,0,30.69,M,M,CLR,M,M,M,M,M,M,44.24
0CO,7/9/24,4:55:00 PM,50,28.4,43.03,60,5,0,30.7,M,M,CLR,M,M,M,M,M,M,50
0CO,7/9/24,5:55:00 PM,50,28.4,43.03,60,6,0,30.7,M,16,SCT,BKN,M,M,5500,8000,M,50
0CO,7/9/24,6:55:00 PM,51.8,26.6,37.38,350,9,0,30.69,M,M,SCT,SCT,BKN,M,6000,7500,9000,51.8
0CO,7/9/24,7:55:00 PM,50,26.6,39.95,280,14,0,30.7,M,M,SCT,BKN,BKN,M,6000,7000,10000,50
0CO,7/9/24,8:55:00 PM,46.4,30.2,53,160,4,0,30.7,M,M,BKN,BKN,BKN,M,6000,8000,9000,44.24
0CO,7/9/24,9:55:00 PM,44.6,30.2,56.74,M,M,0,30.7,M,M,SCT,OVC,M,M,5000,7000,M,M
0CO,7/9/24,10:55:00 PM,44.6,32,61.03,50,9,0,30.7,M,15,SCT,BKN,BKN,M,3100,4200,6000,39.18
0CO,7/9/24,11:55:00 PM,41,32,70.08,250,18,0,30.71,M,31,SCT,BKN,OVC,M,2400,4600,7500,31.6
0CO,7/9/24,12:55:00 AM,42.8,32,65.38,270,15,0,30.71,M,24,CLR,M,M,M,M,M,M,34.78
0CO,7/9/24,1:55:00 AM,42.8,30.2,60.79,300,5,0,30.72,M,M,SCT,M,M,M,7500,M,M,39.22
0CO,7/9/24,2:55:00 AM,42.8,30.2,60.79,340,4,0,30.73,M,M,CLR,M,M,M,M,M,M,40.03
0CO,7/9/24,3:55:00 AM,42.8,30.2,60.79,160,5,0,30.74,M,M,CLR,M,M,M,M,M,M,39.22
0CO,7/9/24,4:55:00 AM,42.8,28.4,56.48,290,5,0,30.74,M,M,CLR,M,M,M,M,M,M,39.22
0CO,7/9/24,5:55:00 AM,42.8,28.4,56.48,280,6,0,30.74,M,M,CLR,M,M,M,M,M,M,38.54
0CO,7/9/24,6:55:00 AM,41,28.4,60.54,280,4,0,30.74,M,M,CLR,M,M,M,M,M,M,37.93
0CO,7/9/24,7:55:00 AM,42.8,28.4,56.48,150,4,0,30.73,M,M,CLR,M,M,M,M,M,M,40.03
0CO,7/9/24,8:55:00 AM,42.8,28.4,56.48,0,0,0,30.71,M,M,CLR,M,M,M,M,M,M,42.8
0CO,7/9/24,9:55:00 AM,41,26.6,56.22,300,11,0,30.71,M,M,CLR,M,M,M,M,M,M,33.84
0CO,7/9/24,10:55:00 AM,41,26.6,56.22,300,10,0,30.72,M,M,CLR,M,M,M,M,M,M,34.25
0CO,7/10/24,11:55:00 AM,41,26.6,56.22,290,8,0,30.73,M,M,CLR,M,M,M,M,M,M,35.2
0CO,7/10/24,12:55:00 PM,41,26.6,56.22,310,9,0,30.74,M,M,CLR,M,M,M,M,M,M,34.7
0CO,7/10/24,1:55:00 PM,44.6,28.4,52.72,40,4,0,30.75,M,M,CLR,M,M,M,M,M,M,42.13
0CO,7/10/24,2:55:00 PM,46.4,26.6,45.73,80,8,0,30.77,M,M,CLR,M,M,M,M,M,M,41.85
0CO,7/10/24,3:55:00 PM,46.4,24.8,42.44,60,7,0,30.77,M,M,CLR,M,M,M,M,M,M,42.33
0CO,7/10/24,4:55:00 PM,51.8,23,32.17,30,4,0,30.78,M,M,CLR,M,M,M,M,M,M,51.8
0CO,7/10/24,5:55:00 PM,51.8,26.6,37.38,50,6,0,30.79,M,M,SCT,M,M,M,6000,M,M,51.8
0CO,7/10/24,6:55:00 PM,53.6,26.6,34.98,360,7,0,30.79,M,21,CLR,M,M,M,M,M,M,53.6
0CO,7/10/24,7:55:00 PM,51.8,26.6,37.38,320,10,0,30.77,M,19,SCT,SCT,SCT,M,6000,7500,9000,51.8
0CO,7/10/24,8:55:00 PM,51.8,28.4,40.25,330,8,0,30.77,M,19,SCT,SCT,M,M,9000,11000,M,51.8
0CO,7/10/24,9:55:00 PM,51.8,26.6,37.38,250,8,0,30.77,M,18,BKN,M,M,M,6500,M,M,51.8
0CO,7/10/24,10:55:00 PM,44.6,30.2,56.74,230,9,0.04,30.79,M,18,SCT,SCT,BKN,M,1600,2800,5500,39.18
0CO,7/10/24,11:55:00 PM,44.6,32,61.03,60,5,0,30.79,M,M,SCT,M,M,M,9000,M,M,41.36
0CO,7/10/24,12:55:00 AM,44.6,32,61.03,150,6,0,30.78,M,15,SCT,M,M,M,12000,M,M,40.71
0CO,7/10/24,1:55:00 AM,46.4,30.2,53,250,9,0,30.77,M,M,CLR,M,M,M,M,M,M,41.42
0CO,7/10/24,2:55:00 AM,44.6,28.4,52.72,290,14,0,30.77,M,M,CLR,M,M,M,M,M,M,37.4
0CO,7/10/24,3:55:00 AM,44.6,28.4,52.72,320,7,0,30.79,M,M,CLR,M,M,M,M,M,M,40.14
0CO,7/10/24,4:55:00 AM,44.6,26.6,48.96,100,5,0,30.79,M,M,BKN,M,M,M,12000,M,M,41.36
0CO,7/10/24,5:55:00 AM,44.6,26.6,48.96,50,3,0,30.77,M,M,CLR,M,M,M,M,M,M,43.09
0CO,7/10/24,6:55:00 AM,46.4,24.8,42.44,140,3,0,30.76,M,M,CLR,M,M,M,M,M,M,45.15
0CO,7/10/24,7:55:00 AM,46.4,26.6,45.73,0,0,0,30.75,M,M,CLR,M,M,M,M,M,M,46.4
0CO,7/10/24,8:55:00 AM,44.6,24.8,45.44,280,13,0,30.74,M,M,CLR,M,M,M,M,M,M,37.71
0CO,7/10/24,9:55:00 AM,44.6,24.8,45.44,300,10,0,30.73,M,M,CLR,M,M,M,M,M,M,38.77
0CO,7/10/24,10:55:00 AM,44.6,24.8,45.44,290,9,0,30.74,M,16,CLR,M,M,M,M,M,M,39.18
0CO,7/11/24,11:55:00 AM,42.8,24.8,48.67,290,11,0,30.74,M,M,CLR,M,M,M,M,M,M,36.11
0CO,7/11/24,12:55:00 PM,44.6,26.6,48.96,300,8,0,30.75,M,15,CLR,M,M,M,M,M,M,39.63
0CO,7/11/24,1:55:00 PM,46.4,26.6,45.73,310,8,0,30.77,M,16,CLR,M,M,M,M,M,M,41.85
0CO,7/11/24,2:55:00 PM,50,30.2,46.31,320,4,0,30.79,M,M,CLR,M,M,M,M,M,M,50
0CO,7/11/24,3:55:00 PM,51.8,30.2,43.32,330,3,0,30.79,M,M,CLR,M,M,M,M,M,M,51.8
0CO,7/11/24,4:55:00 PM,53.6,30.2,40.54,330,5,0,30.79,M,M,CLR,M,M,M,M,M,M,53.6
0CO,7/11/24,5:55:00 PM,55.4,28.4,35.28,70,5,0,30.8,M,M,CLR,M,M,M,M,M,M,55.4
0CO,7/11/24,6:55:00 PM,55.4,26.6,32.76,360,6,0,30.79,M,17,SCT,SCT,M,M,7000,9000,M,55.4
0CO,7/11/24,7:55:00 PM,59,26.6,28.77,20,7,0,30.79,M,22,SCT,SCT,BKN,M,7500,8500,10000,59
0CO,7/11/24,8:55:00 PM,53.6,28.4,37.67,310,13,0,30.79,M,22,SCT,SCT,M,M,7000,10000,M,53.6
0CO,7/11/24,9:55:00 PM,57.2,24.8,28.48,350,7,0,30.77,M,17,CLR,M,M,M,M,M,M,57.2
0CO,7/11/24,10:55:00 PM,53.6,28.4,37.67,360,5,0,30.77,M,M,BKN,BKN,OVC,M,7000,9000,11000,53.6
0CO,7/11/24,11:55:00 PM,51.8,32,46.59,310,5,0,30.77,M,M,SCT,BKN,OVC,M,4000,7000,8000,51.8
0CO,7/11/24,12:55:00 AM,53.6,32,43.61,10,9,0,30.77,M,18,SCT,M,M,M,7000,M,M,53.6
0CO,7/11/24,1:55:00 AM,51.8,32,46.59,340,6,0,30.77,M,M,CLR,M,M,M,M,M,M,51.8
0CO,7/11/24,2:55:00 AM,50,28.4,43.03,280,8,0,30.78,M,M,CLR,M,M,M,M,M,M,50
0CO,7/11/24,3:55:00 AM,50,28.4,43.03,290,10,0,30.78,M,M,M,M,M,M,M,M,M,50
0CO,7/11/24,4:55:00 AM,50,28.4,43.03,290,11,0,30.77,M,M,M,M,M,M,M,M,M,50
0CO,7/11/24,5:55:00 AM,51.8,26.6,37.38,240,5,0,30.77,M,M,CLR,M,M,M,M,M,M,51.8
0CO,7/11/24,6:55:00 AM,50,26.6,39.95,250,8,0,30.75,M,M,CLR,M,M,M,M,M,M,50
0CO,7/11/24,7:55:00 AM,50,24.8,37.08,280,10,0,30.74,M,M,CLR,M,M,M,M,M,M,50
0CO,7/11/24,8:55:00 AM,50,23,34.39,280,16,0,30.74,M,M,SCT,M,M,M,9000,M,M,50
0CO,7/11/24,9:55:00 AM,50,23,34.39,290,18,0,30.73,M,26,CLR,M,M,M,M,M,M,50
0CO,7/11/24,10:55:00 AM,50,24.8,37.08,290,21,0,30.74,M,27,CLR,M,M,M,M,M,M,50
0CO,7/12/24,11:55:00 AM,50,23,34.39,290,18,0,30.74,M,27,CLR,M,M,M,M,M,M,50
0CO,7/12/24,12:55:00 PM,50,17.6,27.33,310,21,0,30.74,M,28,CLR,M,M,M,M,M,M,50
0CO,7/12/24,1:55:00 PM,51.8,19.4,27.62,310,20,0,30.76,M,27,CLR,M,M,M,M,M,M,51.8
0CO,7/12/24,2:55:00 PM,51.8,19.4,27.62,320,25,0,30.76,M,36,CLR,M,M,M,M,M,M,51.8
0CO,7/12/24,3:55:00 PM,53.6,19.4,25.85,320,24,0,30.76,M,36,CLR,M,M,M,M,M,M,53.6
0CO,7/12/24,4:55:00 PM,55.4,21.2,26.13,320,22,0,30.77,M,40,CLR,M,M,M,M,M,M,55.4
0CO,7/12/24,5:55:00 PM,59,17.6,19.68,10,19,0,30.79,M,46,CLR,M,M,M,M,M,M,59
0CO,7/12/24,6:55:00 PM,60.8,19.4,19.94,300,25,0,30.79,M,37,CLR,M,M,M,M,M,M,60.8
0CO,7/12/24,7:55:00 PM,60.8,21.2,21.53,320,24,0,30.79,M,36,CLR,M,M,M,M,M,M,60.8
0CO,7/12/24,8:55:00 PM,62.6,19.4,18.71,320,24,0,30.8,M,30,CLR,M,M,M,M,M,M,62.6
0CO,7/12/24,9:55:00 PM,60.8,21.2,21.53,350,12,0,30.81,M,30,CLR,M,M,M,M,M,M,60.8
0CO,7/12/24,10:55:00 PM,60.8,23,23.23,M,M,0,30.79,M,M,CLR,M,M,M,M,M,M,60.8
0CO,7/12/24,11:55:00 PM,60.8,26.6,26.98,340,15,0,30.79,M,26,CLR,M,M,M,M,M,M,60.8
0CO,7/12/24,12:55:00 AM,59,26.6,28.77,360,11,0,30.8,M,18,CLR,M,M,M,M,M,M,59
0CO,7/12/24,1:55:00 AM,55.4,26.6,32.76,310,16,0,30.81,M,M,CLR,M,M,M,M,M,M,55.4
0CO,7/12/24,2:55:00 AM,53.6,23,30.11,290,12,0,30.82,M,M,CLR,M,M,M,M,M,M,53.6
0CO,7/12/24,3:55:00 AM,51.8,23,32.17,290,10,0,30.83,M,17,M,M,M,M,M,M,M,51.8
0CO,7/12/24,4:55:00 AM,51.8,19.4,27.62,290,13,0,30.82,M,18,M,M,M,M,M,M,M,51.8
0CO,7/12/24,5:55:00 AM,51.8,19.4,27.62,300,15,0,30.82,M,20,CLR,M,M,M,M,M,M,51.8
0CO,7/12/24,6:55:00 AM,50,21.2,31.87,300,17,0,30.81,M,21,CLR,M,M,M,M,M,M,50
0CO,7/12/24,7:55:00 AM,50,19.4,29.52,290,12,0,30.81,M,18,CLR,M,M,M,M,M,M,50
0CO,7/12/24,8:55:00 AM,50,19.4,29.52,300,15,0,30.8,M,M,CLR,M,M,M,M,M,M,50
0CO,7/12/24,9:55:00 AM,50,21.2,31.87,300,15,0,30.8,M,20,CLR,M,M,M,M,M,M,50
0CO,7/12/24,10:55:00 AM,50,21.2,31.87,290,12,0,30.81,M,20,CLR,M,M,M,M,M,M,50
0CO,7/13/24,11:55:00 AM,48.2,21.2,34.09,290,10,0,30.83,M,17,CLR,M,M,M,M,M,M,43.28
0CO,7/13/24,12:55:00 PM,50,21.2,31.87,280,12,0,30.85,M,M,CLR,M,M,M,M,M,M,50
0CO,7/13/24,1:55:00 PM,50,23,34.39,300,10,0,30.86,M,16,CLR,M,M,M,M,M,M,50
0CO,7/13/24,2:55:00 PM,53.6,26.6,34.98,320,9,0,30.87,M,21,CLR,M,M,M,M,M,M,53.6
0CO,7/13/24,3:55:00 PM,55.4,26.6,32.76,10,6,0,30.89,M,22,CLR,M,M,M,M,M,M,55.4
0CO,7/13/24,4:55:00 PM,57.2,24.8,28.48,350,8,0,30.89,M,15,CLR,M,M,M,M,M,M,57.2
0CO,7/13/24,5:55:00 PM,59,26.6,28.77,360,9,0,30.9,M,17,CLR,M,M,M,M,M,M,59
0CO,7/13/24,6:55:00 PM,59,23,24.76,10,8,0,30.89,M,25,CLR,M,M,M,M,M,M,59
0CO,7/13/24,7:55:00 PM,60.8,23,23.23,30,6,0,30.88,M,22,CLR,M,M,M,M,M,M,60.8
0CO,7/13/24,8:55:00 PM,62.6,23,21.79,360,8,0,30.88,M,22,CLR,M,M,M,M,M,M,62.6
0CO,7/13/24,9:55:00 PM,60.8,23,23.23,30,7,0,30.88,M,M,CLR,M,M,M,M,M,M,60.8
0CO,7/13/24,10:55:00 PM,60.8,23,23.23,80,4,0,30.87,M,M,SCT,M,M,M,10000,M,M,60.8
0CO,7/13/24,11:55:00 PM,59,26.6,28.77,300,4,0,30.87,M,M,BKN,M,M,M,10000,M,M,59
0CO,7/13/24,12:55:00 AM,57.2,28.4,33.05,90,7,0,30.87,M,M,OVC,M,M,M,9000,M,M,57.2
0CO,7/13/24,1:55:00 AM,55.4,28.4,35.28,180,11,0,30.87,M,19,BKN,M,M,M,9000,M,M,55.4
0CO,7/13/24,2:55:00 AM,51.8,26.6,37.38,250,11,0,30.87,M,19,SCT,OVC,M,M,9500,11000,M,51.8
0CO,7/13/24,3:55:00 AM,53.6,26.6,34.98,240,6,0,30.88,M,M,M,M,M,M,M,M,M,53.6
0CO,7/13/24,4:55:00 AM,51.8,26.6,37.38,260,15,0,30.88,M,18,M,M,M,M,M,M,M,51.8
0CO,7/13/24,5:55:00 AM,51.8,26.6,37.38,260,14,0,30.87,M,19,M,M,M,M,M,M,M,51.8
0CO,7/13/24,6:55:00 AM,51.8,26.6,37.38,270,11,0,30.87,M,17,OVC,M,M,M,9500,M,M,51.8
0CO,7/13/24,7:55:00 AM,50,26.6,39.95,290,14,0,30.85,M,M,CLR,M,M,M,M,M,M,50
0CO,7/13/24,8:55:00 AM,50,26.6,39.95,290,16,0,30.84,M,M,CLR,M,M,M,M,M,M,50
0CO,7/13/24,9:55:00 AM,50,26.6,39.95,290,19,0,30.83,M,29,CLR,M,M,M,M,M,M,50
0CO,7/13/24,10:55:00 AM,50,26.6,39.95,280,19,0,30.83,M,24,CLR,M,M,M,M,M,M,50
0CO,7/14/24,11:55:00 AM,48.2,26.6,42.73,290,16,0,30.84,M,21,CLR,M,M,M,M,M,M,41.53
0CO,7/14/24,12:55:00 PM,50,26.6,39.95,290,12,0,30.86,M,M,CLR,M,M,M,M,M,M,50
0CO,7/14/24,1:55:00 PM,51.8,28.4,40.25,300,10,0,30.88,M,15,CLR,M,M,M,M,M,M,51.8
0CO,7/14/24,2:55:00 PM,53.6,30.2,40.54,290,12,0,30.88,M,17,CLR,M,M,M,M,M,M,53.6
0CO,7/14/24,3:55:00 PM,59,32,35.87,310,4,0,30.88,M,M,CLR,M,M,M,M,M,M,59
0CO,7/14/24,4:55:00 PM,59,32,35.87,20,4,0,30.88,M,M,SCT,M,M,M,6500,M,M,59
0CO,7/14/24,5:55:00 PM,55.4,32,40.84,20,6,0,30.88,M,M,SCT,SCT,BKN,M,6500,8000,9000,55.4
0CO,7/14/24,6:55:00 PM,60.8,32,33.64,360,5,0,30.86,M,15,CLR,M,M,M,M,M,M,60.8
0CO,7/14/24,7:55:00 PM,57.2,30.2,35.57,320,5,0,30.85,M,15,SCT,BKN,M,M,7000,9000,M,57.2
0CO,7/14/24,8:55:00 PM,53.6,33.8,46.88,M,M,0,30.85,M,M,SCT,BKN,BKN,M,7000,8000,10000,53.6
0CO,7/14/24,9:55:00 PM,51.8,32,46.59,160,18,0,30.86,M,27,SCT,SCT,BKN,M,4800,6500,7500,51.8
0CO,7/14/24,10:55:00 PM,51.8,32,46.59,170,6,0,30.84,M,14,SCT,SCT,M,M,9000,11000,M,51.8
0CO,7/14/24,11:55:00 PM,53.6,32,43.61,260,13,0,30.82,M,19,CLR,M,M,M,M,M,M,53.6
0CO,7/14/24,12:55:00 AM,53.6,32,43.61,260,9,0,30.82,M,16,SCT,M,M,M,11000,M,M,53.6
0CO,7/14/24,1:55:00 AM,55.4,32,40.84,260,12,0,30.81,M,M,SCT,BKN,M,M,7500,12000,M,55.4
0CO,7/14/24,2:55:00 AM,51.8,32,46.59,290,9,0,30.8,M,14,SCT,SCT,M,M,8000,11000,M,51.8
0CO,7/14/24,3:55:00 AM,50,33.8,53.54,260,16,0,30.81,M,25,BKN,OVC,M,M,8500,11000,M,50
0CO,7/14/24,4:55:00 AM,44.6,37.4,75.68,300,10,0,30.84,M,16,SCT,BKN,OVC,M,3400,4700,6000,38.77
0CO,7/14/24,5:55:00 AM,46.4,33.8,61.28,210,4,0,30.81,M,M,SCT,SCT,M,M,8500,11000,M,44.24
0CO,7/14/24,6:55:00 AM,50,32,49.81,280,10,0,30.79,M,15,SCT,M,M,M,8500,M,M,50
0CO,7/14/24,7:55:00 AM,50,32,49.81,290,15,0,30.77,M,M,BKN,M,M,M,12000,M,M,50
0CO,7/14/24,8:55:00 AM,46.4,32,57,300,12,0,30.76,M,20,SCT,SCT,SCT,M,7000,9000,12000,40.33
0CO,7/14/24,9:55:00 AM,42.8,33.8,70.28,290,19,0,30.74,M,32,SCT,BKN,OVC,M,2900,6000,10000,33.72
0CO,7/14/24,10:55:00 AM,42.8,33.8,70.28,300,24,0,30.72,M,M,CLR,M,M,M,M,M,M,32.63
0CO,7/15/24,11:55:00 AM,42.8,33.8,70.28,300,24,0,30.74,M,29,CLR,M,M,M,M,M,M,32.63
0CO,7/15/24,12:55:00 PM,42.8,33.8,70.28,310,19,0,30.74,M,23,CLR,M,M,M,M,M,M,33.72
0CO,7/15/24,1:55:00 PM,46.4,33.8,61.28,290,18,0,30.77,M,27,CLR,M,M,M,M,M,M,38.7
0CO,7/15/24,2:55:00 PM,46.4,33.8,61.28,310,16,0,30.79,M,21,CLR,M,M,M,M,M,M,39.19
0CO,7/15/24,3:55:00 PM,50,35.6,57.52,300,18,0,30.79,M,27,CLR,M,M,M,M,M,M,50
0CO,7/15/24,4:55:00 PM,50,33.8,53.54,280,21,0,30.78,M,M,CLR,M,M,M,M,M,M,50
0CO,7/15/24,5:55:00 PM,50,37.4,61.76,300,14,0,30.78,M,25,SCT,M,M,M,12000,M,M,50
0CO,7/15/24,6:55:00 PM,53.6,37.4,54.07,310,9,0,30.78,M,14,SCT,SCT,BKN,M,4300,5500,10000,53.6
0CO,7/15/24,7:55:00 PM,55.4,35.6,47.16,350,7,0,30.77,M,M,SCT,SCT,SCT,M,4800,6500,9500,55.4
0CO,7/15/24,8:55:00 PM,51.8,35.6,53.81,50,6,0,30.75,M,M,SCT,OVC,M,M,4000,5000,M,51.8
0CO,7/15/24,9:55:00 PM,42.8,35.6,75.5,330,12,0.03,30.73,M,22,SCT,BKN,OVC,M,3700,6500,9000,35.75
0CO,7/15/24,10:55:00 PM,48.2,32,53.27,300,23,0,30.71,M,M,SCT,BKN,OVC,M,2700,5000,8500,40.09
0CO,7/15/24,11:55:00 PM,46.4,33.8,61.28,270,13,0,30.73,M,24,SCT,BKN,OVC,M,3400,4100,7000,40.02
0CO,7/15/24,12:55:00 AM,44.6,35.6,70.48,260,5,0,30.71,M,M,SCT,BKN,OVC,M,3300,4000,4700,41.36
0CO,7/15/24,1:55:00 AM,42.8,37.4,81.07,260,22,0.03,30.73,M,28,SCT,BKN,OVC,M,1500,3600,5500,33.04
0CO,7/15/24,2:55:00 AM,42.8,35.6,75.5,180,10,0.03,30.73,M,14,SCT,M,M,M,5500,M,M,36.51
0CO,7/15/24,3:55:00 AM,41,35.6,80.93,250,8,0,30.73,M,M,SCT,SCT,M,M,3600,6000,M,35.2
0CO,7/15/24,4:55:00 AM,42.8,35.6,75.5,250,11,0,30.71,M,18,SCT,M,M,M,5000,M,M,36.11
0CO,7/15/24,5:55:00 AM,42.8,33.8,70.28,280,19,0,30.69,M,M,CLR,M,M,M,M,M,M,33.72
0CO,7/15/24,6:55:00 AM,42.8,33.8,70.28,280,18,0,30.69,M,M,CLR,M,M,M,M,M,M,33.97
0CO,7/15/24,7:55:00 AM,42.8,33.8,70.28,290,18,0,30.67,M,25,CLR,M,M,M,M,M,M,33.97
0CO,7/15/24,8:55:00 AM,42.8,33.8,70.28,290,19,0,30.68,M,32,CLR,M,M,M,M,M,M,33.72
0CO,7/15/24,9:55:00 AM,41,35.6,80.93,270,22,0,30.67,M,33,OVC,M,M,M,7000,M,M,30.63
0CO,7/15/24,10:55:00 AM,42.8,33.8,70.28,290,18,0,30.65,M,25,CLR,M,M,M,M,M,M,33.97
0CO,7/16/24,11:55:00 AM,41,33.8,75.33,300,16,0,30.66,M,25,CLR,M,M,M,M,M,M,32.15
0CO,7/16/24,12:55:00 PM,39.2,33.8,80.79,300,14,0,30.67,M,M,CLR,M,M,M,M,M,M,30.44
0CO,7/16/24,1:55:00 PM,42.8,33.8,70.28,300,11,0,30.71,M,M,CLR,M,M,M,M,M,M,36.11
0CO,7/16/24,2:55:00 PM,44.6,35.6,70.48,290,12,0,30.72,M,M,BKN,BKN,OVC,M,2900,3700,5500,38.04
0CO,7/16/24,3:55:00 PM,46.4,37.4,70.68,300,9,0,30.74,M,15,SCT,SCT,OVC,M,3100,4500,5500,41.42
0CO,7/16/24,4:55:00 PM,48.2,37.4,66.05,300,11,0,30.74,M,20,SCT,SCT,BKN,M,2100,3100,5500,42.94
0CO,7/16/24,5:55:00 PM,50,39.2,66.27,30,5,0,30.74,M,17,SCT,SCT,BKN,M,2500,4200,7000,50
0CO,7/16/24,6:55:00 PM,51.8,35.6,53.81,290,17,0,30.73,M,23,SCT,SCT,SCT,M,3000,3600,4400,51.8
0CO,7/16/24,7:55:00 PM,51.8,32,46.59,310,15,0,30.72,M,23,BKN,BKN,BKN,M,4600,6000,7500,51.8
0CO,7/16/24,8:55:00 PM,44.6,32,61.03,310,19,0,30.72,M,28,SCT,BKN,OVC,M,2200,3800,8000,36.1
0CO,7/16/24,9:55:00 PM,42.8,37.4,81.07,360,6,0,30.74,M,18,SCT,BKN,OVC,M,1500,2000,2800,38.54
0CO,7/16/24,10:55:00 PM,44.6,35.6,70.48,280,11,0.02,30.73,M,15,SCT,M,M,M,7000,M,M,38.39
0CO,7/16/24,11:55:00 PM,44.6,35.6,70.48,300,18,0,30.73,M,24,SCT,BKN,OVC,M,2600,4000,9000,36.34
0CO,7/16/24,12:55:00 AM,42.8,33.8,70.28,270,9,0,30.74,M,M,SCT,BKN,OVC,M,5000,7000,8500,36.94
0CO,7/16/24,1:55:00 AM,44.6,32,61.03,250,5,0,30.75,M,M,BKN,OVC,M,M,3700,4700,M,41.36
0CO,7/16/24,2:55:00 AM,41,33.8,75.33,140,5,0.01,30.75,M,M,SCT,SCT,BKN,M,4000,8500,11000,37.08
0CO,7/16/24,3:55:00 AM,41,35.6,80.93,100,8,0,30.76,M,M,SCT,SCT,M,M,4900,12000,M,35.2
0CO,7/16/24,4:55:00 AM,42.8,33.8,70.28,90,10,0,30.75,M,15,BKN,OVC,M,M,4400,4900,M,36.51
0CO,7/16/24,5:55:00 AM,44.6,32,61.03,M,M,0,30.74,M,M,OVC,M,M,M,4900,M,M,M
0CO,7/16/24,6:55:00 AM,42.8,32,65.38,M,M,0,30.74,M,M,SCT,M,M,M,4700,M,M,M
0CO,7/16/24,7:55:00 AM,42.8,32,65.38,M,M,0,30.74,M,M,CLR,M,M,M,M,M,M,M
0CO,7/16/24,8:55:00 AM,42.8,32,65.38,M,M,0,30.74,M,M,CLR,M,M,M,M,M,M,M
0CO,7/16/24,9:55:00 AM,41,32,70.08,M,M,0,30.74,M,M,CLR,M,M,M,M,M,M,M
0CO,7/16/24,10:55:00 AM,41,32,70.08,M,M,0,30.74,M,M,CLR,M,M,M,M,M,M,M
0CO,7/17/24,11:55:00 AM,41,32,70.08,140,14,0,30.76,M,22,CLR,M,M,M,M,M,M,32.76
0CO,7/17/24,12:55:00 PM,41,33.8,75.33,M,M,0,30.77,M,M,BKN,M,M,M,10000,M,M,M
0CO,7/17/24,1:55:00 PM,41,32,70.08,M,M,0,30.79,M,M,SCT,OVC,M,M,6000,8000,M,M
0CO,7/17/24,2:55:00 PM,44.6,32,61.03,150,12,0,30.79,M,22,SCT,M,M,M,6000,M,M,38.04
0CO,7/17/24,3:55:00 PM,48.2,33.8,57.26,150,9,0,30.79,M,22,CLR,M,M,M,M,M,M,43.66
0CO,7/17/24,4:55:00 PM,48.2,32,53.27,150,12,0,30.8,M,24,SCT,BKN,OVC,M,3600,4200,10000,42.62
0CO,7/17/24,5:55:00 PM,46.4,35.6,65.83,160,6,0,30.81,M,M,SCT,BKN,OVC,M,3000,4200,9000,42.87
0CO,7/17/24,6:55:00 PM,48.2,35.6,61.52,140,8,0,30.81,M,M,SCT,SCT,M,M,5000,8500,M,44.07
0CO,7/17/24,7:55:00 PM,44.6,41,87.09,160,11,0.03,30.79,M,25,SCT,BKN,BKN,M,700,4500,5500,38.39
0CO,7/17/24,8:55:00 PM,42.8,37.4,81.07,120,10,0.01,30.79,M,M,SCT,BKN,OVC,M,3500,4300,6000,36.51
0CO,7/17/24,9:55:00 PM,46.4,39.2,75.84,150,10,0,30.79,M,M,SCT,SCT,BKN,M,1100,3800,9000,41.03
0CO,7/17/24,10:55:00 PM,44.6,37.4,75.68,160,4,0,30.79,M,18,BKN,OVC,M,M,3700,4800,M,42.13
0CO,7/17/24,11:55:00 PM,44.6,37.4,75.68,100,10,0,30.78,M,20,SCT,BKN,OVC,M,3400,4800,8000,38.77
0CO,7/17/24,12:55:00 AM,44.6,37.4,75.68,150,4,0,30.79,M,M,BKN,OVC,M,M,6000,7000,M,42.13
0CO,7/17/24,1:55:00 AM,44.6,37.4,75.68,110,14,0,30.79,M,M,SCT,SCT,M,M,6000,8000,M,37.4
0CO,7/17/24,2:55:00 AM,41,37.4,86.89,130,21,0,30.8,M,30,M,M,M,M,M,M,M,30.86
0CO,7/17/24,3:55:00 AM,39.2,37.4,93.19,140,20,0,30.81,M,25,OVC,M,M,M,200,M,M,28.7
0CO,7/17/24,4:55:00 AM,37.4,37.4,100,140,5,0,30.81,M,M,OVC,M,M,M,200,M,M,32.81
0CO,7/17/24,5:55:00 AM,41,37.4,86.89,240,10,0,30.8,M,24,M,M,M,M,M,M,M,34.25
0CO,7/17/24,6:55:00 AM,42.8,35.6,75.5,260,10,0,30.79,M,15,CLR,M,M,M,M,M,M,36.51
0CO,7/17/24,7:55:00 AM,44.6,33.8,65.61,270,14,0,30.79,M,M,CLR,M,M,M,M,M,M,37.4
0CO,7/17/24,8:55:00 AM,44.6,32,61.03,280,13,0,30.78,M,18,CLR,M,M,M,M,M,M,37.71
0CO,7/17/24,9:55:00 AM,44.6,32,61.03,350,7,0,30.77,M,M,CLR,M,M,M,M,M,M,40.14
0CO,7/17/24,10:55:00 AM,44.6,32,61.03,290,14,0,30.78,M,M,CLR,M,M,M,M,M,M,37.4
0CO,7/18/24,11:55:00 AM,44.6,30.2,56.74,290,10,0,30.79,M,M,CLR,M,M,M,M,M,M,38.77
0CO,7/18/24,12:55:00 PM,44.6,30.2,56.74,300,11,0,30.79,M,M,CLR,M,M,M,M,M,M,38.39
0CO,7/18/24,1:55:00 PM,46.4,32,57,300,10,0,30.79,M,M,CLR,M,M,M,M,M,M,41.03
0CO,7/18/24,2:55:00 PM,50,32,49.81,320,8,0,30.82,M,M,CLR,M,M,M,M,M,M,50
0CO,7/18/24,3:55:00 PM,51.8,33.8,50.08,350,7,0,30.82,M,22,CLR,M,M,M,M,M,M,51.8
0CO,7/18/24,4:55:00 PM,51.8,33.8,50.08,320,14,0,30.81,M,21,SCT,SCT,M,M,4700,6000,M,51.8
0CO,7/18/24,5:55:00 PM,51.8,33.8,50.08,310,19,0,30.82,M,24,BKN,BKN,BKN,M,4600,5500,8000,51.8
0CO,7/18/24,6:55:00 PM,55.4,32,40.84,360,7,0,30.82,M,22,SCT,SCT,BKN,M,4700,6000,9500,55.4
0CO,7/18/24,7:55:00 PM,55.4,33.8,43.9,360,5,0,30.82,M,19,SCT,SCT,SCT,M,6000,7000,8000,55.4
0CO,7/18/24,8:55:00 PM,50,32,49.81,360,7,0,30.83,M,M,SCT,BKN,M,M,7000,10000,M,50
0CO,7/18/24,9:55:00 PM,50,32,49.81,320,6,0,30.82,M,M,SCT,SCT,M,M,6000,8000,M,50
0CO,7/18/24,10:55:00 PM,46.4,33.8,61.28,340,5,0,30.83,M,M,BKN,BKN,OVC,M,5000,6000,12000,43.5
0CO,7/18/24,11:55:00 PM,46.4,35.6,65.83,240,8,0,30.81,M,M,SCT,SCT,BKN,M,2200,2700,6500,41.85
0CO,7/18/24,12:55:00 AM,50,33.8,53.54,290,16,0,30.79,M,M,CLR,M,M,M,M,M,M,50
0CO,7/18/24,1:55:00 AM,46.4,32,57,50,8,0,30.8,M,24,SCT,BKN,OVC,M,4700,5500,7000,41.85
0CO,7/18/24,2:55:00 AM,46.4,28.4,49.24,300,10,0,30.81,M,M,CLR,M,M,M,M,M,M,41.03
0CO,7/18/24,3:55:00 AM,46.4,28.4,49.24,0,0,0,30.82,M,M,CLR,M,M,M,M,M,M,46.4
0CO,7/18/24,4:55:00 AM,46.4,32,57,150,7,0,30.81,M,M,CLR,M,M,M,M,M,M,42.33
0CO,7/18/24,5:55:00 AM,46.4,28.4,49.24,260,11,0,30.81,M,M,CLR,M,M,M,M,M,M,40.66
0CO,7/18/24,6:55:00 AM,46.4,30.2,53,290,11,0,30.81,M,M,CLR,M,M,M,M,M,M,40.66
0CO,7/18/24,7:55:00 AM,44.6,32,61.03,280,16,0,30.79,M,M,CLR,M,M,M,M,M,M,36.84
0CO,7/18/24,8:55:00 AM,44.6,32,61.03,290,13,0,30.79,M,19,M,M,M,M,M,M,M,37.71
0CO,7/18/24,9:55:00 AM,44.6,32,61.03,290,12,0,30.78,M,20,CLR,M,M,M,M,M,M,38.04
0CO,7/18/24,10:55:00 AM,44.6,32,61.03,300,13,0,30.78,M,20,BKN,M,M,M,10000,M,M,37.71
0CO,7/19/24,11:55:00 AM,42.8,32,65.38,330,15,0,30.79,M,20,OVC,M,M,M,10000,M,M,34.78
0CO,7/19/24,12:55:00 PM,42.8,32,65.38,290,7,0,30.79,M,16,CLR,M,M,M,M,M,M,37.94
0CO,7/19/24,1:55:00 PM,46.4,33.8,61.28,340,6,0,30.8,M,20,BKN,M,M,M,12000,M,M,42.87
0CO,7/19/24,2:55:00 PM,46.4,32,57,320,12,0,30.8,M,21,BKN,M,M,M,12000,M,M,40.33
0CO,7/19/24,3:55:00 PM,46.4,35.6,65.83,340,7,0,30.81,M,17,BKN,M,M,M,11000,M,M,42.33
0CO,7/19/24,4:55:00 PM,48.2,35.6,61.52,330,7,0,30.81,M,20,SCT,BKN,M,M,5500,10000,M,44.53
0CO,7/19/24,5:55:00 PM,50,35.6,57.52,360,4,0,30.82,M,17,SCT,SCT,BKN,M,4600,6000,7000,50
0CO,7/19/24,6:55:00 PM,50,35.6,57.52,360,10,0,30.8,M,27,SCT,BKN,OVC,M,3700,7000,8000,50
0CO,7/19/24,7:55:00 PM,51.8,35.6,53.81,20,6,0,30.79,M,24,CLR,M,M,M,M,M,M,51.8
0CO,7/19/24,8:55:00 PM,55.4,35.6,47.16,340,13,0,30.78,M,27,SCT,M,M,M,4200,M,M,55.4
0CO,7/19/24,9:55:00 PM,53.6,32,43.61,60,3,0,30.79,M,19,CLR,M,M,M,M,M,M,53.6
0CO,7/19/24,10:55:00 PM,51.8,32,46.59,270,3,0,30.78,M,M,SCT,BKN,BKN,M,5500,7500,8500,51.8
0CO,7/19/24,11:55:00 PM,44.6,35.6,70.48,250,6,0,30.78,M,21,BKN,BKN,OVC,M,2700,4800,5500,40.71
0CO,7/19/24,12:55:00 AM,39.2,37.4,93.19,220,5,0.04,30.8,M,M,M,M,M,M,M,M,M,34.95
0CO,7/19/24,1:55:00 AM,39.2,37.4,93.19,260,14,0,30.77,M,24,M,M,M,M,M,M,M,30.44
0CO,7/19/24,2:55:00 AM,41,33.8,75.33,250,5,0,30.79,M,M,CLR,M,M,M,M,M,M,37.08
0CO,7/19/24,3:55:00 AM,42.8,32,65.38,80,4,0,30.82,M,M,SCT,BKN,M,M,6000,7000,M,40.03
0CO,7/19/24,4:55:00 AM,42.8,32,65.38,190,8,0,30.81,M,M,SCT,SCT,BKN,M,3800,6000,8500,37.42
0CO,7/19/24,5:55:00 AM,42.8,32,65.38,280,4,0,30.8,M,M,BKN,OVC,M,M,8500,10000,M,40.03
0CO,7/19/24,6:55:00 AM,42.8,32,65.38,280,6,0,30.78,M,M,CLR,M,M,M,M,M,M,38.54
0CO,7/19/24,7:55:00 AM,42.8,32,65.38,310,8,0,30.77,M,M,CLR,M,M,M,M,M,M,37.42
0CO,7/19/24,8:55:00 AM,42.8,32,65.38,260,3,0,30.77,M,M,M,M,M,M,M,M,M,41.03
0CO,7/19/24,9:55:00 AM,42.8,32,65.38,120,3,0,30.77,M,M,CLR,M,M,M,M,M,M,41.03
0CO,7/19/24,10:55:00 AM,42.8,32,65.38,220,9,0,30.77,M,M,BKN,M,M,M,8000,M,M,36.94
0CO,7/20/24,11:55:00 AM,42.8,32,65.38,320,7,0,30.77,M,M,CLR,M,M,M,M,M,M,37.94
0CO,7/20/24,12:55:00 PM,41,32,70.08,260,7,0,30.78,M,M,CLR,M,M,M,M,M,M,35.75
0CO,7/20/24,1:55:00 PM,42.8,33.8,70.28,360,5,0,30.79,M,M,CLR,M,M,M,M,M,M,39.22
0CO,7/20/24,2:55:00 PM,44.6,33.8,65.61,300,8,0,30.79,M,M,CLR,M,M,M,M,M,M,39.63
0CO,7/20/24,3:55:00 PM,48.2,35.6,61.52,50,8,0,30.81,M,M,SCT,M,M,M,2700,M,M,44.07
0CO,7/20/24,4:55:00 PM,50,33.8,53.54,350,8,0,30.81,M,M,SCT,M,M,M,3300,M,M,50
0CO,7/20/24,5:55:00 PM,50,32,49.81,50,5,0,30.82,M,18,CLR,M,M,M,M,M,M,50
0CO,7/20/24,6:55:00 PM,50,30.2,46.31,20,5,0,30.82,M,24,SCT,M,M,M,4500,M,M,50
0CO,7/20/24,7:55:00 PM,51.8,32,46.59,350,10,0,30.81,M,18,SCT,SCT,M,M,4800,5500,M,51.8
0CO,7/20/24,8:55:00 PM,51.8,30.2,43.32,330,10,0,30.81,M,20,SCT,SCT,M,M,5000,6500,M,51.8
0CO,7/20/24,9:55:00 PM,53.6,28.4,37.67,360,5,0,30.8,M,M,SCT,M,M,M,6000,M,M,53.6
0CO,7/20/24,10:55:00 PM,46.4,41,81.34,M,M,0,30.79,M,M,SCT,SCT,SCT,M,3000,6000,7000,M
0CO,7/20/24,11:55:00 PM,46.4,41,81.34,M,M,0,30.77,M,M,BKN,OVC,M,M,3700,5500,M,M
0CO,7/20/24,12:55:00 AM,44.6,39.2,81.2,M,M,0,30.78,M,M,SCT,BKN,OVC,M,3300,5500,6500,M
0CO,7/20/24,1:55:00 AM,42.8,41,93.3,M,M,0,30.78,M,M,M,M,M,M,M,M,M,M
0CO,7/20/24,2:55:00 AM,41,39.2,93.24,140,13,0,30.79,M,M,M,M,M,M,M,M,M,33.1
0CO,7/20/24,3:55:00 AM,39.2,37.4,93.19,130,15,0,30.8,M,23,OVC,M,M,M,200,M,M,30.11
0CO,7/20/24,4:55:00 AM,37.4,35.6,93.14,120,16,0,30.8,M,22,OVC,M,M,M,200,M,M,27.46
0CO,7/20/24,5:55:00 AM,37.4,35.6,93.14,150,11,0,30.8,M,17,M,M,M,M,M,M,M,29.29
0CO,7/20/24,6:55:00 AM,35.6,35.6,100,170,15,0,30.79,M,M,M,M,M,M,M,M,M,25.45
0CO,7/20/24,7:55:00 AM,37.4,33.8,86.69,140,6,0,30.77,M,M,M,M,M,M,M,M,M,32.03
0CO,7/20/24,8:55:00 AM,39.2,32,75.16,140,10,0,30.75,M,14,SCT,SCT,M,M,2500,8000,M,32
0CO,7/20/24,9:55:00 AM,37.4,32,80.65,150,7,0,30.74,M,15,BKN,M,M,M,2600,M,M,31.36
0CO,7/20/24,10:55:00 AM,37.4,32,80.65,150,10,0,30.73,M,19,SCT,M,M,M,2500,M,M,29.74
0CO,7/21/24,11:55:00 AM,35.6,32,86.59,160,17,0,30.73,M,M,M,M,M,M,M,M,M,24.79
0CO,7/21/24,12:55:00 PM,37.4,32,80.65,140,14,0,30.73,M,22,CLR,M,M,M,M,M,M,28.12
0CO,7/21/24,1:55:00 PM,35.6,33.8,93.08,150,14,0,30.74,M,17,M,M,M,M,M,M,M,25.8
0CO,7/21/24,2:55:00 PM,37.4,35.6,93.14,140,11,0,30.74,M,19,M,M,M,M,M,M,M,29.29
0CO,7/21/24,3:55:00 PM,41,35.6,80.93,140,10,0,30.75,M,19,SCT,SCT,M,M,200,1500,M,34.25
0CO,7/21/24,4:55:00 PM,41,35.6,80.93,140,10,0,30.75,M,M,M,M,M,M,M,M,M,34.25
0CO,7/21/24,5:55:00 PM,41,37.4,86.89,120,13,0,30.74,M,M,M,M,M,M,M,M,M,33.1
0CO,7/21/24,6:55:00 PM,41,37.4,86.89,140,21,0,30.7,M,M,M,M,M,M,M,M,M,30.86
0CO,7/21/24,7:55:00 PM,37.4,35.6,93.14,220,5,0.16,30.74,M,M,M,M,M,M,M,M,M,32.81
0CO,7/21/24,8:55:00 PM,35.6,35.6,100,170,10,0.03,30.74,M,18,OVC,M,M,M,100,M,M,27.48
0CO,7/21/24,9:55:00 PM,39.2,37.4,93.19,330,4,0.01,30.72,M,16,M,M,M,M,M,M,M,35.83
0CO,7/21/24,10:55:00 PM,41,33.8,75.33,300,7,0,30.72,M,M,BKN,M,M,M,7500,M,M,35.75
0CO,7/21/24,11:55:00 PM,41,37.4,86.89,120,8,0,30.72,M,M,M,M,M,M,M,M,M,35.2
0CO,7/21/24,12:55:00 AM,37.4,33.8,86.69,130,8,0,30.73,M,21,SCT,SCT,OVC,M,1100,7000,8500,30.76
0CO,7/21/24,1:55:00 AM,37.4,35.6,93.14,130,9,0,30.73,M,21,M,M,M,M,M,M,M,30.23
0CO,7/21/24,2:55:00 AM,37.4,33.8,86.69,140,13,0,30.73,M,23,M,M,M,M,M,M,M,28.49
0CO,7/21/24,3:55:00 AM,35.6,32,86.59,140,14,0,30.73,M,21,M,M,M,M,M,M,M,25.8
0CO,7/21/24,4:55:00 AM,35.6,32,86.59,140,19,0,30.74,M,M,M,M,M,M,M,M,M,24.2
0CO,7/21/24,5:55:00 AM,33.8,33.8,100,130,20,0,30.71,M,M,M,M,M,M,M,M,M,21.53
0CO,7/21/24,6:55:00 AM,33.8,33.8,100,140,16,0,30.71,M,M,OVC,M,M,M,100,M,M,22.76
0CO,7/21/24,7:55:00 AM,35.6,33.8,93.08,150,14,0,30.7,M,M,BKN,M,M,M,100,M,M,25.8
0CO,7/21/24,8:55:00 AM,35.6,33.8,93.08,150,11,0,30.69,M,17,M,M,M,M,M,M,M,27.02
0CO,7/21/24,9:55:00 AM,35.6,32,86.59,160,19,0,30.68,M,M,M,M,M,M,M,M,M,24.2
0CO,7/21/24,10:55:00 AM,35.6,32,86.59,150,13,0,30.68,M,M,CLR,M,M,M,M,M,M,26.18
0CO,7/22/24,11:55:00 AM,35.6,28.4,74.8,140,4,0,30.68,M,M,CLR,M,M,M,M,M,M,31.62
0CO,7/22/24,12:55:00 PM,37.4,28.4,69.67,140,7,0,30.69,M,14,CLR,M,M,M,M,M,M,31.36
0CO,7/22/24,1:55:00 PM,37.4,28.4,69.67,M,M,0,30.7,M,M,CLR,M,M,M,M,M,M,M
0CO,7/22/24,2:55:00 PM,41,32,70.08,120,7,0,30.71,M,17,CLR,M,M,M,M,M,M,35.75
0CO,7/22/24,3:55:00 PM,39.2,32,75.16,160,10,0,30.71,M,20,SCT,M,M,M,2200,M,M,32
0CO,7/22/24,4:55:00 PM,42.8,32,65.38,130,6,0,30.71,M,M,CLR,M,M,M,M,M,M,38.54
0CO,7/22/24,5:55:00 PM,44.6,33.8,65.61,160,11,0,30.71,M,17,SCT,BKN,M,M,4400,5000,M,38.39
0CO,7/22/24,6:55:00 PM,44.6,32,61.03,120,6,0,30.71,M,17,SCT,SCT,M,M,6000,6500,M,40.71
0CO,7/22/24,7:55:00 PM,42.8,33.8,70.28,140,6,0,30.71,M,M,SCT,SCT,OVC,M,2300,4500,7000,38.54
0CO,7/22/24,8:55:00 PM,44.6,35.6,70.48,140,15,0,30.7,M,22,SCT,SCT,BKN,M,2400,3200,8000,37.11
0CO,7/22/24,9:55:00 PM,44.6,35.6,70.48,150,7,0,30.7,M,22,SCT,SCT,BKN,M,2300,2700,3200,40.14
0CO,7/22/24,10:55:00 PM,42.8,35.6,75.5,M,M,0,30.69,M,M,SCT,BKN,OVC,M,1800,3000,9000,M
0CO,7/22/24,11:55:00 PM,37.4,32,80.65,90,10,0.08,30.7,M,20,SCT,OVC,M,M,1500,2200,M,29.74
0CO,7/22/24,12:55:00 AM,37.4,35.6,93.14,150,12,0,30.71,M,19,OVC,M,M,M,8000,M,M,28.87
0CO,7/22/24,1:55:00 AM,37.4,33.8,86.69,150,8,0,30.71,M,17,M,M,M,M,M,M,M,30.76
0CO,7/22/24,2:55:00 AM,37.4,32,80.65,140,8,0,30.71,M,M,CLR,M,M,M,M,M,M,30.76
0CO,7/22/24,3:55:00 AM,37.4,32,80.65,130,9,0,30.72,M,16,CLR,M,M,M,M,M,M,30.23
0CO,7/22/24,4:55:00 AM,37.4,33.8,86.69,130,10,0,30.72,M,16,CLR,M,M,M,M,M,M,29.74
0CO,7/22/24,5:55:00 AM,37.4,35.6,93.14,150,9,0,30.72,M,M,M,M,M,M,M,M,M,30.23
0CO,7/22/24,6:55:00 AM,37.4,33.8,86.69,150,5,0,30.72,M,M,CLR,M,M,M,M,M,M,32.81
0CO,7/22/24,7:55:00 AM,39.2,32,75.16,270,10,0,30.72,M,M,CLR,M,M,M,M,M,M,32
0CO,7/22/24,8:55:00 AM,39.2,30.2,69.88,290,6,0,30.71,M,M,CLR,M,M,M,M,M,M,34.2
0CO,7/22/24,9:55:00 AM,39.2,28.4,64.93,310,9,0,30.71,M,M,M,M,M,M,M,M,M,32.47
0CO,7/22/24,10:55:00 AM,39.2,28.4,64.93,260,8,0,30.72,M,M,M,M,M,M,M,M,M,32.98
0CO,7/23/24,11:55:00 AM,39.2,28.4,64.93,300,7,0,30.72,M,M,M,M,M,M,M,M,M,33.56
0CO,7/23/24,12:55:00 PM,39.2,28.4,64.93,310,9,0,30.72,M,M,CLR,M,M,M,M,M,M,32.47
0CO,7/23/24,1:55:00 PM,41,28.4,60.54,290,8,0,30.74,M,M,CLR,M,M,M,M,M,M,35.2
0CO,7/23/24,2:55:00 PM,42.8,30.2,60.79,310,8,0,30.74,M,M,CLR,M,M,M,M,M,M,37.42
0CO,7/23/24,3:55:00 PM,44.6,32,61.03,20,4,0,30.75,M,M,CLR,M,M,M,M,M,M,42.13
0CO,7/23/24,4:55:00 PM,46.4,32,57,50,5,0,30.77,M,M,CLR,M,M,M,M,M,M,43.5
0CO,7/23/24,5:55:00 PM,50,32,49.81,20,4,0,30.77,M,M,CLR,M,M,M,M,M,M,50
0CO,7/23/24,6:55:00 PM,51.8,30.2,43.32,320,5,0,30.77,M,M,CLR,M,M,M,M,M,M,51.8
0CO,7/23/24,7:55:00 PM,51.8,26.6,37.38,60,4,0,30.79,M,M,CLR,M,M,M,M,M,M,51.8
0CO,7/23/24,8:55:00 PM,53.6,17.6,23.93,320,3,0,30.79,M,M,CLR,M,M,M,M,M,M,53.6
0CO,7/23/24,9:55:00 PM,51.8,17.6,25.56,0,0,0,30.79,M,M,CLR,M,M,M,M,M,M,51.8
0CO,7/23/24,10:55:00 PM,50,30.2,46.31,140,14,0,30.79,M,23,SCT,M,M,M,9500,M,M,50
0CO,7/23/24,11:55:00 PM,50,26.6,39.95,150,6,0,30.8,M,M,CLR,M,M,M,M,M,M,50
0CO,7/23/24,12:55:00 AM,50,26.6,39.95,160,6,0,30.81,M,M,CLR,M,M,M,M,M,M,50
0CO,7/23/24,1:55:00 AM,48.2,28.4,46.02,180,4,0,30.82,M,M,CLR,M,M,M,M,M,M,46.34
0CO,7/23/24,2:55:00 AM,46.4,32,57,150,6,0,30.82,M,M,CLR,M,M,M,M,M,M,42.87
0CO,7/23/24,3:55:00 AM,46.4,32,57,150,7,0,30.84,M,M,CLR,M,M,M,M,M,M,42.33
0CO,7/23/24,4:55:00 AM,46.4,28.4,49.24,0,0,0,30.84,M,M,CLR,M,M,M,M,M,M,46.4
0CO,7/23/24,5:55:00 AM,46.4,28.4,49.24,260,7,0,30.84,M,M,CLR,M,M,M,M,M,M,42.33
0CO,7/23/24,6:55:00 AM,46.4,30.2,53,260,3,0,30.84,M,M,CLR,M,M,M,M,M,M,45.15
0CO,7/23/24,7:55:00 AM,44.6,28.4,52.72,270,11,0,30.84,M,M,CLR,M,M,M,M,M,M,38.39
0CO,7/23/24,8:55:00 AM,46.4,28.4,49.24,260,9,0,30.84,M,M,CLR,M,M,M,M,M,M,41.42
0CO,7/23/24,9:55:00 AM,46.4,26.6,45.73,0,0,0,30.85,M,M,CLR,M,M,M,M,M,M,46.4
0CO,7/23/24,10:55:00 AM,46.4,24.8,42.44,290,5,0,30.85,M,M,CLR,M,M,M,M,M,M,43.5
0CO,7/24/24,11:55:00 AM,46.4,26.6,45.73,310,4,0,30.86,M,M,CLR,M,M,M,M,M,M,44.24
0CO,7/24/24,12:55:00 PM,46.4,26.6,45.73,90,10,0,30.86,M,M,SCT,M,M,M,9500,M,M,41.03
0CO,7/24/24,1:55:00 PM,48.2,26.6,42.73,130,4,0,30.87,M,M,CLR,M,M,M,M,M,M,46.34
0CO,7/24/24,2:55:00 PM,50,30.2,46.31,160,6,0,30.88,M,M,CLR,M,M,M,M,M,M,50
0CO,7/24/24,3:55:00 PM,51.8,28.4,40.25,120,4,0,30.89,M,M,SCT,BKN,M,M,7000,8000,M,51.8
0CO,7/24/24,4:55:00 PM,53.6,30.2,40.54,10,5,0,30.89,M,M,BKN,OVC,M,M,7000,8000,M,53.6
0CO,7/24/24,5:55:00 PM,53.6,26.6,34.98,350,4,0,30.9,M,M,BKN,BKN,M,M,7000,9000,M,53.6
0CO,7/24/24,6:55:00 PM,53.6,28.4,37.67,350,7,0,30.9,M,M,SCT,OVC,M,M,9000,11000,M,53.6
0CO,7/24/24,7:55:00 PM,55.4,30.2,37.97,150,6,0,30.9,M,M,SCT,BKN,BKN,M,7000,8500,12000,55.4
0CO,7/24/24,8:55:00 PM,55.4,30.2,37.97,220,5,0,30.9,M,M,BKN,OVC,M,M,7000,8500,M,55.4
0CO,7/24/24,9:55:00 PM,50,32,49.81,M,M,0,30.9,M,M,SCT,BKN,OVC,M,3900,5500,7000,50
0CO,7/24/24,10:55:00 PM,46.4,33.8,61.28,110,13,0,30.91,M,M,SCT,BKN,OVC,M,1200,4100,6000,40.02
0CO,7/24/24,11:55:00 PM,50,32,49.81,140,11,0.01,30.91,M,23,CLR,M,M,M,M,M,M,50
0CO,7/24/24,12:55:00 AM,50,32,49.81,170,4,0,30.9,M,M,SCT,M,M,M,10000,M,M,50
0CO,7/24/24,1:55:00 AM,48.2,32,53.27,150,11,0,30.9,M,14,OVC,M,M,M,9000,M,M,42.94
0CO,7/24/24,2:55:00 AM,48.2,30.2,49.53,160,14,0,30.9,M,M,CLR,M,M,M,M,M,M,42.04
0CO,7/24/24,3:55:00 AM,46.4,28.4,49.24,160,13,0,30.91,M,M,CLR,M,M,M,M,M,M,40.02
0CO,7/24/24,4:55:00 AM,46.4,28.4,49.24,160,14,0,30.91,M,M,CLR,M,M,M,M,M,M,39.72
0CO,7/24/24,5:55:00 AM,46.4,28.4,49.24,160,15,0,30.91,M,M,CLR,M,M,M,M,M,M,39.45
0CO,7/24/24,6:55:00 AM,46.4,28.4,49.24,170,3,0,30.9,M,M,CLR,M,M,M,M,M,M,45.15
0CO,7/24/24,7:55:00 AM,46.4,26.6,45.73,240,7,0,30.89,M,M,CLR,M,M,M,M,M,M,42.33
0CO,7/24/24,8:55:00 AM,46.4,28.4,49.24,260,12,0,30.88,M,M,CLR,M,M,M,M,M,M,40.33
0CO,7/24/24,9:55:00 AM,46.4,28.4,49.24,250,5,0,30.87,M,M,CLR,M,M,M,M,M,M,43.5
0CO,7/24/24,10:55:00 AM,48.2,28.4,46.02,270,9,0,30.87,M,M,CLR,M,M,M,M,M,M,43.66
0CO,7/25/24,11:55:00 AM,50,26.6,39.95,130,4,0,30.87,M,M,CLR,M,M,M,M,M,M,50
0CO,7/25/24,12:55:00 PM,50,26.6,39.95,50,5,0,30.87,M,M,CLR,M,M,M,M,M,M,50
0CO,7/25/24,1:55:00 PM,50,28.4,43.03,40,5,0,30.88,M,M,CLR,M,M,M,M,M,M,50
0CO,7/25/24,2:55:00 PM,51.8,30.2,43.32,40,4,0,30.88,M,M,CLR,M,M,M,M,M,M,51.8
0CO,7/25/24,3:55:00 PM,53.6,32,43.61,300,9,0,30.88,M,M,CLR,M,M,M,M,M,M,53.6
0CO,7/25/24,4:55:00 PM,55.4,32,40.84,10,3,0,30.87,M,M,CLR,M,M,M,M,M,M,55.4
0CO,7/25/24,5:55:00 PM,59,32,35.87,60,8,0,30.87,M,M,CLR,M,M,M,M,M,M,59
0CO,7/25/24,6:55:00 PM,59,32,35.87,10,4,0,30.87,M,17,CLR,M,M,M,M,M,M,59
0CO,7/25/24,7:55:00 PM,59,30.2,33.35,330,10,0,30.86,M,16,CLR,M,M,M,M,M,M,59
0CO,7/25/24,8:55:00 PM,60.8,30.2,31.28,350,10,0,30.84,M,23,SCT,SCT,M,M,7500,9500,M,60.8
0CO,7/25/24,9:55:00 PM,60.8,32,33.64,20,5,0,30.83,M,M,SCT,SCT,M,M,7000,8500,M,60.8
0CO,7/25/24,10:55:00 PM,55.4,32,40.84,110,10,0,30.81,M,M,OVC,M,M,M,10000,M,M,55.4
0CO,7/25/24,11:55:00 PM,55.4,32,40.84,130,12,0,30.8,M,18,BKN,M,M,M,11000,M,M,55.4
0CO,7/25/24,12:55:00 AM,53.6,33.8,46.88,M,M,0,30.79,M,M,SCT,M,M,M,9000,M,M,53.6
0CO,7/25/24,1:55:00 AM,53.6,33.8,46.88,300,8,0,30.79,M,M,BKN,BKN,M,M,7000,10000,M,53.6
0CO,7/25/24,2:55:00 AM,51.8,33.8,50.08,300,8,0,30.79,M,16,BKN,OVC,M,M,6000,8000,M,51.8
0CO,7/25/24,3:55:00 AM,50,33.8,53.54,250,9,0,30.79,M,17,BKN,M,M,M,9000,M,M,50
0CO,7/25/24,4:55:00 AM,46.4,35.6,65.83,260,11,0,30.79,M,24,SCT,BKN,BKN,M,7500,9000,12000,40.66
0CO,7/25/24,5:55:00 AM,50,33.8,53.54,260,9,0,30.78,M,19,BKN,OVC,M,M,7000,9000,M,50
0CO,7/25/24,7:55:00 AM,50,32,49.81,290,13,0,30.75,M,16,BKN,OVC,M,M,6000,8000,M,50
0CO,7/25/24,8:55:00 AM,48.2,32,53.27,290,9,0,30.73,M,M,SCT,SCT,OVC,M,4600,5500,7000,43.66
0CO,7/25/24,9:55:00 AM,46.4,33.8,61.28,320,7,0,30.71,M,18,SCT,M,M,M,8500,M,M,42.33
0CO,7/25/24,10:55:00 AM,44.6,33.8,65.61,330,6,0,30.71,M,M,BKN,M,M,M,9500,M,M,40.71
0CO,7/25/24,11:55:00 AM,42.8,35.6,75.5,330,7,0,30.71,M,16,SCT,M,M,M,7500,M,M,37.94
0CO,7/26/24,12:55:00 PM,44.6,35.6,70.48,300,8,0,30.71,M,18,SCT,BKN,BKN,M,7500,8500,12000,39.63
0CO,7/26/24,1:55:00 PM,46.4,35.6,65.83,300,8,0,30.72,M,17,SCT,M,M,M,8000,M,M,41.85
0CO,7/26/24,2:55:00 PM,46.4,37.4,70.68,10,6,0,30.72,M,M,CLR,M,M,M,M,M,M,42.87
0CO,7/26/24,3:55:00 PM,46.4,37.4,70.68,320,9,0,30.72,M,16,SCT,OVC,M,M,5500,9500,M,41.42
0CO,7/26/24,4:55:00 PM,50,39.2,66.27,310,9,0,30.72,M,17,BKN,BKN,M,M,5500,11000,M,50
0CO,7/26/24,5:55:00 PM,51.8,41,66.48,340,7,0,30.71,M,M,BKN,OVC,M,M,5000,11000,M,51.8
0CO,7/26/24,6:55:00 PM,51.8,41,66.48,50,7,0,30.68,M,14,SCT,SCT,BKN,M,3300,4400,5000,51.8
0CO,7/26/24,7:55:00 PM,46.4,41,81.34,290,13,0,30.68,M,17,SCT,BKN,OVC,M,2100,2500,3900,40.02
0CO,7/26/24,8:55:00 PM,46.4,37.4,70.68,310,9,0,30.67,M,19,SCT,BKN,OVC,M,3300,6000,8000,41.42
0CO,7/26/24,9:55:00 PM,50,37.4,61.76,300,11,0,30.66,M,17,BKN,BKN,OVC,M,3700,4300,5000,50
0CO,7/26/24,10:55:00 PM,50,39.2,66.27,150,6,0,30.64,M,M,BKN,BKN,OVC,M,3900,4600,7000,50
0CO,7/26/24,11:55:00 PM,50,39.2,66.27,140,8,0,30.63,M,M,SCT,BKN,OVC,M,4000,4900,9000,50
0CO,7/26/24,12:55:00 AM,46.4,41,81.34,120,4,0,30.63,M,M,SCT,BKN,OVC,M,3700,4900,9000,44.24
0CO,7/26/24,1:55:00 AM,46.4,37.4,70.68,300,8,0,30.63,M,M,SCT,BKN,OVC,M,3600,4200,4900,41.85
0CO,7/26/24,2:55:00 AM,44.6,33.8,65.61,260,11,0,30.62,M,M,BKN,BKN,M,M,9000,11000,M,38.39
0CO,7/26/24,3:55:00 AM,42.8,39.2,86.99,270,5,0,30.64,M,M,M,M,M,M,M,M,M,39.22
0CO,7/26/24,4:55:00 AM,41,41,100,190,8,0,30.63,M,M,M,M,M,M,M,M,M,35.2
0CO,7/26/24,5:55:00 AM,42.8,35.6,75.5,140,4,0,30.61,M,M,CLR,M,M,M,M,M,M,40.03
0CO,7/26/24,6:55:00 AM,44.6,35.6,70.48,270,19,0,30.6,M,24,CLR,M,M,M,M,M,M,36.1
0CO,7/26/24,7:55:00 AM,39.2,37.4,93.19,260,15,0,30.62,M,24,M,M,M,M,M,M,M,30.11
0CO,7/26/24,8:55:00 AM,39.2,33.8,80.79,250,11,0,30.59,M,26,SCT,SCT,OVC,M,4400,6500,11000,31.57
0CO,7/26/24,9:55:00 AM,42.8,32,65.38,300,11,0,30.57,M,18,CLR,M,M,M,M,M,M,36.11
0CO,7/26/24,10:55:00 AM,42.8,32,65.38,290,17,0,30.55,M,M,CLR,M,M,M,M,M,M,34.22
0CO,7/26/24,11:55:00 AM,44.6,30.2,56.74,280,15,0,30.56,M,M,CLR,M,M,M,M,M,M,37.11
0CO,7/27/24,12:55:00 PM,46.4,30.2,53,280,16,0,30.56,M,M,CLR,M,M,M,M,M,M,39.19
0CO,7/27/24,1:55:00 PM,46.4,30.2,53,300,10,0,30.58,M,15,CLR,M,M,M,M,M,M,41.03
0CO,7/27/24,2:55:00 PM,50,32,49.81,300,9,0,30.58,M,16,CLR,M,M,M,M,M,M,50
0CO,7/27/24,3:55:00 PM,53.6,32,43.61,290,12,0,30.59,M,20,CLR,M,M,M,M,M,M,53.6
0CO,7/27/24,4:55:00 PM,51.8,37.4,57.77,320,7,0,30.6,M,M,SCT,M,M,M,4700,M,M,51.8
0CO,7/27/24,5:55:00 PM,50,37.4,61.76,10,6,0,30.6,M,M,SCT,SCT,M,M,4300,4900,M,50
0CO,7/27/24,6:55:00 PM,51.8,39.2,61.99,350,7,0,30.58,M,24,SCT,SCT,SCT,M,4300,6500,7500,51.8
0CO,7/27/24,7:55:00 PM,53.6,33.8,46.88,290,22,0,30.55,M,M,SCT,M,M,M,11000,M,M,53.6
0CO,7/27/24,8:55:00 PM,55.4,32,40.84,290,15,0,30.55,M,30,CLR,M,M,M,M,M,M,55.4
0CO,7/27/24,9:55:00 PM,55.4,32,40.84,270,16,0,30.54,M,M,SCT,SCT,SCT,M,6000,7500,8500,55.4
0CO,7/27/24,10:55:00 PM,59,32,35.87,M,M,0,30.51,M,M,BKN,BKN,BKN,M,6000,7500,8500,59
0CO,7/27/24,11:55:00 PM,53.6,32,43.61,230,4,0,30.52,M,17,SCT,M,M,M,6000,M,M,53.6
0CO,7/27/24,12:55:00 AM,53.6,32,43.61,220,3,0,30.52,M,16,SCT,BKN,BKN,M,7000,7500,9000,53.6
0CO,7/27/24,1:55:00 AM,50,32,49.81,300,16,0,30.51,M,23,CLR,M,M,M,M,M,M,50
0CO,7/27/24,2:55:00 AM,41,33.8,75.33,300,6,0,30.52,M,19,CLR,M,M,M,M,M,M,36.37
0CO,7/27/24,3:55:00 AM,42.8,33.8,70.28,160,7,0,30.55,M,M,CLR,M,M,M,M,M,M,37.94
0CO,7/27/24,4:55:00 AM,46.4,33.8,61.28,160,20,0,30.53,M,25,SCT,SCT,SCT,M,6000,7000,8500,38.26
0CO,7/27/24,5:55:00 AM,44.6,33.8,65.61,170,9,0,30.52,M,M,SCT,SCT,SCT,M,5000,6000,8000,39.18
0CO,7/27/24,6:55:00 AM,44.6,33.8,65.61,250,13,0.01,30.51,M,30,SCT,BKN,OVC,M,3000,7000,11000,37.71
0CO,7/27/24,7:55:00 AM,46.4,32,57,270,11,0,30.49,M,24,SCT,M,M,M,8000,M,M,40.66
0CO,7/27/24,8:55:00 AM,46.4,32,57,280,15,0,30.49,M,25,SCT,BKN,M,M,7000,8500,M,39.45
0CO,7/27/24,9:55:00 AM,44.6,30.2,56.74,290,16,0,30.48,M,26,CLR,M,M,M,M,M,M,36.84
0CO,7/27/24,10:55:00 AM,44.6,23,42.14,280,28,0.01,30.48,M,48,CLR,M,M,M,M,M,M,34.35
0CO,7/27/24,11:55:00 AM,42.8,19.4,38.75,270,22,0,30.5,M,28,CLR,M,M,M,M,M,M,33.04
0CO,7/28/24,12:55:00 PM,44.6,21.2,39.06,280,23,0,30.52,M,34,CLR,M,M,M,M,M,M,35.25
0CO,7/28/24,1:55:00 PM,44.6,21.2,39.06,280,25,0,30.53,M,34,CLR,M,M,M,M,M,M,34.87
0CO,7/28/24,2:55:00 PM,46.4,21.2,36.48,280,25,0,30.53,M,38,CLR,M,M,M,M,M,M,37.31
0CO,7/28/24,3:55:00 PM,48.2,17.6,29.23,280,35,0,30.53,M,44,CLR,M,M,M,M,M,M,38.31
0CO,7/28/24,4:55:00 PM,50,19.4,29.52,280,21,0,30.55,M,44,CLR,M,M,M,M,M,M,50
0CO,7/28/24,5:55:00 PM,51.8,19.4,27.62,290,19,0,30.57,M,33,CLR,M,M,M,M,M,M,51.8
0CO,7/28/24,6:55:00 PM,53.6,21.2,27.91,300,19,0,30.57,M,29,CLR,M,M,M,M,M,M,53.6
0CO,7/28/24,7:55:00 PM,55.4,19.4,24.21,290,16,0,30.59,M,32,CLR,M,M,M,M,M,M,55.4
0CO,7/28/24,8:55:00 PM,55.4,17.6,22.41,310,26,0,30.56,M,31,CLR,M,M,M,M,M,M,55.4
0CO,7/28/24,9:55:00 PM,55.4,17.6,22.41,M,M,0,30.58,M,M,CLR,M,M,M,M,M,M,55.4
0CO,7/28/24,10:55:00 PM,55.4,19.4,24.21,270,16,0,30.6,M,32,CLR,M,M,M,M,M,M,55.4
0CO,7/28/24,11:55:00 PM,55.4,19.4,24.21,M,M,0,30.59,M,M,CLR,M,M,M,M,M,M,55.4
0CO,7/28/24,12:55:00 AM,53.6,19.4,25.85,290,18,0,30.61,M,22,CLR,M,M,M,M,M,M,53.6
0CO,7/28/24,1:55:00 AM,51.8,19.4,27.62,310,9,0,30.63,M,15,CLR,M,M,M,M,M,M,51.8
0CO,7/28/24,2:55:00 AM,50,17.6,27.33,270,5,0,30.65,M,M,CLR,M,M,M,M,M,M,50
0CO,7/28/24,3:55:00 AM,50,17.6,27.33,270,4,0,30.66,M,M,CLR,M,M,M,M,M,M,50
0CO,7/28/24,4:55:00 AM,50,17.6,27.33,160,9,0,30.66,M,M,CLR,M,M,M,M,M,M,50
0CO,7/28/24,5:55:00 AM,46.4,24.8,42.44,150,9,0,30.66,M,M,SCT,M,M,M,8500,M,M,41.42
0CO,7/28/24,6:55:00 AM,46.4,23,39.36,160,7,0,30.65,M,M,BKN,M,M,M,8500,M,M,42.33
0CO,7/28/24,7:55:00 AM,46.4,19.4,33.79,240,7,0,30.64,M,15,SCT,M,M,M,8500,M,M,42.33
0CO,7/28/24,8:55:00 AM,46.4,17.6,31.28,280,18,0,30.63,M,25,CLR,M,M,M,M,M,M,38.7
0CO,7/28/24,9:55:00 AM,46.4,14,26.75,270,21,0,30.61,M,33,CLR,M,M,M,M,M,M,38.06
0CO,7/28/24,10:55:00 AM,46.4,14,26.75,280,26,0,30.61,M,32,CLR,M,M,M,M,M,M,37.14
0CO,7/28/24,11:55:00 AM,44.6,12.2,26.45,280,22,0,30.63,M,30,CLR,M,M,M,M,M,M,35.45
0CO,7/29/24,12:55:00 PM,44.6,12.2,26.45,290,16,0,30.64,M,27,CLR,M,M,M,M,M,M,36.84
0CO,7/29/24,1:55:00 PM,46.4,10.4,22.81,290,18,0,30.66,M,24,CLR,M,M,M,M,M,M,38.7
0CO,7/29/24,2:55:00 PM,50,12.2,21.59,290,17,0,30.69,M,27,CLR,M,M,M,M,M,M,50
0CO,7/29/24,3:55:00 PM,50,10.4,19.93,290,23,0,30.69,M,33,CLR,M,M,M,M,M,M,50
0CO,7/29/24,4:55:00 PM,51.8,10.4,18.64,M,M,0,30.69,M,M,CLR,M,M,M,M,M,M,51.8
0CO,7/29/24,5:55:00 PM,55.4,15.8,20.73,M,M,0,30.69,M,M,CLR,M,M,M,M,M,M,55.4
0CO,7/29/24,6:55:00 PM,55.4,17.6,22.41,290,20,0,30.68,M,25,CLR,M,M,M,M,M,M,55.4
0CO,7/29/24,7:55:00 PM,57.2,17.6,20.99,240,13,0,30.69,M,28,CLR,M,M,M,M,M,M,57.2
0CO,7/29/24,8:55:00 PM,59,17.6,19.68,280,23,0,30.67,M,32,CLR,M,M,M,M,M,M,59
0CO,7/29/24,9:55:00 PM,60.8,19.4,19.94,M,M,0,30.67,M,M,SCT,M,M,M,9500,M,M,60.8
0CO,7/29/24,10:55:00 PM,60.8,23,23.23,290,10,0,30.67,M,M,BKN,M,M,M,10000,M,M,60.8
0CO,7/29/24,11:55:00 PM,55.4,21.2,26.13,290,12,0,30.66,M,19,SCT,SCT,M,M,10000,12000,M,55.4
0CO,7/29/24,12:55:00 AM,57.2,21.2,24.49,280,18,0,30.66,M,22,CLR,M,M,M,M,M,M,57.2
0CO,7/29/24,1:55:00 AM,53.6,21.2,27.91,300,15,0,30.66,M,21,SCT,M,M,M,9000,M,M,53.6
0CO,7/29/24,2:55:00 AM,50,19.4,29.52,290,14,0,30.66,M,21,CLR,M,M,M,M,M,M,50
0CO,7/29/24,3:55:00 AM,50,19.4,29.52,280,17,0,30.66,M,21,CLR,M,M,M,M,M,M,50
0CO,7/29/24,4:55:00 AM,50,19.4,29.52,280,20,0,30.66,M,M,CLR,M,M,M,M,M,M,50
0CO,7/29/24,5:55:00 AM,48.2,17.6,29.23,280,19,0,30.66,M,22,CLR,M,M,M,M,M,M,40.86
0CO,7/29/24,6:55:00 AM,48.2,17.6,29.23,M,M,0,30.64,M,M,CLR,M,M,M,M,M,M,M
0CO,7/29/24,7:55:00 AM,46.4,12.2,24.71,280,19,0,30.63,M,25,CLR,M,M,M,M,M,M,38.48
0CO,7/29/24,8:55:00 AM,46.4,8.6,21.04,280,22,0,30.62,M,34,CLR,M,M,M,M,M,M,37.86
0CO,7/29/24,9:55:00 AM,46.4,8.6,21.04,280,25,0,30.61,M,32,CLR,M,M,M,M,M,M,37.31
0CO,7/29/24,10:55:00 AM,44.6,10.4,24.42,290,19,0,30.61,M,28,CLR,M,M,M,M,M,M,36.1
0CO,7/29/24,11:55:00 AM,44.6,10.4,24.42,M,M,0,30.62,M,M,CLR,M,M,M,M,M,M,M
0CO,7/30/24,12:55:00 PM,46.4,10.4,22.81,300,27,0,30.63,M,36,CLR,M,M,M,M,M,M,36.97
0CO,7/30/24,1:55:00 PM,46.4,12.2,24.71,300,23,0,30.64,M,33,CLR,M,M,M,M,M,M,37.67
0CO,7/30/24,2:55:00 PM,50,14,23.37,M,M,0,30.64,M,M,CLR,M,M,M,M,M,M,50
0CO,7/30/24,3:55:00 PM,51.8,14,21.86,300,24,0,30.65,M,29,CLR,M,M,M,M,M,M,51.8
0CO,7/30/24,4:55:00 PM,53.6,14,20.46,290,12,0,30.67,M,30,CLR,M,M,M,M,M,M,53.6
0CO,7/30/24,5:55:00 PM,53.6,15.8,22.13,M,M,0,30.67,M,M,CLR,M,M,M,M,M,M,53.6
0CO,7/30/24,6:55:00 PM,55.4,14,19.16,290,17,0,30.67,M,M,CLR,M,M,M,M,M,M,55.4
0CO,7/30/24,7:55:00 PM,57.2,19.4,22.68,300,14,0,30.66,M,29,CLR,M,M,M,M,M,M,57.2
0CO,7/30/24,8:55:00 PM,59,19.4,21.26,260,15,0,30.66,M,32,SCT,M,M,M,9500,M,M,59
0CO,7/30/24,9:55:00 PM,59,21.2,22.95,260,15,0,30.65,M,21,CLR,M,M,M,M,M,M,59
0CO,7/30/24,10:55:00 PM,60.8,23,23.23,270,13,0,30.65,M,24,BKN,M,M,M,11000,M,M,60.8
0CO,7/30/24,11:55:00 PM,57.2,21.2,24.49,280,12,0,30.64,M,20,BKN,M,M,M,11000,M,M,57.2
0CO,7/30/24,12:55:00 AM,59,23,24.76,280,18,0,30.64,M,25,SCT,M,M,M,10000,M,M,59
0CO,7/30/24,1:55:00 AM,55.4,21.2,26.13,270,15,0,30.65,M,18,CLR,M,M,M,M,M,M,55.4
0CO,7/30/24,2:55:00 AM,51.8,21.2,29.82,280,17,0,30.66,M,M,CLR,M,M,M,M,M,M,51.8
0CO,7/30/24,3:55:00 AM,50,23,34.39,300,13,0,30.66,M,19,CLR,M,M,M,M,M,M,50
0CO,7/30/24,4:55:00 AM,50,23,34.39,290,11,0,30.66,M,20,CLR,M,M,M,M,M,M,50
0CO,7/30/24,5:55:00 AM,48.2,15.8,27.04,290,16,0,30.65,M,23,CLR,M,M,M,M,M,M,41.53
0CO,7/30/24,6:55:00 AM,48.2,12.2,23.09,290,15,0,30.65,M,M,CLR,M,M,M,M,M,M,41.78
0CO,7/30/24,7:55:00 AM,48.2,10.4,21.31,280,20,0,30.64,M,M,CLR,M,M,M,M,M,M,40.66
0CO,7/30/24,8:55:00 AM,44.6,12.2,26.45,310,14,0,30.63,M,19,CLR,M,M,M,M,M,M,37.4
0CO,7/30/24,9:55:00 AM,42.8,12.2,28.34,300,13,0,30.63,M,20,CLR,M,M,M,M,M,M,35.4
0CO,7/30/24,10:55:00 AM,42.8,10.4,26.16,290,14,0,30.64,M,M,CLR,M,M,M,M,M,M,35.08
0CO,7/30/24,11:55:00 AM,44.6,10.4,24.42,290,18,0,30.66,M,M,CLR,M,M,M,M,M,M,36.34
0CO,7/31/24,12:55:00 PM,44.6,10.4,24.42,290,18,0,30.66,M,M,CLR,M,M,M,M,M,M,36.34
0CO,7/31/24,1:55:00 PM,46.4,10.4,22.81,290,17,0,30.68,M,22,CLR,M,M,M,M,M,M,38.94
0CO,7/31/24,2:55:00 PM,50,10.4,19.93,300,9,0,30.7,M,26,CLR,M,M,M,M,M,M,50
0CO,7/31/24,3:55:00 PM,51.8,15.8,23.65,300,12,0,30.71,M,21,CLR,M,M,M,M,M,M,51.8
0CO,7/31/24,4:55:00 PM,53.6,14,20.46,300,13,0,30.72,M,21,CLR,M,M,M,M,M,M,53.6
0CO,7/31/24,5:55:00 PM,53.6,14,20.46,290,13,0,30.73,M,31,CLR,M,M,M,M,M,M,53.6
0CO,7/31/24,7:55:00 PM,57.2,15.8,19.42,290,16,0,30.74,M,33,CLR,M,M,M,M,M,M,57.2
0CO,7/31/24,8:55:00 PM,60.8,17.6,18.46,300,15,0,30.74,M,26,CLR,M,M,M,M,M,M,60.8
0CO,7/31/24,9:55:00 PM,59,14,16.83,300,8,0,30.75,M,M,CLR,M,M,M,M,M,M,59
0CO,7/31/24,10:55:00 PM,60.8,17.6,18.46,320,13,0,30.75,M,19,CLR,M,M,M,M,M,M,60.8
0CO,7/31/24,11:55:00 PM,59,15.8,18.2,310,14,0,30.75,M,19,CLR,M,M,M,M,M,M,59
0CO,7/31/24,12:55:00 AM,57.2,17.6,20.99,280,17,0,30.77,M,21,CLR,M,M,M,M,M,M,57.2
0CO,7/31/24,1:55:00 AM,53.6,23,30.11,20,3,0,30.78,M,M,CLR,M,M,M,M,M,M,53.6
0CO,7/31/24,2:55:00 AM,51.8,23,32.17,40,5,0,30.79,M,M,CLR,M,M,M,M,M,M,51.8
0CO,7/31/24,3:55:00 AM,50,21.2,31.87,300,7,0,30.81,M,M,CLR,M,M,M,M,M,M,50
0CO,7/31/24,4:55:00 AM,50,21.2,31.87,310,5,0,30.82,M,M,CLR,M,M,M,M,M,M,50
0CO,7/31/24,5:55:00 AM,50,19.4,29.52,70,5,0,30.82,M,M,CLR,M,M,M,M,M,M,50
0CO,7/31/24,6:55:00 AM,50,21.2,31.87,290,6,0,30.82,M,M,CLR,M,M,M,M,M,M,50
0CO,7/31/24,7:55:00 AM,50,19.4,29.52,60,4,0,30.81,M,M,CLR,M,M,M,M,M,M,50
0CO,7/31/24,8:55:00 AM,50,19.4,29.52,0,0,0,30.82,M,M,CLR,M,M,M,M,M,M,50
0CO,7/31/24,9:55:00 AM,50,19.4,29.52,0,0,0,30.81,M,M,CLR,M,M,M,M,M,M,50
0CO,7/31/24,10:55:00 AM,48.2,21.2,34.09,260,7,0,30.81,M,M,CLR,M,M,M,M,M,M,44.53
0CO,7/31/24,11:55:00 AM,48.2,21.2,34.09,70,4,0,30.83,M,M,CLR,M,M,M,M,M,M,46.34
0CO,7/31/24,12:55:00 PM,50,19.4,29.52,50,4,0,30.85,M,M,CLR,M,M,M,M,M,M,50
0CO,8/1/24,1:55:00 PM,51.8,17.6,25.56,0,0,0,30.87,M,M,CLR,M,M,M,M,M,M,51.8
0CO,8/1/24,2:55:00 PM,53.6,17.6,23.93,270,9,0,30.89,M,M,CLR,M,M,M,M,M,M,53.6
0CO,8/1/24,3:55:00 PM,55.4,17.6,22.41,320,3,0,30.9,M,M,CLR,M,M,M,M,M,M,55.4
0CO,8/1/24,4:55:00 PM,59,17.6,19.68,360,5,0,30.92,M,M,CLR,M,M,M,M,M,M,59
0CO,8/1/24,5:55:00 PM,57.2,17.6,20.99,360,9,0,30.93,M,16,CLR,M,M,M,M,M,M,57.2
0CO,8/1/24,6:55:00 PM,60.8,21.2,21.53,310,15,0,30.91,M,18,CLR,M,M,M,M,M,M,60.8
0CO,8/1/24,7:55:00 PM,60.8,19.4,19.94,330,8,0,30.91,M,M,CLR,M,M,M,M,M,M,60.8
0CO,8/1/24,8:55:00 PM,60.8,21.2,21.53,70,6,0,30.93,M,14,SCT,M,M,M,10000,M,M,60.8
0CO,8/1/24,9:55:00 PM,60.8,21.2,21.53,300,4,0,30.93,M,M,SCT,M,M,M,10000,M,M,60.8
0CO,8/1/24,10:55:00 PM,59,26.6,28.77,120,7,0,30.93,M,15,BKN,M,M,M,10000,M,M,59
0CO,8/1/24,11:55:00 PM,57.2,26.6,30.69,120,12,0,30.92,M,21,SCT,M,M,M,12000,M,M,57.2
0CO,8/1/24,12:55:00 AM,55.4,26.6,32.76,M,M,0,30.93,M,M,CLR,M,M,M,M,M,M,55.4
0CO,8/1/24,1:55:00 AM,53.6,28.4,37.67,M,M,0,30.92,M,M,CLR,M,M,M,M,M,M,53.6
0CO,8/1/24,2:55:00 AM,53.6,26.6,34.98,M,M,0,30.91,M,M,CLR,M,M,M,M,M,M,53.6
0CO,8/1/24,3:55:00 AM,53.6,26.6,34.98,120,13,0,30.93,M,23,CLR,M,M,M,M,M,M,53.6
0CO,8/1/24,4:55:00 AM,51.8,26.6,37.38,110,10,0,30.92,M,21,CLR,M,M,M,M,M,M,51.8
0CO,8/1/24,5:55:00 AM,50,28.4,43.03,140,14,0,30.93,M,18,CLR,M,M,M,M,M,M,50
0CO,8/1/24,6:55:00 AM,51.8,30.2,43.32,150,12,0,30.93,M,M,CLR,M,M,M,M,M,M,51.8
0CO,8/1/24,7:55:00 AM,50,28.4,43.03,170,14,0,30.93,M,M,CLR,M,M,M,M,M,M,50
0CO,8/1/24,8:55:00 AM,50,30.2,46.31,170,7,0,30.93,M,M,CLR,M,M,M,M,M,M,50
0CO,8/1/24,9:55:00 AM,46.4,33.8,61.28,250,12,0,30.93,M,M,CLR,M,M,M,M,M,M,40.33
0CO,8/1/24,10:55:00 AM,48.2,33.8,57.26,250,8,0,30.93,M,14,CLR,M,M,M,M,M,M,44.07
0CO,8/1/24,11:55:00 AM,50,32,49.81,260,12,0,30.93,M,M,CLR,M,M,M,M,M,M,50
0CO,8/1/24,12:55:00 PM,50,32,49.81,260,12,0,30.95,M,M,CLR,M,M,M,M,M,M,50
0CO,8/2/24,1:55:00 PM,51.8,32,46.59,260,11,0,30.96,M,M,CLR,M,M,M,M,M,M,51.8
0CO,8/2/24,2:55:00 PM,55.4,28.4,35.28,0,0,0,30.96,M,M,CLR,M,M,M,M,M,M,55.4
0CO,8/2/24,3:55:00 PM,59,26.6,28.77,30,6,0,30.96,M,M,CLR,M,M,M,M,M,M,59
0CO,8/2/24,4:55:00 PM,60.8,28.4,29.06,330,17,0,30.96,M,20,CLR,M,M,M,M,M,M,60.8
0CO,8/2/24,5:55:00 PM,60.8,28.4,29.06,30,7,0,30.96,M,M,CLR,M,M,M,M,M,M,60.8
0CO,8/2/24,6:55:00 PM,60.8,28.4,29.06,30,5,0,30.95,M,M,CLR,M,M,M,M,M,M,60.8
0CO,8/2/24,7:55:00 PM,62.6,24.8,23.5,10,8,0,30.94,M,19,CLR,M,M,M,M,M,M,62.6
0CO,8/2/24,8:55:00 PM,60.8,23,23.23,300,21,0,30.91,M,28,SCT,M,M,M,9000,M,M,60.8
0CO,8/2/24,9:55:00 PM,62.6,24.8,23.5,10,9,0,30.9,M,26,SCT,M,M,M,8500,M,M,62.6
0CO,8/2/24,10:55:00 PM,60.8,26.6,26.98,80,7,0,30.89,M,M,BKN,M,M,M,9500,M,M,60.8
0CO,8/2/24,11:55:00 PM,60.8,26.6,26.98,20,5,0,30.89,M,17,SCT,BKN,M,M,9500,12000,M,60.8
0CO,8/2/24,12:55:00 AM,59,30.2,33.35,360,3,0,30.89,M,M,SCT,M,M,M,9500,M,M,59
0CO,8/2/24,1:55:00 AM,53.6,32,43.61,100,11,0,30.89,M,24,SCT,BKN,OVC,M,7500,8500,11000,53.6
0CO,8/2/24,2:55:00 AM,53.6,30.2,40.54,350,13,0,30.9,M,30,SCT,SCT,OVC,M,3800,4900,8500,53.6
0CO,8/2/24,3:55:00 AM,48.2,32,53.27,160,15,0,30.9,M,19,M,M,M,M,M,M,M,41.78
0CO,8/2/24,4:55:00 AM,44.6,32,61.03,150,17,0,30.9,M,23,SCT,M,M,M,8500,M,M,36.58
0CO,8/2/24,5:55:00 AM,44.6,32,61.03,170,6,0,30.9,M,M,BKN,M,M,M,9500,M,M,40.71
0CO,8/2/24,6:55:00 AM,48.2,30.2,49.53,0,0,0,30.9,M,M,BKN,M,M,M,9500,M,M,48.2
0CO,8/2/24,7:55:00 AM,51.8,30.2,43.32,260,4,0,30.89,M,M,OVC,M,M,M,9000,M,M,51.8
0CO,8/2/24,8:55:00 AM,50,32,49.81,0,0,0,30.89,M,M,SCT,M,M,M,9000,M,M,50
0CO,8/2/24,9:55:00 AM,48.2,32,53.27,150,5,0,30.88,M,M,CLR,M,M,M,M,M,M,45.63
0CO,8/2/24,10:55:00 AM,51.8,26.6,37.38,110,7,0,30.88,M,15,CLR,M,M,M,M,M,M,51.8
0CO,8/2/24,11:55:00 AM,50,26.6,39.95,100,9,0,30.87,M,M,CLR,M,M,M,M,M,M,50
0CO,8/2/24,12:55:00 PM,50,30.2,46.31,100,10,0,30.88,M,M,CLR,M,M,M,M,M,M,50
0CO,8/3/24,1:55:00 PM,51.8,30.2,43.32,160,6,0,30.88,M,M,CLR,M,M,M,M,M,M,51.8
0CO,8/3/24,2:55:00 PM,53.6,24.8,32.46,150,7,0,30.88,M,M,CLR,M,M,M,M,M,M,53.6
0CO,8/3/24,3:55:00 PM,55.4,24.8,30.4,310,3,0,30.88,M,M,CLR,M,M,M,M,M,M,55.4
0CO,8/3/24,4:55:00 PM,57.2,19.4,22.68,120,6,0,30.88,M,M,CLR,M,M,M,M,M,M,57.2
0CO,8/3/24,5:55:00 PM,59,30.2,33.35,160,10,0,30.88,M,18,SCT,M,M,M,8000,M,M,59
0CO,8/3/24,6:55:00 PM,55.4,30.2,37.97,M,M,0,30.88,M,M,OVC,M,M,M,6500,M,M,55.4
0CO,8/3/24,7:55:00 PM,59,30.2,33.35,140,12,0,30.87,M,21,SCT,M,M,M,8000,M,M,59
0CO,8/3/24,8:55:00 PM,59,30.2,33.35,110,10,0,30.86,M,M,CLR,M,M,M,M,M,M,59
0CO,8/3/24,9:55:00 PM,57.2,30.2,35.57,120,8,0,30.84,M,M,CLR,M,M,M,M,M,M,57.2
0CO,8/3/24,10:55:00 PM,55.4,32,40.84,M,M,0,30.83,M,M,CLR,M,M,M,M,M,M,55.4
0CO,8/3/24,11:55:00 PM,53.6,32,43.61,M,M,0,30.82,M,M,CLR,M,M,M,M,M,M,53.6
0CO,8/3/24,12:55:00 AM,53.6,32,43.61,M,M,0,30.81,M,M,CLR,M,M,M,M,M,M,53.6
0CO,8/3/24,1:55:00 AM,51.8,32,46.59,M,M,0,30.8,M,M,CLR,M,M,M,M,M,M,51.8
0CO,8/3/24,2:55:00 AM,50,30.2,46.31,120,28,0,30.81,M,M,CLR,M,M,M,M,M,M,50
0CO,8/3/24,3:55:00 AM,48.2,30.2,49.53,M,M,0,30.82,M,M,CLR,M,M,M,M,M,M,M
0CO,8/3/24,4:55:00 AM,48.2,30.2,49.53,M,M,0,30.81,M,M,CLR,M,M,M,M,M,M,M
0CO,8/3/24,5:55:00 AM,48.2,30.2,49.53,150,17,0,30.82,M,M,CLR,M,M,M,M,M,M,41.3
0CO,8/3/24,6:55:00 AM,48.2,30.2,49.53,160,6,0,30.81,M,M,CLR,M,M,M,M,M,M,45.04
0CO,8/3/24,7:55:00 AM,48.2,30.2,49.53,250,13,0,30.79,M,M,CLR,M,M,M,M,M,M,42.32
0CO,8/3/24,8:55:00 AM,46.4,33.8,61.28,260,13,0,30.77,M,M,CLR,M,M,M,M,M,M,40.02
0CO,8/3/24,9:55:00 AM,48.2,32,53.27,250,11,0,30.77,M,M,CLR,M,M,M,M,M,M,42.94
0CO,8/3/24,10:55:00 AM,48.2,32,53.27,250,10,0,30.77,M,14,CLR,M,M,M,M,M,M,43.28
0CO,8/3/24,11:55:00 AM,46.4,32,57,260,8,0,30.77,M,M,CLR,M,M,M,M,M,M,41.85
0CO,8/3/24,12:55:00 PM,50,32,49.81,290,11,0,30.77,M,19,CLR,M,M,M,M,M,M,50
0CO,8/4/24,1:55:00 PM,50,33.8,53.54,290,13,0,30.78,M,18,CLR,M,M,M,M,M,M,50
0CO,8/4/24,2:55:00 PM,51.8,33.8,50.08,300,12,0,30.79,M,18,CLR,M,M,M,M,M,M,51.8
0CO,8/4/24,3:55:00 PM,57.2,35.6,44.19,20,7,0,30.79,M,M,CLR,M,M,M,M,M,M,57.2
0CO,8/4/24,4:55:00 PM,59,35.6,41.42,40,6,0,30.79,M,M,CLR,M,M,M,M,M,M,59
0CO,8/4/24,5:55:00 PM,57.2,35.6,44.19,350,11,0,30.79,M,24,SCT,M,M,M,4400,M,M,57.2
0CO,8/4/24,6:55:00 PM,59,35.6,41.42,30,6,0,30.79,M,18,SCT,SCT,SCT,M,4800,6500,8500,59
0CO,8/4/24,7:55:00 PM,55.4,35.6,47.16,320,17,0,30.77,M,22,SCT,BKN,M,M,6500,9000,M,55.4
0CO,8/4/24,8:55:00 PM,55.4,37.4,50.64,360,11,0,30.76,M,21,SCT,OVC,M,M,4200,8000,M,55.4
0CO,8/4/24,9:55:00 PM,50,35.6,57.52,230,10,0,30.8,M,22,SCT,BKN,OVC,M,3100,4100,4800,50
0CO,8/4/24,10:55:00 PM,50,33.8,53.54,300,9,0,30.78,M,M,SCT,BKN,OVC,M,3500,5000,7000,50
0CO,8/4/24,11:55:00 PM,50,32,49.81,300,28,0,30.75,M,35,SCT,BKN,OVC,M,2000,5500,7000,50
0CO,8/4/24,12:55:00 AM,53.6,35.6,50.36,300,10,0,30.75,M,20,OVC,M,M,M,11000,M,M,53.6
0CO,8/4/24,1:55:00 AM,51.8,35.6,53.81,290,9,0,30.77,M,M,SCT,SCT,BKN,M,5000,6000,7000,51.8
0CO,8/4/24,2:55:00 AM,42.8,37.4,81.07,260,16,0.09,30.81,M,29,SCT,SCT,OVC,M,1600,2800,3900,34.5
0CO,8/4/24,3:55:00 AM,41,37.4,86.89,260,18,0.15,30.82,M,23,M,M,M,M,M,M,M,31.6
0CO,8/4/24,4:55:00 AM,41,39.2,93.24,240,6,0.05,30.82,M,M,M,M,M,M,M,M,M,36.37
0CO,8/4/24,5:55:00 AM,42.8,37.4,81.07,240,7,0.05,30.79,M,21,BKN,BKN,OVC,M,3800,4700,5500,37.94
0CO,8/4/24,6:55:00 AM,42.8,37.4,81.07,240,7,0,30.76,M,25,SCT,M,M,M,12000,M,M,37.94
0CO,8/4/24,7:55:00 AM,44.6,37.4,75.68,310,11,0,30.74,M,25,CLR,M,M,M,M,M,M,38.39
0CO,8/4/24,8:55:00 AM,42.8,37.4,81.07,310,16,0,30.74,M,19,CLR,M,M,M,M,M,M,34.5
0CO,8/4/24,9:55:00 AM,44.6,35.6,70.48,300,14,0,30.74,M,23,CLR,M,M,M,M,M,M,37.4
0CO,8/4/24,10:55:00 AM,44.6,35.6,70.48,320,16,0,30.75,M,M,CLR,M,M,M,M,M,M,36.84
0CO,8/4/24,11:55:00 AM,44.6,35.6,70.48,320,15,0,30.77,M,19,CLR,M,M,M,M,M,M,37.11
0CO,8/4/24,12:55:00 PM,44.6,35.6,70.48,330,6,0,30.79,M,M,CLR,M,M,M,M,M,M,40.71
0CO,8/5/24,1:55:00 PM,48.2,37.4,66.05,320,4,0,30.81,M,M,CLR,M,M,M,M,M,M,46.34
0CO,8/5/24,2:55:00 PM,50,39.2,66.27,10,4,0,30.83,M,M,CLR,M,M,M,M,M,M,50
0CO,8/5/24,3:55:00 PM,53.6,41,62.23,10,3,0,30.84,M,M,CLR,M,M,M,M,M,M,53.6
0CO,8/5/24,4:55:00 PM,55.4,41,58.27,340,4,0,30.85,M,M,CLR,M,M,M,M,M,M,55.4
0CO,8/5/24,5:55:00 PM,53.6,41,62.23,300,3,0,30.85,M,M,SCT,BKN,M,M,3900,9000,M,53.6
0CO,8/5/24,6:55:00 PM,46.4,41,81.34,140,17,0.08,30.86,M,25,SCT,BKN,OVC,M,1700,2900,3600,38.94
0CO,8/5/24,7:55:00 PM,46.4,37.4,70.68,160,5,0,30.85,M,M,SCT,BKN,OVC,M,2100,4300,7000,43.5
0CO,8/5/24,8:55:00 PM,44.6,39.2,81.2,M,M,0,30.84,M,M,BKN,OVC,M,M,6000,8500,M,M
0CO,8/5/24,9:55:00 PM,44.6,39.2,81.2,160,17,0,30.85,M,23,BKN,BKN,BKN,M,7000,8000,12000,36.58
0CO,8/5/24,10:55:00 PM,44.6,37.4,75.68,190,9,0,30.85,M,16,SCT,OVC,M,M,4500,7000,M,39.18
0CO,8/5/24,11:55:00 PM,46.4,35.6,65.83,140,7,0,30.85,M,M,SCT,SCT,OVC,M,4200,5000,9000,42.33
0CO,8/5/24,12:55:00 AM,46.4,35.6,65.83,160,12,0,30.83,M,17,SCT,BKN,M,M,6000,11000,M,40.33
0CO,8/5/24,1:55:00 AM,46.4,35.6,65.83,150,9,0,30.84,M,21,BKN,M,M,M,6000,M,M,41.42
0CO,8/5/24,2:55:00 AM,44.6,37.4,75.68,M,M,0,30.84,M,M,CLR,M,M,M,M,M,M,M
0CO,8/5/24,3:55:00 AM,42.8,37.4,81.07,160,19,0,30.86,M,23,CLR,M,M,M,M,M,M,33.72
0CO,8/5/24,4:55:00 AM,42.8,37.4,81.07,170,7,0,30.85,M,23,CLR,M,M,M,M,M,M,37.94
0CO,8/5/24,5:55:00 AM,42.8,39.2,86.99,230,6,0,30.85,M,M,M,M,M,M,M,M,M,38.54
0CO,8/5/24,6:55:00 AM,44.6,37.4,75.68,260,4,0,30.84,M,M,CLR,M,M,M,M,M,M,42.13
0CO,8/5/24,7:55:00 AM,44.6,37.4,75.68,280,14,0,30.82,M,M,CLR,M,M,M,M,M,M,37.4
0CO,8/5/24,8:55:00 AM,44.6,35.6,70.48,280,8,0,30.81,M,M,CLR,M,M,M,M,M,M,39.63
0CO,8/5/24,9:55:00 AM,44.6,35.6,70.48,290,8,0,30.8,M,M,CLR,M,M,M,M,M,M,39.63
0CO,8/5/24,10:55:00 AM,44.6,35.6,70.48,310,8,0,30.8,M,M,CLR,M,M,M,M,M,M,39.63
0CO,8/5/24,11:55:00 AM,42.8,35.6,75.5,320,18,0,30.8,M,21,CLR,M,M,M,M,M,M,33.97
0CO,8/5/24,12:55:00 PM,44.6,35.6,70.48,330,16,0,30.82,M,21,CLR,M,M,M,M,M,M,36.84
0CO,8/6/24,1:55:00 PM,46.4,37.4,70.68,330,13,0,30.83,M,22,CLR,M,M,M,M,M,M,40.02
0CO,8/6/24,2:55:00 PM,46.4,37.4,70.68,330,9,0,30.85,M,18,CLR,M,M,M,M,M,M,41.42
0CO,8/6/24,3:55:00 PM,48.2,37.4,66.05,330,12,0,30.85,M,21,CLR,M,M,M,M,M,M,42.62
0CO,8/6/24,4:55:00 PM,53.6,41,62.23,350,9,0,30.86,M,19,CLR,M,M,M,M,M,M,53.6
0CO,8/6/24,5:55:00 PM,55.4,41,58.27,10,9,0,30.86,M,21,SCT,M,M,M,3300,M,M,55.4
0CO,8/6/24,6:55:00 PM,55.4,37.4,50.64,310,16,0,30.86,M,22,SCT,M,M,M,4000,M,M,55.4
0CO,8/6/24,7:55:00 PM,59,33.8,38.56,310,16,0,30.84,M,23,CLR,M,M,M,M,M,M,59
0CO,8/6/24,8:55:00 PM,59,33.8,38.56,360,9,0,30.84,M,23,CLR,M,M,M,M,M,M,59
0CO,8/6/24,9:55:00 PM,59,35.6,41.42,310,15,0,30.83,M,24,SCT,M,M,M,12000,M,M,59
0CO,8/6/24,10:55:00 PM,59,33.8,38.56,M,M,0,30.81,M,M,SCT,SCT,M,M,9000,10000,M,59
0CO,8/6/24,11:55:00 PM,59,33.8,38.56,290,14,0,30.79,M,20,SCT,M,M,M,11000,M,M,59
0CO,8/6/24,12:55:00 AM,53.6,37.4,54.07,20,7,0,30.8,M,M,BKN,OVC,M,M,5500,7000,M,53.6
0CO,8/6/24,1:55:00 AM,51.8,35.6,53.81,170,4,0,30.81,M,M,SCT,SCT,M,M,5500,8000,M,51.8
0CO,8/6/24,2:55:00 AM,51.8,35.6,53.81,240,6,0,30.8,M,18,SCT,BKN,M,M,8000,9000,M,51.8
0CO,8/6/24,3:55:00 AM,46.4,37.4,70.68,270,14,0,30.8,M,17,CLR,M,M,M,M,M,M,39.72
0CO,8/6/24,4:55:00 AM,46.4,37.4,70.68,260,13,0,30.81,M,M,BKN,M,M,M,6000,M,M,40.02
0CO,8/6/24,5:55:00 AM,46.4,37.4,70.68,270,13,0,30.81,M,M,SCT,M,M,M,6500,M,M,40.02
0CO,8/6/24,6:55:00 AM,46.4,37.4,70.68,280,17,0,30.8,M,M,CLR,M,M,M,M,M,M,38.94
0CO,8/6/24,7:55:00 AM,50,35.6,57.52,280,15,0,30.79,M,21,CLR,M,M,M,M,M,M,50
0CO,8/6/24,8:55:00 AM,50,33.8,53.54,280,17,0,30.77,M,24,CLR,M,M,M,M,M,M,50
0CO,8/6/24,9:55:00 AM,50,33.8,53.54,280,19,0,30.75,M,27,CLR,M,M,M,M,M,M,50
0CO,8/6/24,10:55:00 AM,46.4,33.8,61.28,300,21,0,30.74,M,30,CLR,M,M,M,M,M,M,38.06
0CO,8/6/24,11:55:00 AM,46.4,35.6,65.83,300,22,0,30.77,M,27,CLR,M,M,M,M,M,M,37.86
0CO,8/6/24,12:55:00 PM,46.4,35.6,65.83,290,16,0,30.78,M,23,CLR,M,M,M,M,M,M,39.19
0CO,8/7/24,1:55:00 PM,46.4,35.6,65.83,300,11,0,30.78,M,19,CLR,M,M,M,M,M,M,40.66
0CO,8/7/24,2:55:00 PM,46.4,35.6,65.83,290,12,0,30.77,M,19,BKN,M,M,M,10000,M,M,40.33
0CO,8/7/24,3:55:00 PM,51.8,37.4,57.77,310,14,0,30.79,M,19,BKN,M,M,M,10000,M,M,51.8
0CO,8/7/24,4:55:00 PM,51.8,37.4,57.77,310,9,0,30.79,M,21,OVC,M,M,M,11000,M,M,51.8
0CO,8/7/24,5:55:00 PM,53.6,37.4,54.07,320,14,0,30.78,M,19,SCT,M,M,M,11000,M,M,53.6
0CO,8/7/24,6:55:00 PM,55.4,39.2,54.34,10,8,0,30.77,M,17,SCT,SCT,M,M,3300,10000,M,55.4
0CO,8/7/24,7:55:00 PM,55.4,39.2,54.34,10,6,0,30.75,M,17,SCT,SCT,SCT,M,7000,10000,12000,55.4
0CO,8/7/24,8:55:00 PM,46.4,35.6,65.83,360,9,0.02,30.74,M,26,SCT,BKN,OVC,M,2900,3600,6500,41.42
0CO,8/7/24,9:55:00 PM,44.6,35.6,70.48,250,24,0,30.72,M,35,SCT,BKN,OVC,M,3900,7500,12000,35.06
0CO,8/7/24,10:55:00 PM,51.8,33.8,50.08,20,12,0,30.71,M,31,SCT,SCT,BKN,M,5000,9500,12000,51.8
0CO,8/7/24,11:55:00 PM,44.6,35.6,70.48,360,8,0,30.73,M,16,CLR,M,M,M,M,M,M,39.63
0CO,8/7/24,12:55:00 AM,41,37.4,86.89,330,10,0,30.74,M,21,M,M,M,M,M,M,M,34.25
0CO,8/7/24,1:55:00 AM,41,35.6,80.93,290,8,0,30.71,M,M,BKN,OVC,M,M,7000,9000,M,35.2
0CO,8/7/24,2:55:00 AM,42.8,33.8,70.28,280,18,0,30.7,M,23,SCT,OVC,M,M,8000,10000,M,33.97
0CO,8/7/24,3:55:00 AM,46.4,32,57,290,11,0,30.7,M,15,SCT,BKN,M,M,9500,12000,M,40.66
0CO,8/7/24,4:55:00 AM,46.4,32,57,280,11,0,30.7,M,18,CLR,M,M,M,M,M,M,40.66
0CO,8/7/24,5:55:00 AM,44.6,32,61.03,290,13,0,30.71,M,16,CLR,M,M,M,M,M,M,37.71
0CO,8/7/24,6:55:00 AM,44.6,32,61.03,280,13,0,30.69,M,17,CLR,M,M,M,M,M,M,37.71
0CO,8/7/24,7:55:00 AM,46.4,30.2,53,280,15,0,30.68,M,M,CLR,M,M,M,M,M,M,39.45
0CO,8/7/24,8:55:00 AM,46.4,32,57,280,15,0,30.68,M,22,CLR,M,M,M,M,M,M,39.45
0CO,8/7/24,9:55:00 AM,44.6,32,61.03,290,14,0,30.67,M,22,CLR,M,M,M,M,M,M,37.4
0CO,8/7/24,10:55:00 AM,44.6,32,61.03,290,16,0,30.68,M,M,CLR,M,M,M,M,M,M,36.84
0CO,8/7/24,11:55:00 AM,42.8,32,65.38,290,16,0,30.69,M,M,CLR,M,M,M,M,M,M,34.5
0CO,8/7/24,12:55:00 PM,42.8,30.2,60.79,290,16,0,30.69,M,M,CLR,M,M,M,M,M,M,34.5
0CO,8/8/24,1:55:00 PM,44.6,28.4,52.72,270,11,0,30.71,M,M,CLR,M,M,M,M,M,M,38.39
0CO,8/8/24,2:55:00 PM,46.4,30.2,53,240,7,0,30.72,M,M,CLR,M,M,M,M,M,M,42.33
0CO,8/8/24,3:55:00 PM,48.2,39.2,70.88,170,6,0,30.72,M,M,CLR,M,M,M,M,M,M,45.04
0CO,8/8/24,4:55:00 PM,48.2,41,76.01,150,6,0,30.72,M,M,SCT,M,M,M,6000,M,M,45.04
0CO,8/8/24,5:55:00 PM,51.8,41,66.48,240,7,0,30.72,M,M,SCT,M,M,M,7500,M,M,51.8
0CO,8/8/24,6:55:00 PM,51.8,32,46.59,260,7,0,30.71,M,17,BKN,BKN,OVC,M,6500,7000,8000,51.8
0CO,8/8/24,7:55:00 PM,55.4,32,40.84,290,11,0,30.71,M,23,SCT,BKN,BKN,M,6000,7500,8500,55.4
0CO,8/8/24,8:55:00 PM,55.4,32,40.84,300,11,0,30.69,M,26,SCT,SCT,BKN,M,7000,8000,9000,55.4
0CO,8/8/24,10:55:00 PM,44.6,32,61.03,310,23,0,30.67,M,30,SCT,BKN,OVC,M,3000,4600,9000,35.25
0CO,8/8/24,11:55:00 PM,44.6,32,61.03,310,25,0,30.67,M,38,SCT,BKN,OVC,M,3200,4500,7500,34.87
0CO,8/8/24,12:55:00 AM,42.8,33.8,70.28,310,20,0,30.67,M,26,SCT,BKN,OVC,M,2200,3000,4500,33.48
0CO,8/8/24,1:55:00 AM,42.8,33.8,70.28,300,14,0,30.68,M,24,SCT,SCT,M,M,8000,12000,M,35.08
0CO,8/8/24,2:55:00 AM,44.6,32,61.03,290,10,0,30.69,M,M,BKN,M,M,M,9000,M,M,38.77
0CO,8/8/24,3:55:00 AM,44.6,32,61.03,260,5,0,30.71,M,M,SCT,SCT,M,M,6000,7000,M,41.36
0CO,8/8/24,4:55:00 AM,42.8,33.8,70.28,240,4,0,30.71,M,M,CLR,M,M,M,M,M,M,40.03
0CO,8/8/24,5:55:00 AM,41,35.6,80.93,250,9,0,30.71,M,M,CLR,M,M,M,M,M,M,34.7
0CO,8/8/24,6:55:00 AM,41,35.6,80.93,250,9,0,30.7,M,14,CLR,M,M,M,M,M,M,34.7
0CO,8/8/24,7:55:00 AM,41,35.6,80.93,250,7,0,30.69,M,M,BKN,M,M,M,12000,M,M,35.75
0CO,8/8/24,8:55:00 AM,42.8,33.8,70.28,270,17,0,30.68,M,24,CLR,M,M,M,M,M,M,34.22
0CO,8/8/24,9:55:00 AM,44.6,33.8,65.61,270,18,0,30.67,M,24,SCT,SCT,M,M,6000,12000,M,36.34
0CO,8/8/24,10:55:00 AM,44.6,33.8,65.61,280,20,0,30.67,M,25,SCT,M,M,M,4700,M,M,35.87
0CO,8/8/24,11:55:00 AM,42.8,33.8,70.28,290,18,0,30.67,M,24,SCT,SCT,SCT,M,4100,4900,7000,33.97
0CO,8/8/24,12:55:00 PM,42.8,33.8,70.28,290,19,0,30.68,M,25,CLR,M,M,M,M,M,M,33.72
0CO,8/8/24,1:55:00 PM,44.6,33.8,65.61,280,22,0,30.69,M,27,CLR,M,M,M,M,M,M,35.45
0CO,8/9/24,2:55:00 PM,44.6,33.8,65.61,290,18,0,30.69,M,29,CLR,M,M,M,M,M,M,36.34
0CO,8/9/24,3:55:00 PM,44.6,33.8,65.61,290,17,0,30.69,M,26,CLR,M,M,M,M,M,M,36.58
0CO,8/9/24,4:55:00 PM,48.2,35.6,61.52,290,18,0,30.69,M,26,CLR,M,M,M,M,M,M,41.07
0CO,8/9/24,5:55:00 PM,37.4,35.6,93.14,330,21,0.01,30.69,M,32,M,M,M,M,M,M,M,26.06
0CO,8/9/24,6:55:00 PM,39.2,37.4,93.19,320,17,0.01,30.69,M,27,BKN,BKN,M,M,200,5500,M,29.51
0CO,8/9/24,7:55:00 PM,39.2,37.4,93.19,350,12,0,30.7,M,25,BKN,BKN,OVC,M,100,600,1000,31.17
0CO,8/9/24,8:55:00 PM,35.6,35.6,100,310,20,0.04,30.7,M,29,M,M,M,M,M,M,M,23.92
0CO,8/9/24,9:55:00 PM,41,33.8,75.33,290,19,0.02,30.67,M,31,SCT,BKN,OVC,M,2400,3000,4800,31.34
0CO,8/9/24,10:55:00 PM,42.8,32,65.38,290,16,0,30.66,M,19,SCT,SCT,SCT,M,7500,9000,12000,34.5
0CO,8/9/24,11:55:00 PM,42.8,32,65.38,280,18,0,30.68,M,25,SCT,BKN,OVC,M,3900,4800,6000,33.97
0CO,8/9/24,12:55:00 AM,41,33.8,75.33,300,13,0,30.68,M,18,BKN,BKN,BKN,M,7000,7500,8500,33.1
0CO,8/9/24,1:55:00 AM,39.2,37.4,93.19,290,12,0,30.69,M,25,OVC,M,M,M,100,M,M,31.17
0CO,8/9/24,2:55:00 AM,37.4,35.6,93.14,250,12,0,30.68,M,21,M,M,M,M,M,M,M,28.87
0CO,8/9/24,3:55:00 AM,37.4,35.6,93.14,270,8,0,30.7,M,M,M,M,M,M,M,M,M,30.76
0CO,8/9/24,4:55:00 AM,39.2,33.8,80.79,260,7,0,30.7,M,M,CLR,M,M,M,M,M,M,33.56
0CO,8/9/24,5:55:00 AM,37.4,35.6,93.14,270,14,0,30.7,M,M,M,M,M,M,M,M,M,28.12
0CO,8/9/24,6:55:00 AM,41,32,70.08,260,9,0,30.71,M,M,OVC,M,M,M,11000,M,M,34.7
0CO,8/9/24,7:55:00 AM,41,32,70.08,240,6,0,30.7,M,M,OVC,M,M,M,8500,M,M,36.37
0CO,8/9/24,8:55:00 AM,41,32,70.08,280,18,0,30.68,M,22,BKN,M,M,M,9500,M,M,31.6
0CO,8/9/24,9:55:00 AM,39.2,33.8,80.79,290,13,0,30.68,M,17,BKN,M,M,M,10000,M,M,30.79
0CO,8/9/24,10:55:00 AM,39.2,33.8,80.79,270,19,0,30.68,M,25,BKN,M,M,M,11000,M,M,28.96
0CO,8/9/24,11:55:00 AM,41,32,70.08,290,17,0,30.68,M,27,BKN,M,M,M,9000,M,M,31.87
0CO,8/9/24,12:55:00 PM,39.2,33.8,80.79,290,17,0,30.7,M,M,CLR,M,M,M,M,M,M,29.51
0CO,8/9/24,1:55:00 PM,41,32,70.08,290,15,0,30.72,M,M,CLR,M,M,M,M,M,M,32.45
0CO,8/10/24,2:55:00 PM,42.8,33.8,70.28,290,11,0,30.73,M,22,CLR,M,M,M,M,M,M,36.11
0CO,8/10/24,3:55:00 PM,46.4,35.6,65.83,300,12,0,30.74,M,16,SCT,M,M,M,2800,M,M,40.33
0CO,8/10/24,4:55:00 PM,50,35.6,57.52,290,11,0,30.74,M,19,SCT,SCT,M,M,3000,3600,M,50
0CO,8/10/24,5:55:00 PM,48.2,37.4,66.05,330,6,0,30.74,M,M,SCT,BKN,BKN,M,3100,4300,5500,45.04
0CO,8/10/24,6:55:00 PM,50,37.4,61.76,310,9,0,30.73,M,15,SCT,SCT,M,M,7000,10000,M,50
0CO,8/10/24,7:55:00 PM,51.8,32,46.59,280,16,0,30.71,M,M,SCT,SCT,SCT,M,4600,7000,9000,51.8
0CO,8/10/24,8:55:00 PM,51.8,32,46.59,300,14,0,30.71,M,23,BKN,BKN,BKN,M,5000,8000,11000,51.8
0CO,8/10/24,9:55:00 PM,46.4,32,57,290,11,0,30.7,M,16,SCT,BKN,OVC,M,6000,7500,9000,40.66
0CO,8/10/24,10:55:00 PM,39.2,35.6,86.79,290,9,0,30.7,M,21,M,M,M,M,M,M,M,32.47
0CO,8/10/24,11:55:00 PM,42.8,35.6,75.5,290,22,0,30.69,M,30,SCT,BKN,OVC,M,4200,4800,10000,33.04
0CO,8/10/24,12:55:00 AM,39.2,37.4,93.19,320,17,0,30.69,M,23,M,M,M,M,M,M,M,29.51
0CO,8/10/24,1:55:00 AM,37.4,33.8,86.69,290,26,0.05,30.7,M,35,M,M,M,M,M,M,M,24.91
0CO,8/10/24,2:55:00 AM,41,32,70.08,250,12,0.01,30.69,M,26,BKN,OVC,M,M,6000,8000,M,33.46
0CO,8/10/24,3:55:00 AM,37.4,33.8,86.69,260,19,0,30.69,M,24,SCT,BKN,OVC,M,8000,10000,12000,26.58
0CO,8/10/24,4:55:00 AM,41,32,70.08,270,25,0,30.69,M,34,BKN,BKN,OVC,M,4200,5000,6500,30
0CO,8/10/24,5:55:00 AM,39.2,32,75.16,260,21,0,30.67,M,38,BKN,BKN,OVC,M,6500,7500,8500,28.46
0CO,8/10/24,6:55:00 AM,37.4,32,80.65,290,12,0,30.68,M,21,SCT,BKN,M,M,9000,11000,M,28.87
0CO,8/10/24,7:55:00 AM,37.4,32,80.65,300,18,0,30.68,M,28,BKN,OVC,M,M,9000,12000,M,26.86
0CO,8/10/24,8:55:00 AM,41,32,70.08,290,21,0,30.63,M,30,SCT,M,M,M,11000,M,M,30.86
0CO,8/10/24,9:55:00 AM,39.2,32,75.16,290,20,0,30.63,M,25,CLR,M,M,M,M,M,M,28.7
0CO,8/10/24,10:55:00 AM,41,32,70.08,280,13,0,30.63,M,24,CLR,M,M,M,M,M,M,33.1
0CO,8/10/24,11:55:00 AM,41,33.8,75.33,270,14,0,30.64,M,24,CLR,M,M,M,M,M,M,32.76
0CO,8/10/24,12:55:00 PM,41,33.8,75.33,280,20,0,30.66,M,27,SCT,M,M,M,8500,M,M,31.09
0CO,8/10/24,1:55:00 PM,35.6,33.8,93.08,340,19,0.03,30.68,M,31,OVC,M,M,M,100,M,M,24.2
0CO,8/11/24,2:55:00 PM,41,33.8,75.33,280,28,0,30.65,M,42,SCT,M,M,M,12000,M,M,29.43
0CO,8/11/24,3:55:00 PM,44.6,35.6,70.48,300,28,0,30.64,M,M,CLR,M,M,M,M,M,M,34.35
0CO,8/11/24,4:55:00 PM,44.6,37.4,75.68,290,23,0,30.67,M,M,BKN,OVC,M,M,1700,2300,M,35.25
0CO,8/11/24,5:55:00 PM,44.6,37.4,75.68,280,27,0,30.66,M,48,BKN,BKN,BKN,M,1500,2000,2500,34.52
0CO,8/11/24,6:55:00 PM,50,37.4,61.76,290,21,0,30.67,M,37,SCT,BKN,BKN,M,2200,3000,3600,50
0CO,8/11/24,7:55:00 PM,48.2,37.4,66.05,290,31,0,30.67,M,45,SCT,SCT,SCT,M,2700,4200,5500,38.84
0CO,8/11/24,8:55:00 PM,41,32,70.08,290,39,0,30.65,M,52,SCT,BKN,OVC,M,1500,4600,6000,27.7
0CO,8/11/24,9:55:00 PM,44.6,37.4,75.68,290,18,0.03,30.67,M,28,SCT,SCT,SCT,M,3400,6500,10000,36.34
0CO,8/11/24,10:55:00 PM,44.6,37.4,75.68,280,18,0.01,30.67,M,27,SCT,M,M,M,8500,M,M,36.34
0CO,8/11/24,11:55:00 PM,44.6,37.4,75.68,280,16,0,30.67,M,24,SCT,SCT,BKN,M,2100,3000,5000,36.84
0CO,8/11/24,12:55:00 AM,44.6,35.6,70.48,270,13,0,30.69,M,23,CLR,M,M,M,M,M,M,37.71
0CO,8/11/24,1:55:00 AM,35.6,33.8,93.08,340,32,0.03,30.7,M,44,OVC,M,M,M,100,M,M,21.27
0CO,8/11/24,2:55:00 AM,35.6,33.8,93.08,280,16,0.02,30.69,M,23,M,M,M,M,M,M,M,25.11
0CO,8/11/24,3:55:00 AM,41,32,70.08,290,10,0,30.71,M,M,CLR,M,M,M,M,M,M,34.25
0CO,8/11/24,4:55:00 AM,42.8,33.8,70.28,250,10,0,30.72,M,19,CLR,M,M,M,M,M,M,36.51
0CO,8/11/24,5:55:00 AM,37.4,35.6,93.14,280,19,0,30.74,M,23,M,M,M,M,M,M,M,26.58
0CO,8/11/24,6:55:00 AM,39.2,33.8,80.79,240,12,0.01,30.71,M,16,SCT,BKN,OVC,M,4300,5000,6500,31.17
0CO,8/11/24,7:55:00 AM,42.8,32,65.38,260,11,0,30.7,M,16,SCT,SCT,M,M,10000,12000,M,36.11
0CO,8/11/24,8:55:00 AM,42.8,32,65.38,290,15,0,30.68,M,M,CLR,M,M,M,M,M,M,34.78
0CO,8/11/24,9:55:00 AM,42.8,32,65.38,290,16,0,30.67,M,M,CLR,M,M,M,M,M,M,34.5
0CO,8/11/24,10:55:00 AM,41,32,70.08,300,10,0,30.66,M,M,CLR,M,M,M,M,M,M,34.25
0CO,8/11/24,11:55:00 AM,41,33.8,75.33,280,12,0,30.66,M,M,CLR,M,M,M,M,M,M,33.46
0CO,8/11/24,12:55:00 PM,39.2,33.8,80.79,290,14,0,30.67,M,19,CLR,M,M,M,M,M,M,30.44
0CO,8/11/24,1:55:00 PM,39.2,33.8,80.79,310,8,0,30.69,M,M,CLR,M,M,M,M,M,M,32.98
0CO,8/12/24,2:55:00 PM,42.8,35.6,75.5,300,10,0,30.7,M,M,CLR,M,M,M,M,M,M,36.51
0CO,8/12/24,3:55:00 PM,44.6,37.4,75.68,300,10,0,30.71,M,16,CLR,M,M,M,M,M,M,38.77
0CO,8/12/24,4:55:00 PM,48.2,41,76.01,320,4,0,30.72,M,M,SCT,SCT,M,M,2300,2900,M,46.34
0CO,8/12/24,5:55:00 PM,50,41,71.07,350,6,0,30.71,M,17,SCT,SCT,M,M,1900,2500,M,50
0CO,8/12/24,6:55:00 PM,50,41,71.07,360,5,0,30.71,M,16,SCT,SCT,SCT,M,1000,1400,2000,50
0CO,8/12/24,7:55:00 PM,50,41,71.07,350,8,0,30.71,M,18,SCT,SCT,M,M,1900,6500,M,50
0CO,8/12/24,8:55:00 PM,50,39.2,66.27,340,6,0,30.69,M,M,SCT,SCT,BKN,M,2500,4100,6500,50
0CO,8/12/24,9:55:00 PM,50,41,71.07,0,0,0,30.68,M,M,SCT,BKN,OVC,M,2200,3100,7000,50
0CO,8/12/24,10:55:00 PM,48.2,39.2,70.88,50,4,0,30.67,M,M,SCT,BKN,BKN,M,2600,3500,6500,46.34
0CO,8/12/24,11:55:00 PM,48.2,41,76.01,0,0,0,30.66,M,M,SCT,BKN,OVC,M,2200,4800,7000,48.2
0CO,8/12/24,12:55:00 AM,46.4,39.2,75.84,20,3,0,30.64,M,M,SCT,M,M,M,8000,M,M,45.15
0CO,8/12/24,1:55:00 AM,44.6,39.2,81.2,300,5,0,30.63,M,M,BKN,BKN,OVC,M,2300,2700,3300,41.36
0CO,8/12/24,2:55:00 AM,44.6,39.2,81.2,280,6,0,30.66,M,M,CLR,M,M,M,M,M,M,40.71
0CO,8/12/24,3:55:00 AM,44.6,39.2,81.2,80,5,0,30.67,M,M,SCT,BKN,M,M,5500,7000,M,41.36
0CO,8/12/24,4:55:00 AM,44.6,39.2,81.2,300,7,0,30.66,M,M,SCT,SCT,OVC,M,4400,5000,6000,40.14
0CO,8/12/24,5:55:00 AM,44.6,37.4,75.68,270,12,0,30.66,M,17,OVC,M,M,M,6000,M,M,38.04
0CO,8/12/24,6:55:00 AM,44.6,37.4,75.68,290,12,0,30.65,M,M,OVC,M,M,M,2300,M,M,38.04
0CO,8/12/24,7:55:00 AM,39.2,37.4,93.19,300,7,0,30.63,M,M,M,M,M,M,M,M,M,33.56
0CO,8/12/24,8:55:00 AM,41,37.4,86.89,280,15,0,30.62,M,20,M,M,M,M,M,M,M,32.45
0CO,8/12/24,9:55:00 AM,41,37.4,86.89,290,14,0,30.6,M,M,M,M,M,M,M,M,M,32.76
0CO,8/12/24,10:55:00 AM,39.2,37.4,93.19,260,11,0,30.6,M,23,M,M,M,M,M,M,M,31.57
0CO,8/12/24,11:55:00 AM,42.8,35.6,75.5,270,18,0,30.6,M,25,SCT,M,M,M,12000,M,M,33.97
0CO,8/12/24,12:55:00 PM,42.8,35.6,75.5,M,M,0,30.6,M,M,SCT,M,M,M,11000,M,M,M
0CO,8/12/24,1:55:00 PM,42.8,35.6,75.5,280,25,0,30.6,M,35,SCT,M,M,M,12000,M,M,32.43
0CO,8/13/24,2:55:00 PM,41,37.4,86.89,290,15,0,30.63,M,21,M,M,M,M,M,M,M,32.45
0CO,8/13/24,3:55:00 PM,44.6,37.4,75.68,290,19,0,30.64,M,25,BKN,OVC,M,M,1800,2500,M,36.1
0CO,8/13/24,4:55:00 PM,42.8,39.2,86.99,290,17,0,30.65,M,23,BKN,BKN,OVC,M,1700,2400,2900,34.22
0CO,8/13/24,5:55:00 PM,46.4,37.4,70.68,270,18,0,30.65,M,26,BKN,BKN,OVC,M,1900,2500,3400,38.7
0CO,8/13/24,6:55:00 PM,50,37.4,61.76,260,7,0,30.64,M,16,SCT,BKN,OVC,M,2300,4000,4800,50
0CO,8/13/24,7:55:00 PM,46.4,41,81.34,350,6,0,30.63,M,M,SCT,SCT,OVC,M,3100,3500,4500,42.87
0CO,8/13/24,8:55:00 PM,48.2,41,76.01,310,10,0,30.62,M,25,SCT,BKN,OVC,M,200,1700,2600,43.28
0CO,8/13/24,9:55:00 PM,42.8,41,93.3,320,13,0,30.6,M,28,OVC,M,M,M,200,M,M,35.4
0CO,8/13/24,10:55:00 PM,41,39.2,93.24,290,20,0,30.6,M,26,M,M,M,M,M,M,M,31.09
0CO,8/13/24,11:55:00 PM,42.8,37.4,81.07,260,17,0,30.59,M,25,SCT,SCT,SCT,M,800,1600,11000,34.22
0CO,8/13/24,12:55:00 AM,42.8,35.6,75.5,270,28,0,30.55,M,37,SCT,SCT,SCT,M,1700,2200,12000,31.89
0CO,8/13/24,1:55:00 AM,42.8,32,65.38,M,M,0,30.55,M,M,BKN,M,M,M,10000,M,M,M
0CO,8/13/24,2:55:00 AM,37.4,37.4,100,320,10,0,30.58,M,24,BKN,BKN,M,M,100,600,M,29.74
0CO,8/13/24,3:55:00 AM,37.4,37.4,100,350,16,0,30.58,M,28,OVC,M,M,M,100,M,M,27.46
0CO,8/13/24,4:55:00 AM,37.4,37.4,100,340,19,0.01,30.58,M,26,OVC,M,M,M,100,M,M,26.58
0CO,8/13/24,5:55:00 AM,37.4,37.4,100,310,22,0,30.59,M,29,BKN,OVC,M,M,300,700,M,25.81
0CO,8/13/24,6:55:00 AM,37.4,35.6,93.14,320,20,0,30.59,M,28,M,M,M,M,M,M,M,26.31
0CO,8/13/24,7:55:00 AM,37.4,35.6,93.14,320,19,0,30.58,M,26,M,M,M,M,M,M,M,26.58
0CO,8/13/24,8:55:00 AM,37.4,37.4,100,340,21,0,30.58,M,25,BKN,OVC,M,M,100,600,M,26.06
0CO,8/13/24,9:55:00 AM,37.4,37.4,100,340,20,0,30.58,M,26,OVC,M,M,M,100,M,M,26.31
0CO,8/13/24,10:55:00 AM,37.4,32,80.65,300,21,0.01,30.56,M,28,SCT,SCT,OVC,M,200,9500,12000,26.06
0CO,8/13/24,11:55:00 AM,35.6,35.6,100,320,21,0,30.57,M,28,BKN,BKN,BKN,M,100,700,10000,23.65
0CO,8/13/24,12:55:00 PM,35.6,33.8,93.08,320,20,0,30.58,M,27,M,M,M,M,M,M,M,23.92
0CO,8/13/24,1:55:00 PM,35.6,35.6,100,310,17,0.01,30.6,M,25,OVC,M,M,M,100,M,M,24.79
0CO,8/14/24,2:55:00 PM,41,33.8,75.33,300,23,0,30.61,M,33,CLR,M,M,M,M,M,M,30.41
0CO,8/14/24,3:55:00 PM,42.8,35.6,75.5,310,22,0,30.62,M,33,CLR,M,M,M,M,M,M,33.04
0CO,8/14/24,4:55:00 PM,42.8,39.2,86.99,320,16,0,30.64,M,25,M,M,M,M,M,M,M,34.5
0CO,8/14/24,5:55:00 PM,46.4,37.4,70.68,360,7,0,30.65,M,26,SCT,SCT,BKN,M,900,2600,6500,42.33
0CO,8/14/24,6:55:00 PM,44.6,35.6,70.48,310,7,0,30.66,M,M,SCT,SCT,BKN,M,2100,3700,6000,40.14
0CO,8/14/24,7:55:00 PM,46.4,32,57,320,14,0,30.66,M,31,SCT,SCT,BKN,M,4000,4600,6000,39.72
0CO,8/14/24,8:55:00 PM,41,32,70.08,50,7,0,30.66,M,M,SCT,BKN,OVC,M,2700,3900,5000,35.75
0CO,8/14/24,9:55:00 PM,42.8,32,65.38,340,9,0,30.65,M,18,SCT,M,M,M,8500,M,M,36.94
0CO,8/14/24,10:55:00 PM,42.8,32,65.38,310,9,0,30.64,M,16,SCT,M,M,M,3900,M,M,36.94
0CO,8/14/24,11:55:00 PM,44.6,32,61.03,280,16,0,30.63,M,25,SCT,SCT,M,M,5000,7000,M,36.84
0CO,8/14/24,12:55:00 AM,42.8,32,65.38,260,9,0,30.65,M,14,SCT,SCT,BKN,M,3500,4400,5500,36.94
0CO,8/14/24,1:55:00 AM,35.6,33.8,93.08,330,15,0.01,30.66,M,27,BKN,BKN,OVC,M,300,3300,7500,25.45
0CO,8/14/24,2:55:00 AM,33.8,33.8,100,340,23,0.08,30.67,M,31,OVC,M,M,M,100,M,M,20.73
0CO,8/14/24,3:55:00 AM,32,32,100,330,19,0.05,30.69,M,24,OVC,M,M,M,100,M,M,19.44
0CO,8/14/24,4:55:00 AM,32,32,100,310,25,0.04,30.66,M,32,OVC,M,M,M,100,M,M,17.81
0CO,8/14/24,5:55:00 AM,35.6,32,86.59,300,25,0,30.64,M,38,BKN,OVC,M,M,4900,6000,M,22.69
0CO,8/14/24,6:55:00 AM,37.4,30.2,74.98,290,24,0,30.64,M,33,SCT,BKN,OVC,M,5500,8500,11000,25.34
0CO,8/14/24,7:55:00 AM,35.6,28.4,74.8,290,22,0,30.62,M,34,SCT,M,M,M,9000,M,M,23.4
0CO,8/14/24,8:55:00 AM,35.6,28.4,74.8,290,19,0,30.62,M,32,CLR,M,M,M,M,M,M,24.2
0CO,8/14/24,9:55:00 AM,35.6,28.4,74.8,300,22,0,30.62,M,28,CLR,M,M,M,M,M,M,23.4
0CO,8/14/24,10:55:00 AM,35.6,28.4,74.8,300,21,0,30.62,M,27,CLR,M,M,M,M,M,M,23.65
0CO,8/14/24,11:55:00 AM,35.6,30.2,80.51,300,20,0,30.63,M,27,CLR,M,M,M,M,M,M,23.92
0CO,8/14/24,12:55:00 PM,37.4,30.2,74.98,290,18,0,30.65,M,28,CLR,M,M,M,M,M,M,26.86
0CO,8/14/24,1:55:00 PM,39.2,30.2,69.88,280,18,0,30.67,M,30,CLR,M,M,M,M,M,M,29.23
0CO,8/15/24,2:55:00 PM,41,32,70.08,290,22,0,30.68,M,29,CLR,M,M,M,M,M,M,30.63
0CO,8/15/24,3:55:00 PM,42.8,32,65.38,280,18,0,30.69,M,27,SCT,M,M,M,3200,M,M,33.97
0CO,8/15/24,4:55:00 PM,41,32,70.08,310,24,0,30.69,M,29,SCT,SCT,OVC,M,3400,4100,6000,30.2
0CO,8/15/24,5:55:00 PM,39.2,33.8,80.79,280,17,0,30.71,M,22,SCT,SCT,OVC,M,1800,3100,6000,29.51
0CO,8/15/24,6:55:00 PM,44.6,35.6,70.48,300,10,0,30.71,M,22,CLR,M,M,M,M,M,M,38.77
0CO,8/15/24,7:55:00 PM,46.4,37.4,70.68,320,10,0,30.71,10,19,SCT,SCT,SCT,M,3000,3900,5000,41.03
0CO,8/15/24,8:55:00 PM,46.4,35.6,65.83,300,13,0,30.7,10,21,SCT,SCT,BKN,M,3900,4600,7500,40.02
0CO,8/15/24,9:55:00 PM,51.8,32,46.59,260,15,0,30.7,10,29,CLR,M,M,M,M,M,M,51.8
0CO,8/15/24,10:55:00 PM,50,33.8,53.54,280,14,0,30.71,10,19,CLR,M,M,M,M,M,M,50
0CO,8/15/24,11:55:00 PM,50,32,49.81,280,15,0,30.7,10,25,CLR,M,M,M,M,M,M,50
0CO,8/15/24,12:55:00 AM,50,32,49.81,260,14,0,30.7,10,23,BKN,BKN,BKN,M,5000,7500,8000,50
0CO,8/15/24,1:55:00 AM,46.4,32,57,240,8,0,30.7,10,15,SCT,M,M,M,6000,M,M,41.85
0CO,8/15/24,2:55:00 AM,44.6,33.8,65.61,160,6,0,30.71,10,M,SCT,M,M,M,6000,M,M,40.71
0CO,8/15/24,3:55:00 AM,44.6,35.6,70.48,160,8,0,30.71,10,22,SCT,M,M,M,8500,M,M,39.63
0CO,8/15/24,4:55:00 AM,42.8,35.6,75.5,160,9,0,30.71,10,M,BKN,OVC,M,M,7000,8000,M,36.94
0CO,8/15/24,5:55:00 AM,42.8,35.6,75.5,150,5,0,30.68,10,14,CLR,M,M,M,M,M,M,39.22
0CO,8/15/24,6:55:00 AM,44.6,32,61.03,270,11,0,30.67,10,22,CLR,M,M,M,M,M,M,38.39
0CO,8/15/24,7:55:00 AM,44.6,32,61.03,280,20,0,30.66,10,26,SCT,SCT,M,M,7000,8000,M,35.87
0CO,8/15/24,8:55:00 AM,44.6,32,61.03,290,18,0,30.66,10,23,CLR,M,M,M,M,M,M,36.34
0CO,8/15/24,9:55:00 AM,44.6,32,61.03,270,16,0,30.65,10,25,CLR,M,M,M,M,M,M,36.84
0CO,8/15/24,10:55:00 AM,42.8,30.2,60.79,270,17,0,30.64,10,24,CLR,M,M,M,M,M,M,34.22
0CO,8/15/24,11:55:00 AM,44.6,28.4,52.72,280,28,0,30.64,10,37,CLR,M,M,M,M,M,M,34.35
0CO,8/15/24,12:55:00 PM,44.6,28.4,52.72,M,M,0,30.65,10,M,CLR,M,M,M,M,M,M,M
0CO,8/15/24,1:55:00 PM,44.6,28.4,52.72,290,17,0,30.68,10,32,CLR,M,M,M,M,M,M,36.58
0CO,8/16/24,2:55:00 PM,46.4,28.4,49.24,280,25,0,30.69,10,41,CLR,M,M,M,M,M,M,37.31
0CO,8/16/24,3:55:00 PM,48.2,28.4,46.02,300,26,0,30.7,10,35,CLR,M,M,M,M,M,M,39.58
0CO,8/16/24,4:55:00 PM,50,28.4,43.03,330,10,0,30.73,10,27,CLR,M,M,M,M,M,M,50
0CO,8/16/24,5:55:00 PM,51.8,28.4,40.25,290,20,0,30.72,10,33,CLR,M,M,M,M,M,M,51.8
0CO,8/16/24,6:55:00 PM,53.6,26.6,34.98,280,20,0,30.74,10,30,CLR,M,M,M,M,M,M,53.6
0CO,8/16/24,7:55:00 PM,55.4,28.4,35.28,280,17,0,30.74,10,M,CLR,M,M,M,M,M,M,55.4
0CO,8/16/24,8:55:00 PM,57.2,26.6,30.69,270,19,0,30.74,10,32,SCT,M,M,M,7500,M,M,57.2
0CO,8/16/24,9:55:00 PM,57.2,28.4,33.05,M,M,0,30.74,10,M,CLR,M,M,M,M,M,M,57.2
0CO,8/16/24,10:55:00 PM,57.2,24.8,28.48,300,28,0,30.73,10,M,SCT,M,M,M,9000,M,M,57.2
0CO,8/16/24,11:55:00 PM,55.4,21.2,26.13,M,M,0,30.74,10,M,CLR,M,M,M,M,M,M,55.4
0CO,8/16/24,12:55:00 AM,55.4,21.2,26.13,290,18,0,30.76,10,22,CLR,M,M,M,M,M,M,55.4
0CO,8/16/24,1:55:00 AM,51.8,23,32.17,290,14,0,30.77,10,20,CLR,M,M,M,M,M,M,51.8
0CO,8/16/24,2:55:00 AM,50,23,34.39,280,15,0,30.77,10,M,CLR,M,M,M,M,M,M,50
0CO,8/16/24,3:55:00 AM,50,19.4,29.52,290,14,0,30.77,10,M,CLR,M,M,M,M,M,M,50
0CO,8/16/24,4:55:00 AM,48.2,19.4,31.57,310,5,0,30.77,10,15,CLR,M,M,M,M,M,M,45.63
0CO,8/16/24,5:55:00 AM,48.2,19.4,31.57,270,7,0,30.77,10,14,CLR,M,M,M,M,M,M,44.53
0CO,8/16/24,6:55:00 AM,48.2,21.2,34.09,290,13,0,30.75,10,M,CLR,M,M,M,M,M,M,42.32
0CO,8/16/24,7:55:00 AM,46.4,24.8,42.44,280,16,0,30.74,10,M,CLR,M,M,M,M,M,M,39.19
0CO,8/16/24,8:55:00 AM,46.4,24.8,42.44,280,15,0,30.74,10,M,CLR,M,M,M,M,M,M,39.45
0CO,8/16/24,9:55:00 AM,46.4,24.8,42.44,290,17,0,30.74,10,M,CLR,M,M,M,M,M,M,38.94
0CO,8/16/24,10:55:00 AM,46.4,24.8,42.44,290,16,0,30.74,10,M,CLR,M,M,M,M,M,M,39.19
0CO,8/16/24,11:55:00 AM,44.6,24.8,45.44,290,17,0,30.75,10,25,CLR,M,M,M,M,M,M,36.58
0CO,8/16/24,12:55:00 PM,44.6,24.8,45.44,290,16,0,30.77,10,25,CLR,M,M,M,M,M,M,36.84
0CO,8/16/24,1:55:00 PM,46.4,24.8,42.44,290,14,0,30.79,10,26,CLR,M,M,M,M,M,M,39.72
0CO,8/17/24,2:55:00 PM,46.4,26.6,45.73,290,19,0,30.79,10,27,CLR,M,M,M,M,M,M,38.48
0CO,8/17/24,3:55:00 PM,50,26.6,39.95,300,22,0,30.79,10,32,CLR,M,M,M,M,M,M,50
0CO,8/17/24,4:55:00 PM,53.6,28.4,37.67,290,27,0,30.8,10,45,CLR,M,M,M,M,M,M,53.6
0CO,8/17/24,5:55:00 PM,55.4,28.4,35.28,280,27,0,30.8,10,39,CLR,M,M,M,M,M,M,55.4
0CO,8/17/24,6:55:00 PM,55.4,28.4,35.28,300,17,0,30.81,10,29,CLR,M,M,M,M,M,M,55.4
0CO,8/17/24,7:55:00 PM,55.4,30.2,37.97,310,11,0,30.81,10,27,SCT,SCT,M,M,7000,8500,M,55.4
0CO,8/17/24,8:55:00 PM,57.2,28.4,33.05,10,3,0,30.79,10,M,SCT,BKN,BKN,M,7000,8000,10000,57.2
0CO,8/17/24,9:55:00 PM,57.2,32,38.26,20,4,0,30.79,10,M,SCT,BKN,BKN,M,7000,8000,9000,57.2
0CO,8/17/24,10:55:00 PM,55.4,32,40.84,90,8,0,30.79,10,M,BKN,BKN,BKN,M,7000,9000,11000,55.4
0CO,8/17/24,11:55:00 PM,44.6,35.6,70.48,180,16,0,30.83,5,36,SCT,BKN,OVC,M,2700,3200,6000,36.84
0CO,8/17/24,12:55:00 AM,48.2,32,53.27,270,6,0.01,30.77,10,18,SCT,SCT,BKN,M,5000,6500,8000,45.04
0CO,8/17/24,1:55:00 AM,48.2,32,53.27,0,0,0,30.81,10,M,SCT,SCT,OVC,M,4600,5000,8000,48.2
0CO,8/17/24,2:55:00 AM,42.8,33.8,70.28,300,5,0,30.79,10,14,SCT,OVC,M,M,2500,9500,M,39.22
0CO,8/17/24,3:55:00 AM,46.4,32,57,280,11,0,30.79,10,22,SCT,BKN,OVC,M,4400,7500,11000,40.66
0CO,8/17/24,4:55:00 AM,50,30.2,46.31,160,9,0,30.79,10,M,BKN,BKN,M,M,9000,11000,M,50
0CO,8/17/24,5:55:00 AM,48.2,32,53.27,260,7,0,30.79,10,15,SCT,OVC,M,M,7000,8500,M,44.53
0CO,8/17/24,6:55:00 AM,50,32,49.81,270,10,0,30.79,10,17,BKN,OVC,M,M,6500,9000,M,50
0CO,8/17/24,7:55:00 AM,48.2,32,53.27,260,11,0,30.77,10,M,SCT,BKN,M,M,7500,9000,M,42.94
0CO,8/17/24,8:55:00 AM,41,32,70.08,320,10,0,30.76,10,23,CLR,M,M,M,M,M,M,34.25
0CO,8/17/24,9:55:00 AM,37.4,35.6,93.14,320,15,0,30.75,10,24,CLR,M,M,M,M,M,M,27.78
0CO,8/17/24,10:55:00 AM,42.8,33.8,70.28,250,8,0,30.74,10,20,SCT,M,M,M,12000,M,M,37.42
0CO,8/17/24,11:55:00 AM,42.8,33.8,70.28,310,13,0,30.72,10,23,CLR,M,M,M,M,M,M,35.4
0CO,8/17/24,12:55:00 PM,41,33.8,75.33,290,14,0,30.74,10,23,CLR,M,M,M,M,M,M,32.76
0CO,8/17/24,1:55:00 PM,41,35.6,80.93,300,22,0,30.74,10,28,CLR,M,M,M,M,M,M,30.63
0CO,8/18/24,2:55:00 PM,42.8,35.6,75.5,320,18,0,30.75,10,26,CLR,M,M,M,M,M,M,33.97
0CO,8/18/24,3:55:00 PM,44.6,35.6,70.48,310,18,0,30.77,10,26,CLR,M,M,M,M,M,M,36.34
0CO,8/18/24,4:55:00 PM,46.4,39.2,75.84,300,17,0,30.79,10,27,CLR,M,M,M,M,M,M,38.94
0CO,8/18/24,5:55:00 PM,50,41,71.07,320,9,0,30.81,10,18,SCT,M,M,M,3000,M,M,50
0CO,8/18/24,6:55:00 PM,51.8,39.2,61.99,300,10,0,30.82,10,20,SCT,SCT,M,M,3400,4100,M,51.8
0CO,8/18/24,7:55:00 PM,53.6,33.8,46.88,290,16,0,30.81,10,22,SCT,M,M,M,4400,M,M,53.6
0CO,8/18/24,8:55:00 PM,53.6,37.4,54.07,350,6,0,30.81,10,M,SCT,BKN,BKN,M,4700,5500,7000,53.6
0CO,8/18/24,9:55:00 PM,53.6,37.4,54.07,340,10,0,30.8,10,16,SCT,SCT,SCT,M,4900,6500,8000,53.6
0CO,8/18/24,10:55:00 PM,53.6,37.4,54.07,20,6,0,30.8,10,18,CLR,M,M,M,M,M,M,53.6
0CO,8/18/24,11:55:00 PM,51.8,37.4,57.77,220,3,0,30.81,10,M,SCT,OVC,M,M,4000,4800,M,51.8
0CO,8/18/24,12:55:00 AM,44.6,37.4,75.68,260,3,0.12,30.83,1.75,M,BKN,OVC,M,M,2700,3200,M,43.09
0CO,8/18/24,1:55:00 AM,42.8,37.4,81.07,290,11,0.08,30.82,10,16,SCT,BKN,OVC,M,3700,4500,8500,36.11
0CO,8/18/24,2:55:00 AM,42.8,37.4,81.07,300,6,0,30.83,10,M,BKN,BKN,OVC,M,6000,8000,11000,38.54
0CO,8/18/24,3:55:00 AM,41,39.2,93.24,270,6,0,30.83,4,M,BKN,SCT,OVC,M,5000,8000,10000,36.37
0CO,8/18/24,4:55:00 AM,39.2,39.2,100,300,8,0,30.82,0.25,M,OVC,M,M,M,100,M,M,32.98
0CO,8/18/24,5:55:00 AM,42.8,35.6,75.5,290,5,0,30.81,10,M,SCT,SCT,M,M,7000,12000,M,39.22
0CO,8/18/24,6:55:00 AM,46.4,33.8,61.28,160,6,0,30.81,10,M,CLR,M,M,M,M,M,M,42.87
0CO,8/18/24,7:55:00 AM,46.4,33.8,61.28,160,13,0,30.79,10,M,CLR,M,M,M,M,M,M,40.02
0CO,8/18/24,8:55:00 AM,44.6,33.8,65.61,230,9,0,30.77,10,M,CLR,M,M,M,M,M,M,39.18
0CO,8/18/24,9:55:00 AM,44.6,33.8,65.61,290,8,0,30.77,10,16,CLR,M,M,M,M,M,M,39.63
0CO,8/18/24,10:55:00 AM,44.6,33.8,65.61,270,13,0,30.77,10,17,SCT,SCT,M,M,6500,7500,M,37.71
0CO,8/18/24,11:55:00 AM,46.4,33.8,61.28,280,15,0,30.79,10,18,BKN,OVC,M,M,6500,8000,M,39.45
0CO,8/18/24,12:55:00 PM,46.4,33.8,61.28,280,15,0,30.79,10,M,CLR,M,M,M,M,M,M,39.45
0CO,8/18/24,1:55:00 PM,46.4,35.6,65.83,270,8,0,30.81,10,15,CLR,M,M,M,M,M,M,41.85
0CO,8/19/24,2:55:00 PM,48.2,35.6,61.52,260,11,0,30.82,10,20,CLR,M,M,M,M,M,M,42.94
0CO,8/19/24,3:55:00 PM,50,35.6,57.52,290,14,0,30.83,10,22,BKN,BKN,M,M,3400,4200,M,50
0CO,8/19/24,4:55:00 PM,48.2,37.4,66.05,290,7,0,30.84,10,18,BKN,OVC,M,M,3400,4000,M,44.53
0CO,8/19/24,5:55:00 PM,50,41,71.07,310,8,0,30.84,10,M,SCT,SCT,SCT,M,3100,3600,4200,50
0CO,8/19/24,6:55:00 PM,51.8,41,66.48,330,5,0,30.83,10,M,SCT,SCT,SCT,M,2600,3000,3800,51.8
0CO,8/19/24,7:55:00 PM,51.8,42.8,71.26,340,3,0,30.83,10,M,SCT,BKN,OVC,M,3600,4700,11000,51.8
0CO,8/19/24,8:55:00 PM,51.8,42.8,71.26,350,8,0,30.82,10,14,BKN,BKN,OVC,M,3900,6000,7000,51.8
0CO,8/19/24,9:55:00 PM,51.8,41,66.48,290,16,0,30.8,10,M,SCT,SCT,BKN,M,3600,4500,7500,51.8
0CO,8/19/24,10:55:00 PM,53.6,37.4,54.07,300,17,0,30.82,10,24,BKN,BKN,M,M,7000,8000,M,53.6
0CO,8/19/24,11:55:00 PM,50,41,71.07,340,12,0,30.78,10,29,SCT,SCT,SCT,M,2000,3300,4100,50
0CO,8/19/24,12:55:00 AM,50,37.4,61.76,290,17,0,30.79,10,20,CLR,M,M,M,M,M,M,50
0CO,8/19/24,1:55:00 AM,46.4,37.4,70.68,290,13,0,30.82,10,M,CLR,M,M,M,M,M,M,40.02
0CO,8/19/24,2:55:00 AM,46.4,37.4,70.68,280,15,0,30.82,10,M,CLR,M,M,M,M,M,M,39.45
0CO,8/19/24,3:55:00 AM,46.4,35.6,65.83,290,17,0,30.84,10,23,CLR,M,M,M,M,M,M,38.94
0CO,8/19/24,4:55:00 AM,44.6,35.6,70.48,320,8,0,30.85,10,M,SCT,SCT,M,M,4200,6000,M,39.63
0CO,8/19/24,5:55:00 AM,46.4,35.6,65.83,290,11,0,30.85,10,M,SCT,M,M,M,4900,M,M,40.66
0CO,8/19/24,6:55:00 AM,44.6,33.8,65.61,280,15,0,30.82,10,M,CLR,M,M,M,M,M,M,37.11
0CO,8/19/24,7:55:00 AM,44.6,33.8,65.61,290,16,0,30.81,10,M,CLR,M,M,M,M,M,M,36.84
0CO,8/19/24,8:55:00 AM,44.6,35.6,70.48,280,21,0,30.8,10,M,CLR,M,M,M,M,M,M,35.66
0CO,8/19/24,9:55:00 AM,44.6,35.6,70.48,290,17,0,30.79,10,20,CLR,M,M,M,M,M,M,36.58
0CO,8/19/24,10:55:00 AM,42.8,35.6,75.5,280,18,0,30.79,10,M,CLR,M,M,M,M,M,M,33.97
0CO,8/19/24,11:55:00 AM,44.6,32,61.03,280,22,0,30.8,10,26,CLR,M,M,M,M,M,M,35.45
0CO,8/19/24,12:55:00 PM,44.6,33.8,65.61,290,20,0,30.81,10,M,CLR,M,M,M,M,M,M,35.87
0CO,8/19/24,1:55:00 PM,44.6,33.8,65.61,300,22,0,30.82,10,26,CLR,M,M,M,M,M,M,35.45
0CO,8/20/24,2:55:00 PM,46.4,32,57,300,21,0,30.82,10,30,CLR,M,M,M,M,M,M,38.06
0CO,8/20/24,3:55:00 PM,50,32,49.81,290,18,0,30.84,10,27,CLR,M,M,M,M,M,M,50
0CO,8/20/24,4:55:00 PM,51.8,32,46.59,300,17,0,30.85,10,26,CLR,M,M,M,M,M,M,51.8
0CO,8/20/24,5:55:00 PM,53.6,37.4,54.07,300,12,0,30.86,10,23,SCT,M,M,M,5000,M,M,53.6
0CO,8/20/24,6:55:00 PM,53.6,35.6,50.36,20,5,0,30.86,10,14,SCT,SCT,M,M,5000,7000,M,53.6
0CO,8/20/24,7:55:00 PM,57.2,32,38.26,260,11,0,30.85,10,21,SCT,M,M,M,6000,M,M,57.2
0CO,8/20/24,8:55:00 PM,55.4,35.6,47.16,10,7,0,30.83,10,M,SCT,SCT,M,M,5500,9000,M,55.4
0CO,8/20/24,9:55:00 PM,57.2,32,38.26,290,10,0,30.82,10,27,BKN,BKN,M,M,6000,9500,M,57.2
0CO,8/20/24,10:55:00 PM,55.4,32,40.84,290,20,0,30.82,10,M,SCT,OVC,M,M,8500,11000,M,55.4
0CO,8/20/24,11:55:00 PM,53.6,35.6,50.36,350,4,0,30.83,10,M,SCT,SCT,BKN,M,5500,7000,8500,53.6
0CO,8/20/24,12:55:00 AM,51.8,35.6,53.81,340,6,0,30.81,10,M,SCT,M,M,M,8000,M,M,51.8
0CO,8/20/24,1:55:00 AM,46.4,33.8,61.28,20,5,0,30.81,10,M,CLR,M,M,M,M,M,M,43.5
0CO,8/20/24,2:55:00 AM,50,33.8,53.54,160,6,0,30.82,10,M,CLR,M,M,M,M,M,M,50
0CO,8/20/24,3:55:00 AM,50,33.8,53.54,160,6,0,30.82,10,M,CLR,M,M,M,M,M,M,50
0CO,8/20/24,4:55:00 AM,48.2,33.8,57.26,160,12,0,30.81,10,M,CLR,M,M,M,M,M,M,42.62
0CO,8/20/24,5:55:00 AM,48.2,35.6,61.52,160,5,0,30.81,10,M,CLR,M,M,M,M,M,M,45.63
0CO,8/20/24,6:55:00 AM,46.4,33.8,61.28,160,12,0,30.81,10,M,CLR,M,M,M,M,M,M,40.33
0CO,8/20/24,7:55:00 AM,46.4,33.8,61.28,250,13,0,30.79,10,M,CLR,M,M,M,M,M,M,40.02
0CO,8/20/24,8:55:00 AM,46.4,35.6,65.83,250,13,0,30.78,10,M,CLR,M,M,M,M,M,M,40.02
0CO,8/20/24,9:55:00 AM,46.4,35.6,65.83,230,9,0,30.77,10,16,CLR,M,M,M,M,M,M,41.42
0CO,8/20/24,10:55:00 AM,46.4,35.6,65.83,240,9,0,30.77,10,15,CLR,M,M,M,M,M,M,41.42
0CO,8/20/24,11:55:00 AM,42.8,35.6,75.5,300,14,0,30.78,10,19,SCT,SCT,BKN,M,2200,3000,11000,35.08
0CO,8/20/24,12:55:00 PM,41,35.6,80.93,280,23,0,30.79,10,29,SCT,BKN,OVC,M,1800,5000,9500,30.41
0CO,8/20/24,1:55:00 PM,39.2,35.6,86.79,290,14,0,30.79,1,21,BKN,OVC,M,M,3500,4600,M,30.44
0CO,8/21/24,2:55:00 PM,42.8,35.6,75.5,270,11,0,30.79,10,25,CLR,M,M,M,M,M,M,36.11
0CO,8/21/24,3:55:00 PM,44.6,35.6,70.48,300,11,0,30.8,10,M,SCT,M,M,M,12000,M,M,38.39
0CO,8/21/24,4:55:00 PM,48.2,35.6,61.52,300,13,0,30.79,10,19,SCT,M,M,M,11000,M,M,42.32
0CO,8/21/24,5:55:00 PM,46.4,41,81.34,300,8,0,30.79,10,17,CLR,M,M,M,M,M,M,41.85
0CO,8/21/24,6:55:00 PM,48.2,41,76.01,320,7,0,30.77,10,M,CLR,M,M,M,M,M,M,44.53
0CO,8/21/24,7:55:00 PM,50,41,71.07,300,9,0,30.77,10,18,CLR,M,M,M,M,M,M,50
0CO,8/21/24,8:55:00 PM,51.8,41,66.48,340,7,0,30.76,10,M,SCT,M,M,M,3800,M,M,51.8
0CO,8/21/24,9:55:00 PM,51.8,39.2,61.99,300,10,0,30.74,10,M,SCT,SCT,SCT,M,3800,6500,8000,51.8
0CO,8/21/24,10:55:00 PM,50,39.2,66.27,350,6,0,30.72,10,M,SCT,BKN,OVC,M,3600,7500,8500,50
0CO,8/21/24,11:55:00 PM,46.4,33.8,61.28,280,32,0,30.72,10,38,BKN,BKN,BKN,M,6000,9000,11000,36.21
0CO,8/21/24,12:55:00 AM,41,35.6,80.93,250,6,0,30.74,10,24,SCT,BKN,OVC,M,2900,3700,4400,36.37
0CO,8/21/24,2:55:00 AM,42.8,35.6,75.5,270,21,0,30.71,10,32,CLR,M,M,M,M,M,M,33.26
0CO,8/21/24,3:55:00 AM,42.8,33.8,70.28,280,27,0,30.7,10,33,CLR,M,M,M,M,M,M,32.06
0CO,8/21/24,4:55:00 AM,42.8,33.8,70.28,280,24,0,30.7,10,32,CLR,M,M,M,M,M,M,32.63
0CO,8/21/24,5:55:00 AM,42.8,33.8,70.28,280,24,0,30.69,10,30,CLR,M,M,M,M,M,M,32.63
0CO,8/21/24,6:55:00 AM,42.8,33.8,70.28,280,23,0,30.7,10,32,BKN,M,M,M,11000,M,M,32.83
0CO,8/21/24,7:55:00 AM,44.6,33.8,65.61,290,15,0,30.69,10,28,SCT,OVC,M,M,7000,8500,M,37.11
0CO,8/21/24,8:55:00 AM,42.8,33.8,70.28,250,9,0,30.7,10,25,SCT,SCT,M,M,6500,7500,M,36.94
0CO,8/21/24,9:55:00 AM,41,35.6,80.93,260,20,0,30.69,10,25,BKN,OVC,M,M,7000,8500,M,31.09
0CO,8/21/24,10:55:00 AM,39.2,33.8,80.79,290,13,0,30.68,10,18,SCT,OVC,M,M,6000,7000,M,30.79
0CO,8/21/24,11:55:00 AM,37.4,35.6,93.14,310,9,0,30.67,0.75,19,BKN,BKN,OVC,M,100,5000,8000,30.23
0CO,8/21/24,12:55:00 PM,46.4,26.6,45.73,0,0,0,30.68,10,M,OVC,M,M,M,9000,M,M,46.4
0CO,8/21/24,1:55:00 PM,46.4,30.2,53,210,5,0,30.69,10,M,OVC,M,M,M,4900,M,M,43.5
0CO,8/21/24,2:55:00 PM,44.6,32,61.03,240,7,0,30.71,10,16,SCT,BKN,OVC,M,3000,4500,5500,40.14
0CO,8/22/24,3:55:00 PM,41,35.6,80.93,120,9,0,30.72,10,15,SCT,BKN,OVC,M,2000,2600,3500,34.7
0CO,8/22/24,4:55:00 PM,42.8,35.6,75.5,140,9,0,30.72,10,M,SCT,BKN,OVC,M,3000,3700,6000,36.94
0CO,8/22/24,5:55:00 PM,44.6,37.4,75.68,M,M,0,30.71,10,M,SCT,BKN,M,M,7500,8500,M,M
0CO,8/22/24,6:55:00 PM,46.4,35.6,65.83,180,10,0,30.71,10,21,SCT,BKN,OVC,M,3100,4600,8500,41.03
0CO,8/22/24,7:55:00 PM,44.6,35.6,70.48,M,M,0,30.7,10,M,SCT,BKN,OVC,M,3300,4500,7000,M
0CO,8/22/24,8:55:00 PM,42.8,37.4,81.07,M,M,0,30.69,10,M,BKN,BKN,OVC,M,3300,4000,5000,M
0CO,8/22/24,9:55:00 PM,42.8,37.4,81.07,170,5,0.01,30.69,10,22,SCT,BKN,OVC,M,1600,2900,4900,39.22
0CO,8/22/24,10:55:00 PM,37.4,37.4,100,170,17,0.15,30.7,0.25,21,OVC,M,M,M,100,M,M,27.15
0CO,8/22/24,11:55:00 PM,41,35.6,80.93,190,15,0.02,30.66,10,28,SCT,BKN,OVC,M,4000,5000,10000,32.45
0CO,8/22/24,12:55:00 AM,41,35.6,80.93,260,6,0,30.66,10,M,SCT,BKN,OVC,M,3500,4100,8000,36.37
0CO,8/22/24,1:55:00 AM,41,37.4,86.89,270,13,0,30.66,10,M,SCT,SCT,SCT,M,1700,2700,3500,33.1
0CO,8/22/24,2:55:00 AM,41,37.4,86.89,280,15,0,30.65,10,19,SCT,SCT,BKN,M,5000,5500,8000,32.45
0CO,8/22/24,3:55:00 AM,42.8,35.6,75.5,240,6,0,30.67,10,16,OVC,M,M,M,3600,M,M,38.54
0CO,8/22/24,4:55:00 AM,41,37.4,86.89,130,6,0,30.67,10,M,OVC,M,M,M,4600,M,M,36.37
0CO,8/22/24,5:55:00 AM,41,37.4,86.89,0,0,0,30.67,10,M,SCT,BKN,M,M,2000,2600,M,41
0CO,8/22/24,6:55:00 AM,41,37.4,86.89,210,9,0,30.66,10,M,CLR,M,M,M,M,M,M,34.7
0CO,8/22/24,7:55:00 AM,41,35.6,80.93,250,8,0,30.65,10,14,SCT,SCT,M,M,1800,2300,M,35.2
0CO,8/22/24,8:55:00 AM,41,35.6,80.93,250,6,0,30.63,10,16,SCT,M,M,M,1600,M,M,36.37
0CO,8/22/24,9:55:00 AM,41,35.6,80.93,260,6,0,30.63,10,M,SCT,M,M,M,11000,M,M,36.37
0CO,8/22/24,10:55:00 AM,41,35.6,80.93,250,6,0,30.63,10,M,SCT,M,M,M,10000,M,M,36.37
0CO,8/22/24,11:55:00 AM,41,35.6,80.93,290,13,0,30.62,10,M,BKN,M,M,M,9000,M,M,33.1
0CO,8/22/24,12:55:00 PM,39.2,35.6,86.79,270,12,0,30.61,10,19,CLR,M,M,M,M,M,M,31.17
0CO,8/22/24,1:55:00 PM,41,35.6,80.93,280,21,0,30.61,10,M,BKN,M,M,M,9000,M,M,30.86
0CO,8/22/24,2:55:00 PM,39.2,37.4,93.19,300,8,0,30.62,0.25,15,OVC,M,M,M,100,M,M,32.98
0CO,8/23/24,3:55:00 PM,42.8,41,93.3,290,10,0,30.63,10,21,SCT,SCT,M,M,100,2000,M,36.51
0CO,8/23/24,4:55:00 PM,46.4,37.4,70.68,250,14,0,30.64,10,25,SCT,BKN,OVC,M,2600,3200,11000,39.72
0CO,8/23/24,5:55:00 PM,46.4,37.4,70.68,230,10,0,30.65,10,24,BKN,OVC,M,M,2400,3400,M,41.03
0CO,8/23/24,6:55:00 PM,44.6,41,87.09,290,14,0,30.65,0.5,22,SCT,BKN,OVC,M,100,2300,4500,37.4
0CO,8/23/24,7:55:00 PM,42.8,39.2,86.99,270,18,0,30.64,10,26,SCT,BKN,OVC,M,1500,3400,6000,33.97
0CO,8/23/24,9:55:00 PM,50,37.4,61.76,300,30,0,30.62,10,39,SCT,SCT,SCT,M,2800,3400,12000,50
0CO,8/23/24,10:55:00 PM,48.2,37.4,66.05,M,M,0,30.64,10,M,SCT,SCT,M,M,3000,4000,M,M
0CO,8/23/24,11:55:00 PM,46.4,35.6,65.83,280,24,0,30.61,10,36,SCT,M,M,M,3600,M,M,37.49
0CO,8/23/24,12:55:00 AM,48.2,33.8,57.26,260,16,0,30.62,10,27,CLR,M,M,M,M,M,M,41.53
0CO,8/23/24,1:55:00 AM,44.6,35.6,70.48,250,7,0,30.65,10,24,CLR,M,M,M,M,M,M,40.14
0CO,8/23/24,2:55:00 AM,42.8,33.8,70.28,230,10,0,30.68,10,15,SCT,M,M,M,4200,M,M,36.51
0CO,8/23/24,3:55:00 AM,44.6,33.8,65.61,250,4,0,30.69,10,M,SCT,BKN,OVC,M,3300,4600,12000,42.13
0CO,8/23/24,5:55:00 AM,42.8,33.8,70.28,200,10,0,30.68,10,16,SCT,SCT,SCT,M,6000,7500,12000,36.51
0CO,8/23/24,6:55:00 AM,41,32,70.08,250,9,0,30.66,10,23,CLR,M,M,M,M,M,M,34.7
0CO,8/23/24,7:55:00 AM,41,32,70.08,270,20,0,30.63,10,27,CLR,M,M,M,M,M,M,31.09
0CO,8/23/24,8:55:00 AM,41,32,70.08,260,17,0,30.62,10,28,CLR,M,M,M,M,M,M,31.87
0CO,8/23/24,9:55:00 AM,39.2,33.8,80.79,300,16,0,30.62,10,28,CLR,M,M,M,M,M,M,29.8
0CO,8/23/24,10:55:00 AM,37.4,33.8,86.69,300,27,0,30.6,7,38,CLR,M,M,M,M,M,M,24.7
0CO,8/23/24,11:55:00 AM,37.4,33.8,86.69,290,29,0,30.6,10,36,CLR,M,M,M,M,M,M,24.31
0CO,8/23/24,12:55:00 PM,39.2,33.8,80.79,300,29,0,30.6,10,39,CLR,M,M,M,M,M,M,26.78
0CO,8/23/24,1:55:00 PM,39.2,33.8,80.79,290,29,0,30.61,10,39,CLR,M,M,M,M,M,M,26.78
0CO,8/23/24,2:56:00 PM,41,35.6,80.93,300,16,0,30.64,10,29,SCT,M,M,M,2100,M,M,32.15
0CO,8/23/24,3:55:00 PM,42.8,37.4,81.07,290,14,0,30.66,10,21,SCT,SCT,SCT,M,2400,2900,3400,35.08
0CO,8/23/24,4:55:00 PM,39.2,37.4,93.19,280,9,0,30.68,7,19,SCT,BKN,OVC,M,100,1200,1900,32.47
0CO,8/24/24,5:55:00 PM,42.8,33.8,70.28,260,19,0,30.68,10,32,SCT,BKN,OVC,M,1900,3400,4200,33.72
0CO,8/24/24,6:55:00 PM,48.2,33.8,57.26,270,17,0,30.67,10,39,SCT,SCT,M,M,3100,4100,M,41.3
0CO,8/24/24,7:55:00 PM,48.2,33.8,57.26,270,14,0,30.69,10,23,SCT,BKN,OVC,M,3900,4600,6000,42.04
0CO,8/24/24,8:55:00 PM,42.8,37.4,81.07,250,9,0,30.7,5,25,SCT,BKN,OVC,M,1700,2900,3400,36.94
0CO,8/24/24,9:55:00 PM,46.4,35.6,65.83,220,9,0,30.68,10,M,SCT,SCT,M,M,4400,5000,M,41.42
0CO,8/24/24,10:55:00 PM,50,33.8,53.54,260,10,0,30.68,10,26,SCT,SCT,M,M,3600,4500,M,50
0CO,8/24/24,11:55:00 PM,48.2,33.8,57.26,280,12,0,30.68,10,23,SCT,M,M,M,7500,M,M,42.62
0CO,8/24/24,12:55:00 AM,44.6,35.6,70.48,300,10,0,30.67,10,M,CLR,M,M,M,M,M,M,38.77
0CO,8/24/24,1:55:00 AM,42.8,35.6,75.5,280,7,0,30.67,10,M,CLR,M,M,M,M,M,M,37.94
0CO,8/24/24,2:55:00 AM,44.6,32,61.03,260,11,0,30.69,10,15,SCT,BKN,OVC,M,4700,5000,12000,38.39
0CO,8/24/24,3:55:00 AM,44.6,32,61.03,250,6,0,30.69,10,M,SCT,BKN,OVC,M,3800,5500,9500,40.71
0CO,8/24/24,4:55:00 AM,44.6,32,61.03,250,8,0,30.7,10,M,OVC,M,M,M,4100,M,M,39.63
0CO,8/24/24,5:55:00 AM,42.8,33.8,70.28,270,11,0,30.68,10,14,SCT,SCT,M,M,9000,12000,M,36.11
0CO,8/24/24,6:55:00 AM,41,33.8,75.33,330,10,0,30.66,10,20,SCT,OVC,M,M,6500,10000,M,34.25
0CO,8/24/24,7:55:00 AM,39.2,33.8,80.79,290,12,0,30.64,10,M,BKN,BKN,M,M,9000,11000,M,31.17
0CO,8/24/24,8:55:00 AM,41,33.8,75.33,290,17,0,30.64,10,24,SCT,M,M,M,12000,M,M,31.87
0CO,8/24/24,9:55:00 AM,39.2,33.8,80.79,280,13,0,30.65,10,19,OVC,M,M,M,12000,M,M,30.79
0CO,8/24/24,10:55:00 AM,39.2,32,75.16,290,15,0,30.66,10,24,CLR,M,M,M,M,M,M,30.11
0CO,8/24/24,11:55:00 AM,37.4,32,80.65,280,21,0,30.67,10,26,CLR,M,M,M,M,M,M,26.06
0CO,8/24/24,12:55:00 PM,39.2,30.2,69.88,280,20,0,30.69,10,27,CLR,M,M,M,M,M,M,28.7
0CO,8/24/24,1:55:00 PM,41,30.2,65.16,280,24,0,30.7,10,29,CLR,M,M,M,M,M,M,30.2
0CO,8/24/24,2:55:00 PM,42.8,28.4,56.48,300,13,0,30.72,10,20,CLR,M,M,M,M,M,M,35.4
0CO,8/24/24,3:55:00 PM,44.6,30.2,56.74,240,14,0,30.74,10,26,CLR,M,M,M,M,M,M,37.4
0CO,8/24/24,4:55:00 PM,46.4,28.4,49.24,260,17,0,30.75,10,24,CLR,M,M,M,M,M,M,38.94
0CO,8/25/24,5:55:00 PM,46.4,30.2,53,270,15,0,30.77,10,24,SCT,SCT,M,M,4500,5000,M,39.45
0CO,8/25/24,6:55:00 PM,42.8,35.6,75.5,300,13,0,30.77,10,20,SCT,SCT,OVC,M,1500,2800,4100,35.4
0CO,8/25/24,7:55:00 PM,44.6,35.6,70.48,300,16,0,30.77,10,M,SCT,SCT,SCT,M,3600,4100,6500,36.84
0CO,8/25/24,8:55:00 PM,46.4,33.8,61.28,310,6,0,30.77,10,M,BKN,OVC,M,M,6000,9000,M,42.87
0CO,8/25/24,9:55:00 PM,41,37.4,86.89,70,10,0.02,30.76,10,14,SCT,BKN,OVC,M,100,3900,6500,34.25
0CO,8/25/24,10:55:00 PM,37.4,37.4,100,330,7,0,30.75,0.25,M,OVC,M,M,M,100,M,M,31.36
0CO,8/25/24,11:55:00 PM,39.2,37.4,93.19,320,8,0,30.75,10,M,SCT,BKN,OVC,M,3900,6000,7000,32.98
0CO,8/25/24,12:55:00 AM,37.4,37.4,100,0,0,0,30.75,10,M,SCT,BKN,OVC,M,3500,5500,6500,37.4
0CO,8/25/24,1:55:00 AM,37.4,35.6,93.14,260,9,0.09,30.79,0.75,M,OVC,M,M,M,300,M,M,30.23
0CO,8/25/24,2:55:00 AM,37.4,33.8,86.69,260,8,0.02,30.79,7,17,SCT,BKN,OVC,M,2500,3400,5000,30.76
0CO,8/25/24,3:55:00 AM,35.6,35.6,100,170,15,0.03,30.79,0.5,21,BKN,BKN,OVC,M,100,800,2100,25.45
0CO,8/25/24,4:55:00 AM,37.4,33.8,86.69,150,13,0,30.77,10,20,SCT,M,M,M,12000,M,M,28.49
0CO,8/25/24,5:55:00 AM,37.4,33.8,86.69,190,13,0,30.75,10,21,BKN,BKN,M,M,6000,12000,M,28.49
0CO,8/25/24,6:55:00 AM,37.4,33.8,86.69,250,12,0,30.75,10,18,CLR,M,M,M,M,M,M,28.87
0CO,8/25/24,7:55:00 AM,39.2,32,75.16,240,9,0,30.74,10,15,SCT,M,M,M,3400,M,M,32.47
0CO,8/25/24,8:55:00 AM,41,32,70.08,160,7,0,30.74,10,M,SCT,M,M,M,7500,M,M,35.75
0CO,8/25/24,9:55:00 AM,41,32,70.08,150,8,0,30.74,10,18,SCT,M,M,M,8000,M,M,35.2
0CO,8/25/24,10:55:00 AM,41,32,70.08,220,8,0,30.74,10,M,SCT,M,M,M,11000,M,M,35.2
0CO,8/25/24,11:55:00 AM,39.2,32,75.16,250,11,0,30.74,10,19,CLR,M,M,M,M,M,M,31.57
0CO,8/25/24,12:55:00 PM,39.2,32,75.16,250,11,0,30.75,10,17,CLR,M,M,M,M,M,M,31.57
0CO,8/25/24,1:55:00 PM,37.4,32,80.65,250,18,0,30.74,10,22,CLR,M,M,M,M,M,M,26.86
0CO,8/25/24,2:55:00 PM,39.2,32,75.16,260,13,0,30.75,10,19,CLR,M,M,M,M,M,M,30.79
0CO,8/25/24,3:55:00 PM,42.8,32,65.38,260,15,0,30.76,10,24,CLR,M,M,M,M,M,M,34.78
0CO,8/25/24,4:55:00 PM,42.8,32,65.38,260,19,0,30.77,10,23,SCT,SCT,BKN,M,2500,3200,4200,33.72
0CO,8/26/24,5:55:00 PM,44.6,32,61.03,250,16,0,30.77,10,24,SCT,M,M,M,6500,M,M,36.84
0CO,8/26/24,6:55:00 PM,44.6,33.8,65.61,260,17,0,30.78,10,25,SCT,SCT,SCT,M,2600,3200,4200,36.58
0CO,8/26/24,7:55:00 PM,46.4,30.2,53,260,16,0,30.77,10,33,SCT,BKN,M,M,4800,6000,M,39.19
0CO,8/26/24,8:55:00 PM,46.4,28.4,49.24,250,12,0,30.76,10,27,CLR,M,M,M,M,M,M,40.33
0CO,8/26/24,9:55:00 PM,46.4,37.4,70.68,310,6,0,30.75,10,18,SCT,SCT,M,M,5000,6500,M,42.87
0CO,8/26/24,10:55:00 PM,50,33.8,53.54,310,12,0,30.76,10,22,SCT,SCT,M,M,5000,6000,M,50
0CO,8/26/24,11:55:00 PM,50,30.2,46.31,M,M,0,30.77,10,M,SCT,M,M,M,7000,M,M,50
0CO,8/26/24,12:55:00 AM,44.6,28.4,52.72,300,16,0,30.77,10,M,SCT,SCT,M,M,6000,6500,M,36.84
0CO,8/26/24,1:55:00 AM,42.8,30.2,60.79,290,16,0,30.77,10,M,CLR,M,M,M,M,M,M,34.5
0CO,8/26/24,2:55:00 AM,41,32,70.08,290,14,0,30.79,10,M,SCT,SCT,M,M,5500,6500,M,32.76
0CO,8/26/24,3:55:00 AM,41,32,70.08,280,14,0,30.79,10,17,CLR,M,M,M,M,M,M,32.76
0CO,8/26/24,4:55:00 AM,41,32,70.08,290,11,0,30.79,10,M,SCT,SCT,M,M,3600,4800,M,33.84
0CO,8/26/24,6:55:00 PM,50,32,49.81,10,5,0,30.79,10,M,CLR,M,M,M,M,M,M,50
0CO,8/26/24,7:55:00 PM,50,32,49.81,320,8,0,30.78,10,M,SCT,M,M,M,5000,M,M,50
0CO,8/26/24,8:55:00 PM,51.8,30.2,43.32,260,5,0,30.77,10,M,CLR,M,M,M,M,M,M,51.8
0CO,8/26/24,9:55:00 PM,53.6,32,43.61,340,5,0,30.77,10,M,SCT,BKN,M,M,5000,6500,M,53.6
0CO,8/26/24,10:55:00 PM,50,32,49.81,140,4,0,30.77,10,M,SCT,SCT,OVC,M,4800,6000,7000,50
0CO,8/26/24,11:55:00 PM,50,32,49.81,0,0,0,30.75,10,M,SCT,SCT,M,M,7000,7500,M,50
0CO,8/26/24,12:55:00 AM,44.6,32,61.03,110,11,0,30.74,10,M,CLR,M,M,M,M,M,M,38.39
0CO,8/26/24,1:55:00 AM,44.6,32,61.03,160,7,0,30.74,10,M,CLR,M,M,M,M,M,M,40.14
0CO,8/26/24,2:55:00 AM,42.8,33.8,70.28,130,6,0,30.75,10,M,CLR,M,M,M,M,M,M,38.54
0CO,8/26/24,3:55:00 AM,44.6,32,61.03,0,0,0,30.74,10,M,CLR,M,M,M,M,M,M,44.6
0CO,8/26/24,4:55:00 AM,42.8,32,65.38,0,0,0,30.74,10,M,CLR,M,M,M,M,M,M,42.8
0CO,8/26/24,5:55:00 AM,42.8,32,65.38,260,5,0,30.71,10,M,CLR,M,M,M,M,M,M,39.22
0CO,8/27/24,6:55:00 AM,42.8,32,65.38,250,6,0,30.71,10,M,CLR,M,M,M,M,M,M,38.54
0CO,8/27/24,7:55:00 AM,42.8,30.2,60.79,270,15,0,30.69,10,25,CLR,M,M,M,M,M,M,34.78
0CO,8/27/24,8:55:00 AM,41,30.2,65.16,290,18,0,30.68,10,22,CLR,M,M,M,M,M,M,31.6
0CO,8/27/24,9:55:00 AM,41,30.2,65.16,300,22,0,30.67,10,27,CLR,M,M,M,M,M,M,30.63
0CO,8/27/24,10:55:00 AM,39.2,30.2,69.88,300,18,0,30.67,10,25,CLR,M,M,M,M,M,M,29.23
0CO,8/27/24,11:55:00 AM,37.4,30.2,74.98,330,20,0,30.67,10,27,CLR,M,M,M,M,M,M,26.31
0CO,8/27/24,12:55:00 PM,37.4,28.4,69.67,320,19,0,30.67,10,27,CLR,M,M,M,M,M,M,26.58
0CO,8/27/24,1:55:00 PM,41,28.4,60.54,310,17,0,30.67,10,21,CLR,M,M,M,M,M,M,31.87
0CO,8/27/24,2:55:00 PM,42.8,28.4,56.48,320,9,0,30.67,10,24,CLR,M,M,M,M,M,M,36.94
0CO,8/27/24,3:55:00 PM,44.6,26.6,48.96,310,21,0,30.68,10,29,CLR,M,M,M,M,M,M,35.66
0CO,8/27/24,4:55:00 PM,48.2,28.4,46.02,290,15,0,30.69,10,24,CLR,M,M,M,M,M,M,41.78
0CO,8/28/24,5:55:00 PM,50,28.4,43.03,300,13,0,30.69,10,23,CLR,M,M,M,M,M,M,50
0CO,8/28/24,6:55:00 PM,53.6,30.2,40.54,360,6,0,30.68,10,M,SCT,M,M,M,5500,M,M,53.6
0CO,8/28/24,7:55:00 PM,51.8,26.6,37.38,330,8,0,30.67,10,20,CLR,M,M,M,M,M,M,51.8
0CO,8/28/24,8:55:00 PM,53.6,26.6,34.98,290,15,0,30.65,10,25,SCT,M,M,M,6500,M,M,53.6
0CO,8/28/24,9:55:00 PM,55.4,28.4,35.28,280,17,0,30.64,10,22,SCT,M,M,M,6500,M,M,55.4
0CO,8/28/24,10:55:00 PM,55.4,26.6,32.76,260,15,0,30.63,10,24,CLR,M,M,M,M,M,M,55.4
0CO,8/28/24,11:55:00 PM,53.6,28.4,37.67,300,10,0,30.63,10,20,CLR,M,M,M,M,M,M,53.6
0CO,8/28/24,12:55:00 AM,50,26.6,39.95,30,5,0,30.64,10,M,CLR,M,M,M,M,M,M,50
0CO,8/28/24,1:55:00 AM,44.6,26.6,48.96,330,5,0,30.64,10,M,CLR,M,M,M,M,M,M,41.36
0CO,8/28/24,2:55:00 AM,44.6,26.6,48.96,330,6,0,30.65,10,M,CLR,M,M,M,M,M,M,40.71
0CO,8/28/24,3:55:00 AM,44.6,26.6,48.96,290,11,0,30.65,10,18,CLR,M,M,M,M,M,M,38.39
0CO,8/28/24,4:55:00 AM,42.8,28.4,56.48,300,10,0,30.64,10,18,CLR,M,M,M,M,M,M,36.51
0CO,8/28/24,5:55:00 AM,42.8,28.4,56.48,300,14,0,30.63,10,22,CLR,M,M,M,M,M,M,35.08
0CO,8/28/24,6:55:00 AM,42.8,26.6,52.45,M,M,0,30.62,10,M,CLR,M,M,M,M,M,M,M
0CO,8/28/24,7:55:00 AM,42.8,26.6,52.45,290,15,0,30.61,10,22,CLR,M,M,M,M,M,M,34.78
0CO,8/28/24,8:55:00 AM,42.8,23,45.14,290,15,0,30.61,10,20,CLR,M,M,M,M,M,M,34.78
0CO,8/28/24,9:55:00 AM,41,21.2,44.85,300,19,0,30.6,10,23,CLR,M,M,M,M,M,M,31.34
0CO,8/28/24,10:55:00 AM,41,19.4,41.54,300,20,0,30.59,10,25,CLR,M,M,M,M,M,M,31.09
0CO,8/28/24,11:55:00 AM,42.8,17.6,35.87,300,18,0,30.61,10,25,CLR,M,M,M,M,M,M,33.97
0CO,8/28/24,12:55:00 PM,42.8,19.4,38.75,290,18,0,30.63,10,21,CLR,M,M,M,M,M,M,33.97
0CO,8/28/24,1:55:00 PM,42.8,19.4,38.75,290,10,0,30.65,10,M,CLR,M,M,M,M,M,M,36.51
0CO,8/28/24,2:55:00 PM,46.4,21.2,36.48,0,0,0,30.66,10,M,CLR,M,M,M,M,M,M,46.4
0CO,8/28/24,3:55:00 PM,46.4,19.4,33.79,320,15,0,30.66,10,26,CLR,M,M,M,M,M,M,39.45
0CO,8/28/24,4:55:00 PM,50,23,34.39,320,9,0,30.67,10,20,SCT,M,M,M,7000,M,M,50
0CO,8/29/24,5:55:00 PM,50,21.2,31.87,300,18,0,30.67,10,25,SCT,M,M,M,7000,M,M,50
0CO,8/29/24,6:55:00 PM,48.2,17.6,29.23,300,16,0,30.67,10,30,OVC,M,M,M,8000,M,M,41.53
0CO,8/29/24,7:55:00 PM,51.8,23,32.17,300,12,0,30.68,10,28,SCT,BKN,M,M,7000,10000,M,51.8
0CO,8/29/24,8:55:00 PM,46.4,21.2,36.48,290,18,0,30.68,10,27,OVC,M,M,M,6500,M,M,38.7
0CO,8/29/24,9:55:00 PM,35.6,32,86.59,330,25,0,30.69,7,38,BKN,BKN,OVC,M,700,2000,4700,22.69
0CO,8/29/24,10:55:00 PM,42.8,28.4,56.48,270,17,0,30.69,10,26,BKN,BKN,OVC,M,6500,7000,8000,34.22
0CO,8/29/24,11:55:00 PM,44.6,28.4,52.72,290,19,0,30.68,10,M,SCT,SCT,BKN,M,4000,6000,8500,36.1
0CO,8/29/24,12:55:00 AM,41,28.4,60.54,260,17,0,30.7,10,25,SCT,SCT,BKN,M,6000,7000,9000,31.87
0CO,8/29/24,1:55:00 AM,42.8,26.6,52.45,250,7,0,30.72,10,22,BKN,M,M,M,6000,M,M,37.94
0CO,8/29/24,2:55:00 AM,41,28.4,60.54,150,4,0,30.74,10,M,CLR,M,M,M,M,M,M,37.93
0CO,8/29/24,3:55:00 AM,37.4,32,80.65,130,11,0,30.75,10,22,CLR,M,M,M,M,M,M,29.29
0CO,8/29/24,4:55:00 AM,35.6,32,86.59,140,17,0,30.75,10,21,CLR,M,M,M,M,M,M,24.79
0CO,8/29/24,5:55:00 AM,35.6,32,86.59,150,14,0,30.75,10,M,CLR,M,M,M,M,M,M,25.8
0CO,8/29/24,6:55:00 AM,35.6,30.2,80.51,150,7,0,30.74,10,16,CLR,M,M,M,M,M,M,29.17
0CO,8/29/24,7:55:00 AM,35.6,32,86.59,180,7,0,30.74,10,17,CLR,M,M,M,M,M,M,29.17
0CO,8/29/24,8:55:00 AM,37.4,28.4,69.67,240,7,0,30.74,10,15,CLR,M,M,M,M,M,M,31.36
0CO,8/29/24,9:55:00 AM,37.4,26.6,64.7,260,14,0,30.72,10,20,CLR,M,M,M,M,M,M,28.12
0CO,8/29/24,10:55:00 AM,37.4,19.4,47.8,270,10,0,30.74,10,15,CLR,M,M,M,M,M,M,29.74
0CO,8/29/24,11:55:00 AM,37.4,17.6,44.25,290,10,0,30.74,10,M,CLR,M,M,M,M,M,M,29.74
0CO,8/29/24,12:55:00 PM,37.4,17.6,44.25,300,12,0,30.76,10,M,CLR,M,M,M,M,M,M,28.87
0CO,8/29/24,1:55:00 PM,39.2,15.8,38.15,300,10,0,30.78,10,M,CLR,M,M,M,M,M,M,32
0CO,8/29/24,2:55:00 PM,42.8,15.8,33.18,300,12,0,30.79,10,16,CLR,M,M,M,M,M,M,35.75
0CO,8/29/24,3:55:00 PM,44.6,17.6,33.49,310,9,0,30.8,10,17,CLR,M,M,M,M,M,M,39.18
0CO,8/29/24,4:55:00 PM,46.4,17.6,31.28,300,8,0,30.81,10,16,CLR,M,M,M,M,M,M,41.85
0CO,8/30/24,5:55:00 PM,50,21.2,31.87,360,8,0,30.8,10,17,CLR,M,M,M,M,M,M,50
0CO,8/30/24,6:55:00 PM,50,21.2,31.87,60,6,0,30.81,10,M,CLR,M,M,M,M,M,M,50
0CO,8/30/24,7:55:00 PM,51.8,21.2,29.82,320,9,0,30.81,10,16,CLR,M,M,M,M,M,M,51.8
0CO,8/30/24,8:55:00 PM,53.6,19.4,25.85,80,7,0,30.79,10,M,CLR,M,M,M,M,M,M,53.6
0CO,8/30/24,9:55:00 PM,51.8,19.4,27.62,50,4,0,30.79,10,M,CLR,M,M,M,M,M,M,51.8
0CO,8/30/24,10:55:00 PM,51.8,15.8,23.65,10,6,0,30.79,10,14,CLR,M,M,M,M,M,M,51.8
0CO,8/30/24,11:55:00 PM,51.8,15.8,23.65,340,10,0,30.79,10,14,SCT,M,M,M,8000,M,M,51.8